{"id": "chunk_8_8", "ix": 8, "iy": 8, "tile_proj_bounds": [390147.2182111981, 6088438.107330536, 391647.2182111981, 6089938.107330536], "roads": [{"pts_proj": [[390825.0340388584, 6088459.324088197], [390687.478790062, 6088412.166105509], [390597.8635673255, 6088381.432102273]], "width_m": 12.0, "highway": "secondary"}, {"pts_proj": [[390597.8635673255, 6088381.432102273], [390687.478790062, 6088412.166105509], [390825.0340388584, 6088459.324088197]], "width_m": 12.0, "highway": "secondary"}, {"pts_proj": [[391407.89983203675, 6088279.840224021], [391410.6238049311, 6088313.172194], [391410.32010426366, 6088352.255129807], [391409.9834581673, 6088395.535873554], [391419.4588221585, 6088416.202404896], [391421.9047388434, 6088427.46508054], [391418.02008832153, 6088442.298765431], [391417.1682639755, 6088456.892025412], [391429.06428000086, 6088486.461737915], [391438.9668302804, 6088504.924829259], [391443.88160843437, 6088518.343140242], [391448.74104201427, 6088537.685362628], [391461.2889749151, 6088554.214173892], [391476.103893347, 6088567.737999855], [391503.85205227026, 6088588.2964590825]], "width_m": 7.0, "highway": "residential"}, {"pts_proj": [[391503.85205227026, 6088588.2964590825], [391476.103893347, 6088567.737999855], [391461.2889749151, 6088554.214173892], [391448.74104201427, 6088537.685362628], [391443.88160843437, 6088518.343140242], [391438.9668302804, 6088504.924829259], [391429.06428000086, 6088486.461737915], [391421.0576491395, 6088468.464859808], [391416.8500644856, 6088450.899234298], [391420.7298619828, 6088433.482891564], [391421.22595786245, 6088422.99506018], [391413.30422827124, 6088403.214913605], [391410.32010426366, 6088352.255129807], [391410.6238049311, 6088313.172194], [391408.76225900947, 6088293.746277371], [391407.89983203675, 6088279.840224021]], "width_m": 7.0, "highway": "residential"}, {"pts_proj": [[390478.9919606482, 6088496.273355444], [390461.8499404769, 6088351.142740227], [390463.2733963838, 6088336.980536192]], "width_m": 10.0, "highway": "tertiary"}, {"pts_proj": [[390463.2733963838, 6088336.980536192], [390461.8499404769, 6088351.142740227], [390478.9919606482, 6088496.273355444]], "width_m": 10.0, "highway": "tertiary"}, {"pts_proj": [[390520.2453255054, 6088507.34497595], [390478.9919606482, 6088496.273355444]], "width_m": 7.0, "highway": "residential"}, {"pts_proj": [[390478.9919606482, 6088496.273355444], [390520.2453255054, 6088507.34497595]], "width_m": 7.0, "highway": "residential"}, {"pts_proj": [[390520.2453255054, 6088507.34497595], [390563.77450107725, 6088369.750714746]], "width_m": 8.0, "highway": "unclassified"}, {"pts_proj": [[390563.77450107725, 6088369.750714746], [390520.2453255054, 6088507.34497595]], "width_m": 8.0, "highway": "unclassified"}, {"pts_proj": [[390802.0123317506, 6088526.669728425], [390825.0340388584, 6088459.324088197]], "width_m": 7.0, "highway": "residential"}, {"pts_proj": [[390825.0340388584, 6088459.324088197], [390802.0123317506, 6088526.669728425]], "width_m": 7.0, "highway": "residential"}, {"pts_proj": [[390733.2288333232, 6088504.376576824], [390802.0123317506, 6088526.669728425]], "width_m": 7.0, "highway": "residential"}, {"pts_proj": [[390802.0123317506, 6088526.669728425], [390733.2288333232, 6088504.376576824]], "width_m": 7.0, "highway": "residential"}, {"pts_proj": [[391185.335898402, 6088583.980304494], [391118.05720502726, 6088560.698560083], [391006.20262858924, 6088522.002443639], [390974.4080380181, 6088510.996998954], [390920.0570421228, 6088492.190902438], [390892.4902352181, 6088482.652891238], [390859.84178109735, 6088471.357299162], [390825.0340388584, 6088459.324088197]], "width_m": 12.0, "highway": "secondary"}, {"pts_proj": [[390825.0340388584, 6088459.324088197], [390859.84178109735, 6088471.357299162], [390892.4902352181, 6088482.652891238], [390920.0570421228, 6088492.190902438], [390974.4080380181, 6088510.996998954], [391006.20262858924, 6088522.002443639], [391118.05720502726, 6088560.698560083], [391185.335898402, 6088583.980304494]], "width_m": 12.0, "highway": "secondary"}, {"pts_proj": [[390520.2453255054, 6088507.34497595], [390574.9515413593, 6088521.194688775], [390626.0541849151, 6088537.916131732]], "width_m": 7.0, "highway": "residential"}, {"pts_proj": [[390626.0541849151, 6088537.916131732], [390574.9515413593, 6088521.194688775], [390520.2453255054, 6088507.34497595]], "width_m": 7.0, "highway": "residential"}, {"pts_proj": [[390478.9919606482, 6088496.273355444], [390481.2805172068, 6088522.256917833], [390484.7504746969, 6088565.378299839], [390492.97748861194, 6088644.219770969]], "width_m": 10.0, "highway": "tertiary"}, {"pts_proj": [[390492.97748861194, 6088644.219770969], [390484.7504746969, 6088565.378299839], [390481.2805172068, 6088522.256917833], [390478.9919606482, 6088496.273355444]], "width_m": 10.0, "highway": "tertiary"}, {"pts_proj": [[390494.71338285645, 6088664.639339282], [390492.97748861194, 6088644.219770969]], "width_m": 10.0, "highway": "tertiary"}, {"pts_proj": [[390492.97748861194, 6088644.219770969], [390494.71338285645, 6088664.639339282]], "width_m": 10.0, "highway": "tertiary"}, {"pts_proj": [[390545.4819882759, 6088671.404186616], [390492.97748861194, 6088644.219770969]], "width_m": 7.0, "highway": "residential"}, {"pts_proj": [[390492.97748861194, 6088644.219770969], [390536.19555823976, 6088664.928982104], [390545.4819882759, 6088671.404186616]], "width_m": 7.0, "highway": "residential"}, {"pts_proj": [[390802.0123317506, 6088526.669728425], [390779.9412161361, 6088585.375650745]], "width_m": 7.0, "highway": "residential"}, {"pts_proj": [[390779.9412161361, 6088585.375650745], [390802.0123317506, 6088526.669728425]], "width_m": 7.0, "highway": "residential"}, {"pts_proj": [[390779.9412161361, 6088585.375650745], [390626.0541849151, 6088537.916131732]], "width_m": 7.0, "highway": "residential"}, {"pts_proj": [[390626.0541849151, 6088537.916131732], [390779.9412161361, 6088585.375650745]], "width_m": 7.0, "highway": "residential"}, {"pts_proj": [[390758.75610581477, 6088641.744519116], [390613.12954327726, 6088594.373712472], [390626.0541849151, 6088537.916131732]], "width_m": 7.0, "highway": "residential"}, {"pts_proj": [[390626.0541849151, 6088537.916131732], [390610.39133018744, 6088585.400742758], [390758.75610581477, 6088641.744519116]], "width_m": 7.0, "highway": "residential"}, {"pts_proj": [[390779.9412161361, 6088585.375650745], [390758.75610581477, 6088641.744519116]], "width_m": 7.0, "highway": "residential"}, {"pts_proj": [[390758.75610581477, 6088641.744519116], [390779.9412161361, 6088585.375650745]], "width_m": 7.0, "highway": "residential"}, {"pts_proj": [[390545.4819882759, 6088671.404186616], [390566.908939802, 6088647.647190379], [390576.0885884847, 6088636.613287317], [390589.8568341616, 6088631.568170992], [390603.9465720218, 6088631.291192327], [390742.9308942263, 6088675.23877639]], "width_m": 7.0, "highway": "residential"}, {"pts_proj": [[390742.9308942263, 6088675.23877639], [390603.9465720218, 6088631.291192327], [390589.8568341616, 6088631.568170992], [390576.0885884847, 6088636.613287317], [390566.908939802, 6088647.647190379], [390545.4819882759, 6088671.404186616]], "width_m": 7.0, "highway": "residential"}, {"pts_proj": [[390494.71338285645, 6088664.639339282], [390467.67074319685, 6088667.637731147], [390452.93233954965, 6088691.999966701], [390363.2185379107, 6088696.675314973]], "width_m": 7.0, "highway": "residential"}, {"pts_proj": [[390363.2185379107, 6088696.675314973], [390446.6137039201, 6088694.703742181], [390462.03306239704, 6088672.239679421], [390494.71338285645, 6088664.639339282]], "width_m": 7.0, "highway": "residential"}, {"pts_proj": [[390494.71338285645, 6088664.639339282], [390500.6215255451, 6088725.446766297]], "width_m": 10.0, "highway": "tertiary"}, {"pts_proj": [[390500.6215255451, 6088725.446766297], [390494.71338285645, 6088664.639339282]], "width_m": 10.0, "highway": "tertiary"}, {"pts_proj": [[390500.6215255451, 6088725.446766297], [390550.6365777636, 6088728.1554713035], [390560.4188976211, 6088731.579362431]], "width_m": 7.0, "highway": "residential"}, {"pts_proj": [[390560.4188976211, 6088731.579362431], [390500.6215255451, 6088725.446766297]], "width_m": 7.0, "highway": "residential"}, {"pts_proj": [[390500.6215255451, 6088725.446766297], [390503.8912790084, 6088755.391897973]], "width_m": 10.0, "highway": "tertiary"}, {"pts_proj": [[390503.8912790084, 6088755.391897973], [390500.6215255451, 6088725.446766297]], "width_m": 10.0, "highway": "tertiary"}, {"pts_proj": [[390758.75610581477, 6088641.744519116], [390748.2475064436, 6088670.077245993], [390742.9308942263, 6088675.23877639]], "width_m": 7.0, "highway": "residential"}, {"pts_proj": [[390742.9308942263, 6088675.23877639], [390758.75610581477, 6088641.744519116]], "width_m": 7.0, "highway": "residential"}, {"pts_proj": [[391185.335898402, 6088583.980304494], [391128.1173267624, 6088672.72731621], [391086.66566706664, 6088737.012144277], [391066.8052962917, 6088767.820037261]], "width_m": 10.0, "highway": "tertiary"}, {"pts_proj": [[391066.8052962917, 6088767.820037261], [391086.66566706664, 6088737.012144277], [391128.1173267624, 6088672.72731621], [391185.335898402, 6088583.980304494]], "width_m": 10.0, "highway": "tertiary"}, {"pts_proj": [[390545.4819882759, 6088671.404186616], [390584.18389678106, 6088682.805802897], [390727.44790325797, 6088730.656204056]], "width_m": 7.0, "highway": "residential"}, {"pts_proj": [[390727.44790325797, 6088730.656204056], [390584.18389678106, 6088682.805802897], [390552.6554685699, 6088676.405800667], [390545.4819882759, 6088671.404186616]], "width_m": 7.0, "highway": "residential"}, {"pts_proj": [[390742.9308942263, 6088675.23877639], [390727.44790325797, 6088730.656204056]], "width_m": 7.0, "highway": "residential"}, {"pts_proj": [[390727.44790325797, 6088730.656204056], [390742.9308942263, 6088675.23877639]], "width_m": 7.0, "highway": "residential"}, {"pts_proj": [[390742.9308942263, 6088675.23877639], [390902.29541651614, 6088727.556266677], [391011.6746059029, 6088763.470988905], [391028.15203730355, 6088760.175994725], [391049.3338873002, 6088759.227069638], [391066.8052962917, 6088767.820037261]], "width_m": 7.0, "highway": "residential"}, {"pts_proj": [[391066.8052962917, 6088767.820037261], [391049.3338873002, 6088759.227069638], [391028.15203730355, 6088760.175994725], [391011.6746059029, 6088763.470988905], [390902.29541651614, 6088727.556266677], [390742.9308942263, 6088675.23877639]], "width_m": 7.0, "highway": "residential"}, {"pts_proj": [[391420.2898860369, 6088600.895156791], [391468.76527147234, 6088592.952934048], [391503.85205227026, 6088588.2964590825]], "width_m": 12.0, "highway": "secondary"}, {"pts_proj": [[391503.85205227026, 6088588.2964590825], [391476.394870653, 6088591.944456222], [391420.2898860369, 6088600.895156791]], "width_m": 12.0, "highway": "secondary"}, {"pts_proj": [[391185.335898402, 6088583.980304494], [391202.0987251015, 6088589.774441998], [391224.63324953447, 6088598.044799466], [391250.2917692788, 6088607.464092628], [391270.7154926019, 6088613.024969128], [391294.4299390377, 6088613.919501563], [391327.38819851284, 6088610.849544091], [391341.68966351793, 6088609.5232841]], "width_m": 12.0, "highway": "secondary"}, {"pts_proj": [[391341.68966351793, 6088609.5232841], [391327.38819851284, 6088610.849544091], [391294.4299390377, 6088613.919501563], [391270.7154926019, 6088613.024969128], [391250.2917692788, 6088607.464092628], [391224.63324953447, 6088598.044799466], [391202.0987251015, 6088589.774441998], [391185.335898402, 6088583.980304494]], "width_m": 12.0, "highway": "secondary"}, {"pts_proj": [[391420.2898860369, 6088600.895156791], [391378.8062869937, 6088605.84083811], [391341.68966351793, 6088609.5232841]], "width_m": 12.0, "highway": "secondary"}, {"pts_proj": [[391341.68966351793, 6088609.5232841], [391378.8062869937, 6088605.84083811], [391420.2898860369, 6088600.895156791]], "width_m": 12.0, "highway": "secondary"}, {"pts_proj": [[391420.2898860369, 6088600.895156791], [391434.74847835605, 6088640.210686812], [391463.6031139118, 6088715.492454414], [391472.0184459997, 6088761.255454684]], "width_m": 7.0, "highway": "residential"}, {"pts_proj": [[391472.0184459997, 6088761.255454684], [391463.6031139118, 6088715.492454414], [391434.74847835605, 6088640.210686812], [391420.2898860369, 6088600.895156791]], "width_m": 7.0, "highway": "residential"}, {"pts_proj": [[391365.77193849045, 6088772.177890726], [391367.6065731449, 6088756.3584664455], [391364.3058561466, 6088734.68522762], [391356.2299296966, 6088689.749115324], [391345.8522906655, 6088629.194010413], [391341.68966351793, 6088609.5232841]], "width_m": 7.0, "highway": "residential"}, {"pts_proj": [[391341.68966351793, 6088609.5232841], [391345.8522906655, 6088629.194010413], [391356.2299296966, 6088689.749115324], [391364.3058561466, 6088734.68522762], [391367.6065731449, 6088756.3584664455], [391366.6038193868, 6088768.149979118], [391365.77193849045, 6088772.177890726]], "width_m": 7.0, "highway": "residential"}, {"pts_proj": [[390727.44790325797, 6088730.656204056], [390727.9795770022, 6088744.58140365], [390717.57177481405, 6088762.30228949], [390708.1329894347, 6088782.693699926]], "width_m": 7.0, "highway": "residential"}, {"pts_proj": [[390708.1329894347, 6088782.693699926], [390717.57177481405, 6088762.30228949], [390727.9795770022, 6088744.58140365], [390727.44790325797, 6088730.656204056]], "width_m": 7.0, "highway": "residential"}, {"pts_proj": [[390560.4188976211, 6088731.579362431], [390708.1329894347, 6088782.693699926]], "width_m": 7.0, "highway": "residential"}, {"pts_proj": [[390708.1329894347, 6088782.693699926], [390560.4188976211, 6088731.579362431]], "width_m": 7.0, "highway": "residential"}, {"pts_proj": [[390560.4188976211, 6088731.579362431], [390539.43423611403, 6088785.250391326]], "width_m": 8.0, "highway": "unclassified"}, {"pts_proj": [[390539.43423611403, 6088785.250391326], [390560.4188976211, 6088731.579362431]], "width_m": 8.0, "highway": "unclassified"}, {"pts_proj": [[391025.84010561084, 6088830.947014797], [390977.29065449524, 6088814.626676807], [390841.7031628365, 6088769.053053354], [390727.44790325797, 6088730.656204056]], "width_m": 7.0, "highway": "residential"}, {"pts_proj": [[390727.44790325797, 6088730.656204056], [390841.7031628365, 6088769.053053354], [390977.29065449524, 6088814.626676807], [391025.84010561084, 6088830.947014797]], "width_m": 7.0, "highway": "residential"}, {"pts_proj": [[391043.715602575, 6088804.740418968], [391066.8052962917, 6088767.820037261]], "width_m": 10.0, "highway": "tertiary"}, {"pts_proj": [[391066.8052962917, 6088767.820037261], [391043.715602575, 6088804.740418968]], "width_m": 10.0, "highway": "tertiary"}, {"pts_proj": [[390503.8912790084, 6088755.391897973], [390471.5530186953, 6088759.911204732], [390443.6056301724, 6088760.749847894], [390410.7108933479, 6088761.119548194], [390386.1678859656, 6088762.242723183], [390360.5455185452, 6088762.479540769]], "width_m": 7.0, "highway": "residential"}, {"pts_proj": [[390360.5455185452, 6088762.479540769], [390386.1678859656, 6088762.242723183], [390410.7108933479, 6088761.119548194], [390443.6056301724, 6088760.749847894], [390471.5530186953, 6088759.911204732], [390503.8912790084, 6088755.391897973]], "width_m": 7.0, "highway": "residential"}, {"pts_proj": [[390503.8912790084, 6088755.391897973], [390507.45141886047, 6088785.942241027]], "width_m": 10.0, "highway": "tertiary"}, {"pts_proj": [[390507.45141886047, 6088785.942241027], [390503.8912790084, 6088755.391897973]], "width_m": 10.0, "highway": "tertiary"}, {"pts_proj": [[390507.45141886047, 6088785.942241027], [390539.43423611403, 6088785.250391326]], "width_m": 7.0, "highway": "residential"}, {"pts_proj": [[390539.43423611403, 6088785.250391326], [390507.45141886047, 6088785.942241027]], "width_m": 7.0, "highway": "residential"}, {"pts_proj": [[390509.50287312374, 6088808.524992629], [390507.45141886047, 6088785.942241027]], "width_m": 10.0, "highway": "tertiary"}, {"pts_proj": [[390507.45141886047, 6088785.942241027], [390509.50287312374, 6088808.524992629]], "width_m": 10.0, "highway": "tertiary"}, {"pts_proj": [[390362.9836189047, 6088814.999886989], [390380.2082406327, 6088814.233617902], [390408.14463009255, 6088814.00713712], [390509.50287312374, 6088808.524992629]], "width_m": 7.0, "highway": "residential"}, {"pts_proj": [[390509.50287312374, 6088808.524992629], [390408.14463009255, 6088814.00713712], [390380.2082406327, 6088814.233617902], [390362.9836189047, 6088814.999886989]], "width_m": 7.0, "highway": "residential"}, {"pts_proj": [[391365.77193849045, 6088772.177890726], [391264.42060386203, 6088793.304124666], [391221.1097229513, 6088801.590920315], [391167.5770923357, 6088811.818408903], [391151.5523115441, 6088812.630451579], [391120.33870128746, 6088823.073756554], [391093.16594854894, 6088829.656283463], [391073.112454281, 6088828.7518404825], [391043.715602575, 6088804.740418968]], "width_m": 7.0, "highway": "residential"}, {"pts_proj": [[391043.715602575, 6088804.740418968], [391073.112454281, 6088828.7518404825], [391093.16594854894, 6088829.656283463], [391120.33870128746, 6088823.073756554], [391143.951199791, 6088813.739000562], [391167.5770923357, 6088811.818408903], [391207.6148384565, 6088804.16714173], [391264.42060386203, 6088793.304124666], [391365.77193849045, 6088772.177890726]], "width_m": 7.0, "highway": "residential"}, {"pts_proj": [[390708.1329894347, 6088782.693699926], [390696.00749191456, 6088835.914218226]], "width_m": 7.0, "highway": "residential"}, {"pts_proj": [[390696.00749191456, 6088835.914218226], [390708.1329894347, 6088782.693699926]], "width_m": 7.0, "highway": "residential"}, {"pts_proj": [[390696.00749191456, 6088835.914218226], [390539.43423611403, 6088785.250391326]], "width_m": 7.0, "highway": "residential"}, {"pts_proj": [[390539.43423611403, 6088785.250391326], [390696.00749191456, 6088835.914218226]], "width_m": 7.0, "highway": "residential"}, {"pts_proj": [[391043.715602575, 6088804.740418968], [391025.84010561084, 6088830.947014797]], "width_m": 10.0, "highway": "tertiary"}, {"pts_proj": [[391025.84010561084, 6088830.947014797], [391043.715602575, 6088804.740418968]], "width_m": 10.0, "highway": "tertiary"}, {"pts_proj": [[390945.11275495717, 6088873.432827719], [390927.388050834, 6088859.6920616925], [390708.1329894347, 6088782.693699926]], "width_m": 7.0, "highway": "residential"}, {"pts_proj": [[390708.1329894347, 6088782.693699926], [390927.388050834, 6088859.6920616925], [390945.11275495717, 6088873.432827719]], "width_m": 7.0, "highway": "residential"}, {"pts_proj": [[390509.50287312374, 6088808.524992629], [390513.4325286634, 6088850.009794568]], "width_m": 10.0, "highway": "tertiary"}, {"pts_proj": [[390513.4325286634, 6088850.009794568], [390509.50287312374, 6088808.524992629]], "width_m": 10.0, "highway": "tertiary"}, {"pts_proj": [[390515.0825826323, 6088865.343807988], [390513.4325286634, 6088850.009794568]], "width_m": 10.0, "highway": "tertiary"}, {"pts_proj": [[390513.4325286634, 6088850.009794568], [390515.0825826323, 6088865.343807988]], "width_m": 10.0, "highway": "tertiary"}, {"pts_proj": [[390362.91756161227, 6088872.591207536], [390515.0825826323, 6088865.343807988]], "width_m": 7.0, "highway": "residential"}, {"pts_proj": [[390515.0825826323, 6088865.343807988], [390362.91756161227, 6088872.591207536]], "width_m": 7.0, "highway": "residential"}, {"pts_proj": [[390515.0825826323, 6088865.343807988], [390519.6003821845, 6088905.979298381], [390525.3285733047, 6088963.3734032605]], "width_m": 10.0, "highway": "tertiary"}, {"pts_proj": [[390525.3285733047, 6088963.3734032605], [390519.6003821845, 6088905.979298381], [390515.0825826323, 6088865.343807988]], "width_m": 10.0, "highway": "tertiary"}, {"pts_proj": [[390323.77008852985, 6089005.13779967], [390338.2495446271, 6089002.23421295], [390525.3285733047, 6088963.3734032605]], "width_m": 7.0, "highway": "residential"}, {"pts_proj": [[390525.3285733047, 6088963.3734032605], [390338.2495446271, 6089002.23421295], [390323.77008852985, 6089005.13779967]], "width_m": 7.0, "highway": "residential"}, {"pts_proj": [[391515.06511646917, 6088752.086892614], [391472.0184459997, 6088761.255454684]], "width_m": 7.0, "highway": "residential"}, {"pts_proj": [[391472.0184459997, 6088761.255454684], [391508.8941374688, 6088754.818978258], [391515.06511646917, 6088752.086892614]], "width_m": 7.0, "highway": "residential"}, {"pts_proj": [[391365.2601719956, 6088776.454097671], [391422.6839207504, 6088769.908738982], [391472.0184459997, 6088761.255454684]], "width_m": 7.0, "highway": "residential"}, {"pts_proj": [[391472.0184459997, 6088761.255454684], [391422.6839207504, 6088769.908738982], [391365.2601719956, 6088776.454097671]], "width_m": 7.0, "highway": "residential"}, {"pts_proj": [[391365.77193849045, 6088772.177890726], [391365.2601719956, 6088776.454097671]], "width_m": 7.0, "highway": "residential"}, {"pts_proj": [[391365.2601719956, 6088776.454097671], [391365.77193849045, 6088772.177890726]], "width_m": 7.0, "highway": "residential"}, {"pts_proj": [[391373.7832511454, 6088859.697996431], [391369.7919256425, 6088826.185205264], [391365.4352363377, 6088780.7693268815], [391365.2601719956, 6088776.454097671]], "width_m": 7.0, "highway": "residential"}, {"pts_proj": [[391365.2601719956, 6088776.454097671], [391369.7919256425, 6088826.185205264], [391373.7832511454, 6088859.697996431]], "width_m": 7.0, "highway": "residential"}, {"pts_proj": [[391191.12276354135, 6089563.192678513], [391210.61279017496, 6089552.900591694], [391233.81494868384, 6089540.280849835], [391271.5283040727, 6089519.77240535], [391310.61926479277, 6089496.592444192], [391340.83991029044, 6089478.682078732], [391362.94792661443, 6089459.231830556], [391386.67793456686, 6089444.818894956], [391410.45323562814, 6089428.300919841], [391428.9701524713, 6089412.188747578], [391444.3214493103, 6089402.710452546], [391464.7424535224, 6089402.494295842], [391474.810444178, 6089409.074864026], [391481.21550443, 6089421.611035876], [391485.6958086246, 6089435.919370526], [391481.5320887265, 6089446.072955606], [391436.2443331305, 6089464.04664044], [391393.1471284328, 6089484.5950316265], [391366.8193978756, 6089495.742225685], [391337.00170023536, 6089511.237991831], [391285.7363614722, 6089539.555682962], [391256.00886706734, 6089556.8978464035], [391245.72928760876, 6089569.070337968], [391251.56658739375, 6089586.451559248], [391272.82201777695, 6089606.664988687], [391293.80937883374, 6089626.139124203]], "width_m": 7.0, "highway": "residential"}, {"pts_proj": [[391293.80937883374, 6089626.139124203], [391272.82201777695, 6089606.664988687], [391251.56658739375, 6089586.451559248], [391245.72928760876, 6089569.070337968], [391256.00886706734, 6089556.8978464035], [391285.7363614722, 6089539.555682962], [391337.00170023536, 6089511.237991831], [391366.8193978756, 6089495.742225685], [391393.1471284328, 6089484.5950316265], [391436.2443331305, 6089464.04664044], [391473.6742193629, 6089449.769975775], [391484.4606397264, 6089442.083365569], [391484.0606288158, 6089429.001042584], [391479.86695938103, 6089418.32614963], [391474.810444178, 6089409.074864026], [391464.7424535224, 6089402.494295842], [391444.3214493103, 6089402.710452546], [391428.9701524713, 6089412.188747578], [391410.45323562814, 6089428.300919841], [391386.67793456686, 6089444.818894956], [391362.94792661443, 6089459.231830556], [391340.83991029044, 6089478.682078732], [391310.61926479277, 6089496.592444192], [391271.5283040727, 6089519.77240535], [391233.81494868384, 6089540.280849835], [391210.61279017496, 6089552.900591694], [391191.12276354135, 6089563.192678513]], "width_m": 7.0, "highway": "residential"}, {"pts_proj": [[390945.11275495717, 6088873.432827719], [390975.9741190049, 6088869.620793687], [390992.6214372695, 6088863.838932165], [391015.7636062678, 6088844.139252264], [391025.84010561084, 6088830.947014797]], "width_m": 10.0, "highway": "tertiary"}, {"pts_proj": [[391025.84010561084, 6088830.947014797], [391015.7636062678, 6088844.139252264], [391003.55252798134, 6088857.327742697], [390975.9741190049, 6088869.620793687], [390945.11275495717, 6088873.432827719]], "width_m": 10.0, "highway": "tertiary"}, {"pts_proj": [[390513.4325286634, 6088850.009794568], [390543.89239210857, 6088847.607310914], [390603.90735861275, 6088861.939933842], [390659.93127812183, 6088879.543498878], [390677.35575769434, 6088861.484374574], [390692.9487615985, 6088844.282661647], [390696.00749191456, 6088835.914218226]], "width_m": 7.0, "highway": "residential"}, {"pts_proj": [[390696.00749191456, 6088835.914218226], [390685.9055863271, 6088854.073043897], [390659.93127812183, 6088879.543498878], [390603.90735861275, 6088861.939933842], [390543.89239210857, 6088847.607310914], [390513.4325286634, 6088850.009794568]], "width_m": 7.0, "highway": "residential"}, {"pts_proj": [[390945.11275495717, 6088873.432827719], [390886.21557062934, 6088879.419062549], [390824.626640003, 6088885.683141302], [390789.2247385706, 6088893.080227305], [390770.4270035963, 6088899.249227176], [390721.3755179625, 6088918.100998833], [390700.1088819429, 6088924.219150118], [390675.6430141488, 6088930.571270827], [390600.0659114221, 6088947.243562164], [390563.23521595553, 6088955.4232195895], [390525.3285733047, 6088963.3734032605]], "width_m": 10.0, "highway": "tertiary"}, {"pts_proj": [[390525.3285733047, 6088963.3734032605], [390563.23521595553, 6088955.4232195895], [390600.0659114221, 6088947.243562164], [390675.6430141488, 6088930.571270827], [390700.1088819429, 6088924.219150118], [390721.3755179625, 6088918.100998833], [390770.4270035963, 6088899.249227176], [390789.2247385706, 6088893.080227305], [390824.626640003, 6088885.683141302], [390886.21557062934, 6088879.419062549], [390945.11275495717, 6088873.432827719]], "width_m": 10.0, "highway": "tertiary"}, {"pts_proj": [[391166.5602314932, 6089696.891424052], [391179.0432517753, 6089683.106658568], [391192.8508891592, 6089673.987771036], [391215.08821619244, 6089663.62899622], [391229.5943036502, 6089657.933275717]], "width_m": 7.0, "highway": "residential"}, {"pts_proj": [[391229.5943036502, 6089657.933275717], [391215.08821619244, 6089663.62899622], [391192.8508891592, 6089673.987771036], [391179.0432517753, 6089683.106658568], [391166.5602314932, 6089696.891424052]], "width_m": 7.0, "highway": "residential"}, {"pts_proj": [[391090.2390279358, 6089728.614226881], [391110.85590015864, 6089719.1069768155], [391134.7598663881, 6089708.250860239], [391166.5602314932, 6089696.891424052]], "width_m": 7.0, "highway": "residential"}, {"pts_proj": [[391166.5602314932, 6089696.891424052], [391134.7598663881, 6089708.250860239], [391110.85590015864, 6089719.1069768155], [391090.2390279358, 6089728.614226881]], "width_m": 7.0, "highway": "residential"}, {"pts_proj": [[390525.3285733047, 6088963.3734032605], [390536.17042086413, 6089043.553829873]], "width_m": 7.0, "highway": "residential"}, {"pts_proj": [[390536.17042086413, 6089043.553829873], [390525.3285733047, 6088963.3734032605]], "width_m": 7.0, "highway": "residential"}, {"pts_proj": [[390323.77008852985, 6089005.13779967], [390312.6197128736, 6088990.058514483], [390141.19703615044, 6089008.294120871], [390038.65975261625, 6089020.927529456], [390042.8405072993, 6089071.690666629]], "width_m": 7.0, "highway": "residential"}, {"pts_proj": [[390042.8405072993, 6089071.690666629], [390038.65975261625, 6089020.927529456], [390141.19703615044, 6089008.294120871], [390302.10724344006, 6088988.47881249], [390323.77008852985, 6089005.13779967]], "width_m": 7.0, "highway": "residential"}, {"pts_proj": [[390323.77008852985, 6089005.13779967], [390310.5033029512, 6089047.388323093], [390296.3167911562, 6089058.589874742], [390274.64446007024, 6089060.656558454], [390256.6731784277, 6089074.611602153], [390258.5792325827, 6089120.53212027], [390262.73958434793, 6089160.3523701215], [390268.958280513, 6089219.849498438], [390258.26605807163, 6089236.042209678], [390101.315311599, 6089253.591470389], [389976.0250123405, 6089267.597057921]], "width_m": 8.0, "highway": "unclassified"}, {"pts_proj": [[389976.0250123405, 6089267.597057921], [390101.315311599, 6089253.591470389], [390258.26605807163, 6089236.042209678], [390268.958280513, 6089219.849498438], [390262.73958434793, 6089160.3523701215], [390258.5792325827, 6089120.53212027], [390255.09036043676, 6089087.196970299], [390264.46743280126, 6089064.657386263], [390296.3167911562, 6089058.589874742], [390310.5033029512, 6089047.388323093], [390316.88381800265, 6089017.106983767], [390323.77008852985, 6089005.13779967]], "width_m": 8.0, "highway": "unclassified"}, {"pts_proj": [[389941.6828282381, 6090096.341975238], [389954.158985986, 6090078.033864105], [390015.80456071836, 6090011.571870017], [390097.901599601, 6089927.854408325], [390133.98580422363, 6089891.667666717], [390155.7987485406, 6089874.845764479], [390165.7852694321, 6089862.889341432]], "width_m": 8.0, "highway": "unclassified"}, {"pts_proj": [[390165.7852694321, 6089862.889341432], [390155.7987485406, 6089874.845764479], [390133.98580422363, 6089891.667666717], [390097.901599601, 6089927.854408325], [390015.80456071836, 6090011.571870017], [389954.158985986, 6090078.033864105], [389941.6828282381, 6090096.341975238]], "width_m": 8.0, "highway": "unclassified"}, {"pts_proj": [[390165.7852694321, 6089862.889341432], [390165.44983017, 6089927.133734028], [390155.77794214594, 6089936.232459798], [390134.5678902491, 6089952.538620592], [390119.75507171673, 6089969.422811034], [390089.3384860002, 6090004.112505247], [390057.03194716125, 6090035.4087519925], [390022.6977468707, 6090068.669847119], [389989.82277709176, 6090096.351269389], [389978.2030377799, 6090105.9546650285], [389954.97668716055, 6090116.555568921], [389941.6828282381, 6090096.341975238]], "width_m": 8.0, "highway": "unclassified"}, {"pts_proj": [[389941.6828282381, 6090096.341975238], [389954.97668716055, 6090116.555568921], [389978.2030377799, 6090105.9546650285], [389989.82277709176, 6090096.351269389], [390019.110938456, 6090072.142236155], [390057.03194716125, 6090035.4087519925], [390089.3384860002, 6090004.112505247], [390119.75507171673, 6089969.422811034], [390134.5678902491, 6089952.538620592], [390155.77794214594, 6089936.232459798], [390165.44983017, 6089927.133734028], [390171.94784954045, 6089866.445547968], [390165.7852694321, 6089862.889341432]], "width_m": 8.0, "highway": "unclassified"}, {"pts_proj": [[391447.70940189046, 6089562.72723056], [391520.33076245285, 6089528.072162681], [391585.34580154956, 6089497.665686206]], "width_m": 7.0, "highway": "residential"}, {"pts_proj": [[391585.34580154956, 6089497.665686206], [391520.33076245285, 6089528.072162681], [391447.70940189046, 6089562.72723056]], "width_m": 7.0, "highway": "residential"}, {"pts_proj": [[391379.2763991173, 6089595.623252663], [391447.70940189046, 6089562.72723056]], "width_m": 7.0, "highway": "residential"}, {"pts_proj": [[391447.70940189046, 6089562.72723056], [391379.2763991173, 6089595.623252663]], "width_m": 7.0, "highway": "residential"}, {"pts_proj": [[391306.40120301134, 6089634.261207169], [391317.31039157097, 6089624.266725394], [391379.2763991173, 6089595.623252663]], "width_m": 7.0, "highway": "residential"}, {"pts_proj": [[391379.2763991173, 6089595.623252663], [391317.31039157097, 6089624.266725394], [391306.40120301134, 6089634.261207169]], "width_m": 7.0, "highway": "residential"}, {"pts_proj": [[391293.80937883374, 6089626.139124203], [391306.40120301134, 6089634.261207169]], "width_m": 7.0, "highway": "residential"}, {"pts_proj": [[391306.40120301134, 6089634.261207169], [391293.80937883374, 6089626.139124203]], "width_m": 7.0, "highway": "residential"}, {"pts_proj": [[391229.5943036502, 6089657.933275717], [391246.69430779957, 6089649.5250895815], [391270.86052555137, 6089640.73404049], [391284.71287265985, 6089633.974491354], [391293.80937883374, 6089626.139124203]], "width_m": 7.0, "highway": "residential"}, {"pts_proj": [[391293.80937883374, 6089626.139124203], [391270.86052555137, 6089640.73404049], [391246.69430779957, 6089649.5250895815], [391229.5943036502, 6089657.933275717]], "width_m": 7.0, "highway": "residential"}, {"pts_proj": [[391566.17185258487, 6089578.028510247], [391636.26990599564, 6089654.506809819], [391683.2555456289, 6089704.726049735], [391704.15350187354, 6089723.513963659], [391718.6791289295, 6089731.61271156], [391742.85082727356, 6089753.55017738], [391751.2167532222, 6089767.720366518]], "width_m": 7.0, "highway": "residential"}, {"pts_proj": [[391447.70940189046, 6089562.72723056], [391669.65020248306, 6089801.797558026], [391676.8157914598, 6089809.517424831]], "width_m": 7.0, "highway": "residential"}, {"pts_proj": [[391676.8157914598, 6089809.517424831], [391447.70940189046, 6089562.72723056]], "width_m": 7.0, "highway": "residential"}, {"pts_proj": [[391676.8157914598, 6089809.517424831], [391609.6963067659, 6089846.809073256]], "width_m": 14.0, "highway": "primary"}, {"pts_proj": [[391609.6963067659, 6089846.809073256], [391465.2074661746, 6089689.572129316], [391422.1010121865, 6089647.4770217], [391379.2763991173, 6089595.623252663]], "width_m": 7.0, "highway": "residential"}, {"pts_proj": [[391379.2763991173, 6089595.623252663], [391422.1010121865, 6089647.4770217], [391465.2074661746, 6089689.572129316], [391603.36097363324, 6089838.178619509], [391609.6963067659, 6089846.809073256]], "width_m": 7.0, "highway": "residential"}, {"pts_proj": [[391306.40120301134, 6089634.261207169], [391543.64794514765, 6089883.563746648]], "width_m": 7.0, "highway": "residential"}, {"pts_proj": [[391543.64794514765, 6089883.563746648], [391306.40120301134, 6089634.261207169]], "width_m": 7.0, "highway": "residential"}, {"pts_proj": [[391229.5943036502, 6089657.933275717], [391254.4873494158, 6089687.82170545], [391476.37189398083, 6089919.859322316]], "width_m": 7.0, "highway": "residential"}, {"pts_proj": [[391476.37189398083, 6089919.859322316], [391254.4873494158, 6089687.82170545], [391229.5943036502, 6089657.933275717]], "width_m": 7.0, "highway": "residential"}, {"pts_proj": [[391408.2835721581, 6089957.500416691], [391183.09389956534, 6089718.755388734], [391166.5602314932, 6089696.891424052]], "width_m": 7.0, "highway": "residential"}, {"pts_proj": [[391166.5602314932, 6089696.891424052], [391183.09389956534, 6089718.755388734], [391408.2835721581, 6089957.500416691]], "width_m": 7.0, "highway": "residential"}, {"pts_proj": [[391090.2390279358, 6089728.614226881], [391097.2795818283, 6089741.691073549], [391113.7834352612, 6089759.681336326], [391144.12116577965, 6089788.3904281575], [391336.72872303193, 6089998.020935754]], "width_m": 7.0, "highway": "residential"}, {"pts_proj": [[391336.72872303193, 6089998.020935754], [391144.12116577965, 6089788.3904281575], [391113.7834352612, 6089759.681336326], [391102.29064973985, 6089747.4696557], [391092.439773852, 6089733.993511165], [391090.2390279358, 6089728.614226881]], "width_m": 7.0, "highway": "residential"}, {"pts_proj": [[391090.2390279358, 6089728.614226881], [391073.8623080475, 6089736.170502293], [391055.97255378566, 6089742.383159415], [391015.6748280174, 6089760.072993015]], "width_m": 7.0, "highway": "residential"}, {"pts_proj": [[391015.6748280174, 6089760.072993015], [391055.97255378566, 6089742.383159415], [391073.8623080475, 6089736.170502293], [391090.2390279358, 6089728.614226881]], "width_m": 7.0, "highway": "residential"}, {"pts_proj": [[390953.20814251417, 6089794.300197968], [391010.07722310734, 6089762.068262812], [391015.6748280174, 6089760.072993015]], "width_m": 7.0, "highway": "residential"}, {"pts_proj": [[391015.6748280174, 6089760.072993015], [390955.4080953094, 6089793.055475758], [390953.20814251417, 6089794.300197968]], "width_m": 7.0, "highway": "residential"}, {"pts_proj": [[390953.20814251417, 6089794.300197968], [390914.2285331611, 6089813.450691355], [390894.22173789697, 6089821.396578529], [390882.5970257999, 6089829.583796947]], "width_m": 7.0, "highway": "residential"}, {"pts_proj": [[390882.5970257999, 6089829.583796947], [390894.22173789697, 6089821.396578529], [390914.2285331611, 6089813.450691355], [390953.20814251417, 6089794.300197968]], "width_m": 7.0, "highway": "residential"}, {"pts_proj": [[390787.8571860787, 6089890.326931367], [390873.2842284111, 6089833.228271661], [390882.5970257999, 6089829.583796947]], "width_m": 7.0, "highway": "residential"}, {"pts_proj": [[390882.5970257999, 6089829.583796947], [390787.8571860787, 6089890.326931367]], "width_m": 7.0, "highway": "residential"}, {"pts_proj": [[391015.6748280174, 6089760.072993015], [391021.0199095999, 6089769.305637782], [391112.52910188655, 6089865.53924196], [391260.1120792373, 6090016.600463404], [391273.69650101254, 6090033.715817533]], "width_m": 7.0, "highway": "residential"}, {"pts_proj": [[391273.69650101254, 6090033.715817533], [391260.1120792373, 6090016.600463404], [391112.52910188655, 6089865.53924196], [391024.6697876394, 6089773.6588471895], [391018.5021689245, 6089765.125292749], [391015.6748280174, 6089760.072993015]], "width_m": 7.0, "highway": "residential"}, {"pts_proj": [[391495.9030116349, 6089909.18893065], [391476.37189398083, 6089919.859322316]], "width_m": 14.0, "highway": "primary"}, {"pts_proj": [[391476.37189398083, 6089919.859322316], [391495.9030116349, 6089909.18893065]], "width_m": 14.0, "highway": "primary"}, {"pts_proj": [[391522.3718818106, 6089948.447697616], [391495.9030116349, 6089909.18893065]], "width_m": 7.0, "highway": "residential"}, {"pts_proj": [[391495.9030116349, 6089909.18893065], [391522.3718818106, 6089948.447697616]], "width_m": 7.0, "highway": "residential"}, {"pts_proj": [[391476.37189398083, 6089919.859322316], [391408.2835721581, 6089957.500416691]], "width_m": 14.0, "highway": "primary"}, {"pts_proj": [[391408.2835721581, 6089957.500416691], [391476.37189398083, 6089919.859322316]], "width_m": 14.0, "highway": "primary"}, {"pts_proj": [[390953.20814251417, 6089794.300197968], [390957.3940288658, 6089803.560972873], [390968.0228768963, 6089815.548388819], [391168.6596122229, 6090030.387115001], [391195.4850342821, 6090062.855568909], [391202.3398855562, 6090074.122436722]], "width_m": 7.0, "highway": "residential"}, {"pts_proj": [[391202.3398855562, 6090074.122436722], [391168.6596122229, 6090030.387115001], [390968.0228768963, 6089815.548388819], [390957.3940288658, 6089803.560972873], [390953.20814251417, 6089794.300197968]], "width_m": 7.0, "highway": "residential"}, {"pts_proj": [[391139.19584026164, 6090109.877667975], [391014.60894251906, 6089978.478121264], [390889.3481953554, 6089846.285514616], [390882.5970257999, 6089829.583796947]], "width_m": 7.0, "highway": "residential"}, {"pts_proj": [[390882.5970257999, 6089829.583796947], [390889.3481953554, 6089846.285514616], [391014.60894251906, 6089978.478121264], [391139.19584026164, 6090109.877667975]], "width_m": 7.0, "highway": "residential"}, {"pts_proj": [[389785.89708962163, 6090214.471034385], [389841.8894827941, 6090153.87890577], [389898.924069494, 6090093.128340434], [389927.07266407856, 6090061.676959384], [389975.99700347526, 6090009.565325244], [390023.28246955655, 6089957.216164551], [390044.06202155, 6089936.700693219], [390075.18292954226, 6089903.808071285], [390096.9448461364, 6089878.904717239], [390105.77477591485, 6089866.308547451], [390113.3930640441, 6089842.976695145], [390126.3329841082, 6089836.46963998], [390153.32774675614, 6089843.05542251], [390162.8277465038, 6089850.470832088], [390165.7852694321, 6089862.889341432]], "width_m": 8.0, "highway": "unclassified"}, {"pts_proj": [[390165.7852694321, 6089862.889341432], [390162.8277465038, 6089850.470832088], [390153.32774675614, 6089843.05542251], [390136.19706713635, 6089837.296592965], [390117.2954301595, 6089837.203301513], [390110.1049991369, 6089853.677990093], [390096.9448461364, 6089878.904717239], [390075.18292954226, 6089903.808071285], [390044.06202155, 6089936.700693219], [390023.28246955655, 6089957.216164551], [389975.99700347526, 6090009.565325244], [389927.07266407856, 6090061.676959384], [389898.924069494, 6090093.128340434], [389841.8894827941, 6090153.87890577], [389785.89708962163, 6090214.471034385]], "width_m": 8.0, "highway": "unclassified"}, {"pts_proj": [[391636.0248721993, 6088572.787616122], [391596.96527615224, 6088252.933888254]], "width_m": 7.0, "highway": "residential"}, {"pts_proj": [[391596.96527615224, 6088252.933888254], [391636.0248721993, 6088572.787616122]], "width_m": 7.0, "highway": "residential"}, {"pts_proj": [[391533.50059822906, 6088265.512035528], [391575.3852912097, 6088580.064725624]], "width_m": 7.0, "highway": "residential"}, {"pts_proj": [[391575.3852912097, 6088580.064725624], [391533.50059822906, 6088265.512035528]], "width_m": 7.0, "highway": "residential"}, {"pts_proj": [[391682.15506854386, 6088567.253382771], [391636.0248721993, 6088572.787616122]], "width_m": 12.0, "highway": "secondary"}, {"pts_proj": [[391636.0248721993, 6088572.787616122], [391682.15506854386, 6088567.253382771]], "width_m": 12.0, "highway": "secondary"}, {"pts_proj": [[391575.3852912097, 6088580.064725624], [391629.60737100244, 6088573.555005745], [391636.0248721993, 6088572.787616122]], "width_m": 12.0, "highway": "secondary"}, {"pts_proj": [[391636.0248721993, 6088572.787616122], [391575.3852912097, 6088580.064725624]], "width_m": 12.0, "highway": "secondary"}, {"pts_proj": [[391503.85205227026, 6088588.2964590825], [391575.3852912097, 6088580.064725624]], "width_m": 12.0, "highway": "secondary"}, {"pts_proj": [[391575.3852912097, 6088580.064725624], [391503.85205227026, 6088588.2964590825]], "width_m": 12.0, "highway": "secondary"}, {"pts_proj": [[391575.3852912097, 6088580.064725624], [391592.65910399525, 6088690.272053185], [391596.4116710882, 6088704.431099667], [391602.8327044019, 6088723.969495071]], "width_m": 7.0, "highway": "residential"}, {"pts_proj": [[391602.8327044019, 6088723.969495071], [391596.4116710882, 6088704.431099667], [391592.65910399525, 6088690.272053185], [391575.3852912097, 6088580.064725624]], "width_m": 7.0, "highway": "residential"}, {"pts_proj": [[391727.85728543845, 6089426.779719847], [391645.90932075854, 6089466.811151705]], "width_m": 7.0, "highway": "residential"}, {"pts_proj": [[391645.90932075854, 6089466.811151705], [391727.85728543845, 6089426.779719847]], "width_m": 7.0, "highway": "residential"}, {"pts_proj": [[391645.90932075854, 6089466.811151705], [391629.54007102456, 6089474.220422645], [391601.3181856625, 6089484.187418704], [391585.34580154956, 6089497.665686206]], "width_m": 7.0, "highway": "residential"}, {"pts_proj": [[391585.34580154956, 6089497.665686206], [391601.3181856625, 6089484.187418704], [391629.54007102456, 6089474.220422645], [391645.90932075854, 6089466.811151705]], "width_m": 7.0, "highway": "residential"}, {"pts_proj": [[391585.34580154956, 6089497.665686206], [391699.01589957357, 6089615.384268934], [391801.5949478903, 6089717.787565795], [391814.2838257616, 6089733.434351025]], "width_m": 7.0, "highway": "residential"}, {"pts_proj": [[391814.2838257616, 6089733.434351025], [391801.5949478903, 6089717.787565795], [391699.01589957357, 6089615.384268934], [391585.34580154956, 6089497.665686206]], "width_m": 7.0, "highway": "residential"}, {"pts_proj": [[391751.2167532222, 6089767.720366518], [391742.85082727356, 6089753.55017738], [391729.19208419416, 6089738.884421325], [391704.15350187354, 6089723.513963659], [391683.2555456289, 6089704.726049735], [391636.26990599564, 6089654.506809819], [391566.17185258487, 6089578.028510247]], "width_m": 7.0, "highway": "residential"}, {"pts_proj": [[391645.90932075854, 6089466.811151705], [391664.7225873966, 6089486.272739405], [391688.47700798535, 6089503.34394802], [391707.62197088887, 6089518.244440165], [391846.36722453235, 6089659.117928689], [391868.3131643411, 6089675.409858832], [391883.2628120227, 6089696.312559161]], "width_m": 7.0, "highway": "residential"}, {"pts_proj": [[391883.2628120227, 6089696.312559161], [391868.3131643411, 6089675.409858832], [391846.36722453235, 6089659.117928689], [391707.62197088887, 6089518.244440165], [391688.47700798535, 6089503.34394802], [391673.5972704855, 6089493.884514805], [391645.90932075854, 6089466.811151705]], "width_m": 7.0, "highway": "residential"}, {"pts_proj": [[391609.6963067659, 6089846.809073256], [391669.4108529857, 6089813.63734864], [391676.8157914598, 6089809.517424831]], "width_m": 14.0, "highway": "primary"}, {"pts_proj": [[391609.6963067659, 6089846.809073256], [391605.11812710593, 6089849.357840884]], "width_m": 14.0, "highway": "primary"}, {"pts_proj": [[391605.11812710593, 6089849.357840884], [391609.6963067659, 6089846.809073256]], "width_m": 14.0, "highway": "primary"}, {"pts_proj": [[391543.64794514765, 6089883.563746648], [391605.11812710593, 6089849.357840884]], "width_m": 14.0, "highway": "primary"}, {"pts_proj": [[391605.11812710593, 6089849.357840884], [391543.64794514765, 6089883.563746648]], "width_m": 14.0, "highway": "primary"}, {"pts_proj": [[391657.35631891445, 6089919.688899714], [391615.08177513327, 6089863.333291374], [391605.11812710593, 6089849.357840884]], "width_m": 7.0, "highway": "residential"}, {"pts_proj": [[391605.11812710593, 6089849.357840884], [391615.08177513327, 6089863.333291374], [391650.27778612246, 6089911.588452959], [391657.35631891445, 6089919.688899714]], "width_m": 7.0, "highway": "residential"}, {"pts_proj": [[391495.9030116349, 6089909.18893065], [391543.64794514765, 6089883.563746648]], "width_m": 14.0, "highway": "primary"}, {"pts_proj": [[391543.64794514765, 6089883.563746648], [391495.9030116349, 6089909.18893065]], "width_m": 14.0, "highway": "primary"}, {"pts_proj": [[391765.22372161044, 6090131.441800064], [391764.83096308913, 6090118.893660397], [391543.64794514765, 6089883.563746648]], "width_m": 7.0, "highway": "residential"}, {"pts_proj": [[391543.64794514765, 6089883.563746648], [391762.17182197666, 6090112.801527364], [391765.976812188, 6090125.211595997], [391765.22372161044, 6090131.441800064]], "width_m": 7.0, "highway": "residential"}], "buildings": [{"min_proj": [390141.834666389, 6088437.1266901335], "max_proj": [390170.0724989286, 6088451.757585745], "height_m": 3.0}, {"min_proj": [390488.517942908, 6088418.278132073], "max_proj": [390496.92835840315, 6088439.047715748], "height_m": 3.0}, {"min_proj": [390753.07941395044, 6088397.960097159], "max_proj": [390816.31454901467, 6088438.989245526], "height_m": 3.0}, {"min_proj": [390810.1371667516, 6088429.089563076], "max_proj": [390818.1293298595, 6088438.511644972], "height_m": 3.0}, {"min_proj": [390638.88661197736, 6088425.404650325], "max_proj": [390668.67563755246, 6088453.116970697], "height_m": 3.0}, {"min_proj": [390741.51470919035, 6088447.187528935], "max_proj": [390751.3786648171, 6088457.320517907], "height_m": 3.0}, {"min_proj": [390691.7784686134, 6088439.30270939], "max_proj": [390721.99796296214, 6088466.069216208], "height_m": 3.0}, {"min_proj": [390664.02611960843, 6088433.691919774], "max_proj": [390690.63205986714, 6088479.651348914], "height_m": 6.0}, {"min_proj": [390572.2453117375, 6088441.884275766], "max_proj": [390593.8861620933, 6088472.427758824], "height_m": 3.0}, {"min_proj": [390728.1562773909, 6088449.866288012], "max_proj": [390740.8869914834, 6088464.92958697], "height_m": 3.0}, {"min_proj": [390750.15283254156, 6088456.494364538], "max_proj": [390765.6669839948, 6088474.396282004], "height_m": 3.0}, {"min_proj": [390739.2885663861, 6088461.09475771], "max_proj": [390748.4405968805, 6088475.089052055], "height_m": 3.0}, {"min_proj": [390775.97732956364, 6088466.734697856], "max_proj": [390787.3979540643, 6088480.531704604], "height_m": 3.0}, {"min_proj": [390790.1954515667, 6088471.852275112], "max_proj": [390807.8608592802, 6088494.875379589], "height_m": 6.0}, {"min_proj": [390723.8478704684, 6088481.68593994], "max_proj": [390733.358019286, 6088494.918745503], "height_m": 3.0}, {"min_proj": [390731.568044073, 6088480.379045854], "max_proj": [390755.3243740509, 6088501.447306173], "height_m": 6.0}, {"min_proj": [390610.82583560405, 6088469.998267597], "max_proj": [390640.2132986078, 6088526.773409177], "height_m": 3.0}, {"min_proj": [390581.16503547225, 6088494.314828842], "max_proj": [390596.9122583342, 6088510.012903297], "height_m": 3.0}, {"min_proj": [390707.4572842873, 6088497.722386876], "max_proj": [390720.3966469307, 6088507.764028652], "height_m": 3.0}, {"min_proj": [390756.8413566707, 6088493.304680536], "max_proj": [390797.32610223576, 6088517.5755074425], "height_m": 6.0}, {"min_proj": [390592.93710338953, 6088502.869885166], "max_proj": [390603.85170672723, 6088515.308461817], "height_m": 3.0}, {"min_proj": [390709.1494359321, 6088508.15072448], "max_proj": [390726.8798570121, 6088529.7561682165], "height_m": 3.0}, {"min_proj": [390720.5993638875, 6088511.22545982], "max_proj": [390732.0590535433, 6088531.573958128], "height_m": 3.0}, {"min_proj": [390734.7253281667, 6088515.495179549], "max_proj": [390746.3986650659, 6088529.772139555], "height_m": 3.0}, {"min_proj": [390647.03459584963, 6088517.655742079], "max_proj": [390662.3505747403, 6088533.144873074], "height_m": 3.0}, {"min_proj": [390751.1978973992, 6088521.216574536], "max_proj": [390764.2801139045, 6088538.264995197], "height_m": 3.0}, {"min_proj": [390670.1883866773, 6088524.4407992745], "max_proj": [390689.9596696012, 6088541.890080553], "height_m": 3.0}, {"min_proj": [390761.0688957023, 6088532.169362808], "max_proj": [390781.57095204585, 6088548.323070983], "height_m": 3.0}, {"min_proj": [390704.26167626947, 6088542.104910428], "max_proj": [390715.5473303895, 6088551.113426994], "height_m": 3.0}, {"min_proj": [390725.5088614258, 6088544.280098455], "max_proj": [390736.56135549536, 6088556.703134789], "height_m": 3.0}, {"min_proj": [390743.13763381855, 6088547.635453751], "max_proj": [390757.4166500678, 6088563.807057977], "height_m": 3.0}, {"min_proj": [390626.29662413016, 6088551.411713302], "max_proj": [390641.1621534348, 6088567.408080782], "height_m": 3.0}, {"min_proj": [390763.2551736934, 6088559.857440947], "max_proj": [390775.13631283387, 6088570.493538567], "height_m": 3.0}, {"min_proj": [390655.12935033423, 6088558.510072164], "max_proj": [390666.4870483898, 6088573.784348958], "height_m": 3.0}, {"min_proj": [390671.8993924903, 6088566.182239488], "max_proj": [390686.2882942328, 6088588.688264043], "height_m": 3.0}, {"min_proj": [390693.6384487676, 6088572.611872074], "max_proj": [390704.9705699556, 6088587.66341304], "height_m": 3.0}, {"min_proj": [390711.4563587935, 6088578.72856856], "max_proj": [390725.6784460249, 6088590.705078015], "height_m": 3.0}, {"min_proj": [390624.18772026035, 6088581.692457295], "max_proj": [390635.3280243594, 6088592.828807096], "height_m": 3.0}, {"min_proj": [390731.15309316653, 6088584.726946921], "max_proj": [390744.1050250091, 6088599.975749497], "height_m": 3.0}, {"min_proj": [390639.04154116474, 6088587.831326435], "max_proj": [390647.58591594035, 6088598.330341681], "height_m": 3.0}, {"min_proj": [390750.2454356549, 6088592.59954082], "max_proj": [390762.34665403597, 6088607.07972455], "height_m": 3.0}, {"min_proj": [390657.4495847765, 6088595.745469302], "max_proj": [390665.6425674265, 6088604.956906178], "height_m": 3.0}, {"min_proj": [390936.22267311264, 6088452.003004823], "max_proj": [390980.48484375485, 6088481.651506455], "height_m": 3.0}, {"min_proj": [390901.19953508745, 6088464.399998658], "max_proj": [390923.1687958094, 6088477.236973174], "height_m": 3.0}, {"min_proj": [390959.43336851057, 6088485.927104538], "max_proj": [390974.190745884, 6088495.2451895075], "height_m": 3.0}, {"min_proj": [390984.5653536911, 6088490.692075831], "max_proj": [391000.64227289625, 6088502.77457263], "height_m": 3.0}, {"min_proj": [390811.1889540234, 6088490.85630135], "max_proj": [390956.83090431325, 6088663.410704987], "height_m": 6.0}, {"min_proj": [390985.7005067704, 6088580.187348728], "max_proj": [391011.8626223855, 6088627.010757723], "height_m": 3.0}, {"min_proj": [390907.68108757795, 6088607.188203567], "max_proj": [390933.9751708603, 6088623.222003596], "height_m": 3.0}, {"min_proj": [390967.9802659655, 6088533.8445330905], "max_proj": [391071.1702267501, 6088696.929397574], "height_m": 6.0}, {"min_proj": [390875.6927732758, 6088666.050003189], "max_proj": [390944.6595531534, 6088715.7601691], "height_m": 3.0}, {"min_proj": [390838.8983415505, 6088677.501148058], "max_proj": [390906.6158770665, 6088718.082549801], "height_m": 6.0}, {"min_proj": [390675.4415389103, 6088595.547336925], "max_proj": [390686.95615904906, 6088611.076698097], "height_m": 3.0}, {"min_proj": [390758.94494822144, 6088531.119133105], "max_proj": [390834.07557352935, 6088677.506448521], "height_m": 3.0}, {"min_proj": [390608.4429652279, 6088604.3638944775], "max_proj": [390619.10584860144, 6088616.481107822], "height_m": 3.0}, {"min_proj": [390694.9252423737, 6088602.712464985], "max_proj": [390706.9314404298, 6088618.21276123], "height_m": 3.0}, {"min_proj": [390725.47251308674, 6088608.196280217], "max_proj": [390737.8629723008, 6088627.562110915], "height_m": 3.0}, {"min_proj": [390636.7010792046, 6088610.280230162], "max_proj": [390649.4821642636, 6088625.733302607], "height_m": 3.0}, {"min_proj": [390741.0443172713, 6088618.083739083], "max_proj": [390756.2554301489, 6088635.115981179], "height_m": 3.0}, {"min_proj": [390655.2064685616, 6088620.339654675], "max_proj": [390667.6943991965, 6088637.199741178], "height_m": 3.0}, {"min_proj": [390674.3675430333, 6088625.613163426], "max_proj": [390684.6051344529, 6088637.203258477], "height_m": 3.0}, {"min_proj": [390691.5254766116, 6088630.677403538], "max_proj": [390707.0039773588, 6088650.72358655], "height_m": 3.0}, {"min_proj": [390827.4121090303, 6088398.5286593335], "max_proj": [390908.1382143296, 6088441.267250467], "height_m": 3.0}, {"min_proj": [390943.4661592924, 6088407.534928802], "max_proj": [391017.125894005, 6088439.051224163], "height_m": 3.0}, {"min_proj": [390913.18717791326, 6088403.886109765], "max_proj": [390951.11541769747, 6088471.047312364], "height_m": 3.0}, {"min_proj": [391011.8060581381, 6088433.223099877], "max_proj": [391026.43843303877, 6088452.7264915425], "height_m": 3.0}, {"min_proj": [390844.72836609173, 6088435.25626475], "max_proj": [390873.46111102705, 6088455.816746759], "height_m": 3.0}, {"min_proj": [391240.72124791297, 6088494.343444814], "max_proj": [391264.3812396106, 6088513.062523601], "height_m": 3.0}, {"min_proj": [391283.5671394913, 6088516.227311407], "max_proj": [391318.3586321476, 6088545.455079401], "height_m": 3.0}, {"min_proj": [391324.40867335256, 6088507.922752825], "max_proj": [391352.45857986837, 6088558.519331742], "height_m": 3.0}, {"min_proj": [391237.8409000221, 6088532.809072577], "max_proj": [391252.17216928676, 6088542.048267692], "height_m": 3.0}, {"min_proj": [391246.2988129956, 6088547.461707147], "max_proj": [391305.8963217033, 6088560.443832106], "height_m": 3.0}, {"min_proj": [391387.60977701325, 6088557.709103235], "max_proj": [391400.9399825492, 6088566.13247416], "height_m": 3.0}, {"min_proj": [391442.5916642339, 6088440.361914553], "max_proj": [391454.11857866484, 6088448.199477509], "height_m": 3.0}, {"min_proj": [391462.4000950961, 6088445.473863508], "max_proj": [391467.63894423755, 6088451.576369382], "height_m": 3.0}, {"min_proj": [391451.4415529562, 6088446.2691317545], "max_proj": [391462.8475788255, 6088451.084556503], "height_m": 3.0}, {"min_proj": [391442.615209057, 6088449.842942333], "max_proj": [391448.39744669345, 6088453.618250835], "height_m": 3.0}, {"min_proj": [391505.0335788013, 6088448.889576997], "max_proj": [391523.4376647773, 6088458.403324874], "height_m": 3.0}, {"min_proj": [391644.9170641204, 6088436.350503898], "max_proj": [391658.01066415006, 6088445.279258921], "height_m": 3.0}, {"min_proj": [391639.26546097745, 6088438.232899299], "max_proj": [391646.49080728076, 6088450.358645584], "height_m": 3.0}, {"min_proj": [391647.0906457015, 6088454.657589784], "max_proj": [391659.5424760661, 6088462.987661305], "height_m": 3.0}, {"min_proj": [391638.67549443006, 6088460.141743624], "max_proj": [391644.40958638466, 6088470.4184284005], "height_m": 3.0}, {"min_proj": [391643.108591508, 6088479.425174967], "max_proj": [391648.04842587584, 6088486.197126235], "height_m": 3.0}, {"min_proj": [391533.27202440787, 6088431.552053646], "max_proj": [391546.48168916884, 6088440.11146], "height_m": 3.0}, {"min_proj": [391603.4819959199, 6088433.483851687], "max_proj": [391614.07476770045, 6088439.278438978], "height_m": 3.0}, {"min_proj": [391573.7228405653, 6088436.758329564], "max_proj": [391583.2223079366, 6088442.913272899], "height_m": 3.0}, {"min_proj": [391623.09812422557, 6088436.145182993], "max_proj": [391629.9227842996, 6088446.546101284], "height_m": 3.0}, {"min_proj": [391588.2837210554, 6088443.528245784], "max_proj": [391597.23721291195, 6088447.976838252], "height_m": 3.0}, {"min_proj": [391568.6707583829, 6088446.369397412], "max_proj": [391582.0639082619, 6088455.906882782], "height_m": 3.0}, {"min_proj": [391626.356355767, 6088449.59829514], "max_proj": [391638.17059354665, 6088458.421484497], "height_m": 3.0}, {"min_proj": [391600.65314148983, 6088452.40127239], "max_proj": [391616.55159360584, 6088461.226281265], "height_m": 3.0}, {"min_proj": [391526.779708452, 6088455.787857621], "max_proj": [391548.97980094363, 6088464.5690091215], "height_m": 3.0}, {"min_proj": [391574.405528822, 6088458.103706461], "max_proj": [391577.5340300874, 6088463.514212805], "height_m": 3.0}, {"min_proj": [391568.7860333814, 6088458.437528805], "max_proj": [391574.37319521187, 6088464.583895781], "height_m": 3.0}, {"min_proj": [391584.31364481465, 6088460.96549361], "max_proj": [391595.7325265006, 6088469.513541517], "height_m": 3.0}, {"min_proj": [391602.52930981334, 6088463.2123545], "max_proj": [391616.5913861653, 6088476.096549591], "height_m": 3.0}, {"min_proj": [391571.47705304215, 6088473.981522975], "max_proj": [391584.6702686481, 6088484.588841888], "height_m": 3.0}, {"min_proj": [391535.86344110686, 6088476.43797541], "max_proj": [391551.15570872044, 6088485.977408675], "height_m": 3.0}, {"min_proj": [391593.91997247154, 6088482.059324304], "max_proj": [391602.89553631993, 6088487.90252033], "height_m": 3.0}, {"min_proj": [391571.5709897318, 6088485.049050272], "max_proj": [391585.60168878926, 6088491.537742173], "height_m": 3.0}, {"min_proj": [391603.0858853283, 6088484.839322308], "max_proj": [391609.19430531457, 6088495.302415496], "height_m": 3.0}, {"min_proj": [391598.898260552, 6088488.151511535], "max_proj": [391603.1750871901, 6088496.445093789], "height_m": 3.0}, {"min_proj": [391463.35415163945, 6088454.2967245355], "max_proj": [391467.614618998, 6088458.918021174], "height_m": 3.0}, {"min_proj": [391494.2631057253, 6088456.928515578], "max_proj": [391502.1210046974, 6088461.126698636], "height_m": 3.0}, {"min_proj": [391444.48176989116, 6088453.7245035535], "max_proj": [391456.22862124885, 6088466.635217236], "height_m": 3.0}, {"min_proj": [391466.6364745159, 6088463.63088528], "max_proj": [391472.00713906984, 6088468.446052748], "height_m": 3.0}, {"min_proj": [391447.26181304595, 6088464.386684692], "max_proj": [391466.9744228119, 6088476.420230504], "height_m": 3.0}, {"min_proj": [391451.80603709235, 6088477.545409896], "max_proj": [391458.52932389075, 6088481.578819867], "height_m": 3.0}, {"min_proj": [391486.94825776387, 6088475.69517279], "max_proj": [391496.4978120775, 6088488.394857419], "height_m": 3.0}, {"min_proj": [391508.2137832974, 6088487.595543861], "max_proj": [391516.91688614886, 6088493.427918808], "height_m": 3.0}, {"min_proj": [391451.4528162883, 6088485.198933437], "max_proj": [391470.6327863383, 6088495.895039442], "height_m": 3.0}, {"min_proj": [391503.4036924007, 6088493.35987073], "max_proj": [391512.3071175865, 6088500.9538677195], "height_m": 3.0}, {"min_proj": [391041.7666963208, 6088403.416983923], "max_proj": [391094.4232971717, 6088440.467357671], "height_m": 3.0}, {"min_proj": [391050.1995083503, 6088374.9713831525], "max_proj": [391330.4793768281, 6088514.444505916], "height_m": 3.0}, {"min_proj": [391036.5705258382, 6088435.210094924], "max_proj": [391141.6832484116, 6088500.63949247], "height_m": 3.0}, {"min_proj": [391190.15871538164, 6088471.854993824], "max_proj": [391231.8070479869, 6088505.710730567], "height_m": 3.0}, {"min_proj": [391153.1627740973, 6088476.849070321], "max_proj": [391182.69580015616, 6088516.861804411], "height_m": 3.0}, {"min_proj": [391022.64878109016, 6088496.90141927], "max_proj": [391122.0100768728, 6088545.972009697], "height_m": 3.0}, {"min_proj": [391172.1606370542, 6088509.341021258], "max_proj": [391211.8029107388, 6088572.314944018], "height_m": 3.0}, {"min_proj": [391116.1418636909, 6088528.918986903], "max_proj": [391178.0290308408, 6088565.151860119], "height_m": 3.0}, {"min_proj": [391092.4756563026, 6088574.691464185], "max_proj": [391108.39859040023, 6088587.026771474], "height_m": 3.0}, {"min_proj": [391476.09288724425, 6088493.409497761], "max_proj": [391485.258992012, 6088505.07842803], "height_m": 3.0}, {"min_proj": [391466.42007975955, 6088497.065895846], "max_proj": [391471.9213208592, 6088502.259352245], "height_m": 3.0}, {"min_proj": [391483.588382774, 6088492.352976529], "max_proj": [391493.58903184626, 6088507.524334188], "height_m": 3.0}, {"min_proj": [391454.59343549435, 6088499.993034984], "max_proj": [391466.3936197661, 6088508.536091688], "height_m": 3.0}, {"min_proj": [391472.2549770046, 6088502.973255637], "max_proj": [391477.74194438016, 6088508.850324418], "height_m": 3.0}, {"min_proj": [391459.58724902256, 6088517.702607145], "max_proj": [391470.16025156155, 6088525.960600788], "height_m": 3.0}, {"min_proj": [391478.17506922176, 6088520.658970772], "max_proj": [391493.7993936363, 6088527.507455806], "height_m": 3.0}, {"min_proj": [391493.55635187495, 6088520.156876655], "max_proj": [391502.6854859117, 6088530.313549003], "height_m": 3.0}, {"min_proj": [391459.37468353624, 6088526.018241953], "max_proj": [391467.2805591103, 6088531.824883391], "height_m": 3.0}, {"min_proj": [391477.43730494636, 6088531.03089117], "max_proj": [391488.0926277273, 6088541.587346387], "height_m": 3.0}, {"min_proj": [391606.92786219844, 6088495.772749087], "max_proj": [391621.12213171576, 6088503.714681234], "height_m": 3.0}, {"min_proj": [391573.7168401927, 6088494.784094992], "max_proj": [391594.28945102106, 6088505.458092631], "height_m": 3.0}, {"min_proj": [391536.2475349746, 6088499.600413741], "max_proj": [391554.56205843296, 6088509.005577839], "height_m": 3.0}, {"min_proj": [391610.2723344379, 6088504.247429815], "max_proj": [391621.9760554909, 6088512.2161133755], "height_m": 3.0}, {"min_proj": [391529.8699622018, 6088510.035106056], "max_proj": [391534.66957107093, 6088514.480266717], "height_m": 3.0}, {"min_proj": [391542.0359456099, 6088510.461748524], "max_proj": [391556.06538435817, 6088518.9528890895], "height_m": 3.0}, {"min_proj": [391576.8152865351, 6088509.649693841], "max_proj": [391593.9810861348, 6088526.457892609], "height_m": 3.0}, {"min_proj": [391612.45572075003, 6088514.845939819], "max_proj": [391623.4029737368, 6088523.138779347], "height_m": 3.0}, {"min_proj": [391536.19347005885, 6088528.365243772], "max_proj": [391558.69632020686, 6088537.61987], "height_m": 3.0}, {"min_proj": [391578.93434061576, 6088533.016652407], "max_proj": [391588.4033321253, 6088540.512247216], "height_m": 3.0}, {"min_proj": [391553.1693977473, 6088536.628740294], "max_proj": [391560.65643412253, 6088542.313211843], "height_m": 3.0}, {"min_proj": [391613.0623887155, 6088535.623849566], "max_proj": [391626.1029391084, 6088544.906420252], "height_m": 3.0}, {"min_proj": [391579.9042738821, 6088541.173498794], "max_proj": [391588.3375639758, 6088548.286595512], "height_m": 3.0}, {"min_proj": [391599.5972234931, 6088542.830035367], "max_proj": [391605.1590929258, 6088547.183389186], "height_m": 3.0}, {"min_proj": [391593.4901409373, 6088545.1914994335], "max_proj": [391597.8140515781, 6088549.989983424], "height_m": 3.0}, {"min_proj": [391549.276830215, 6088546.102933426], "max_proj": [391561.49142827897, 6088555.4010330895], "height_m": 3.0}, {"min_proj": [391597.7366586382, 6088547.497997996], "max_proj": [391604.0577837251, 6088555.244668025], "height_m": 3.0}, {"min_proj": [391540.52645659493, 6088547.694961214], "max_proj": [391546.3310837643, 6088556.457825174], "height_m": 3.0}, {"min_proj": [391558.70520852023, 6088554.4191472335], "max_proj": [391563.1531587723, 6088561.389081854], "height_m": 3.0}, {"min_proj": [391613.115212783, 6088550.734560515], "max_proj": [391630.3302219705, 6088565.503237723], "height_m": 3.0}, {"min_proj": [391463.0947259837, 6088529.085878299], "max_proj": [391478.1142099374, 6088545.003753034], "height_m": 3.0}, {"min_proj": [391488.0276492567, 6088539.637647426], "max_proj": [391498.34063338966, 6088549.896622407], "height_m": 3.0}, {"min_proj": [391513.0592664889, 6088537.583766378], "max_proj": [391527.37644725817, 6088554.0491061695], "height_m": 3.0}, {"min_proj": [391473.12782560295, 6088543.374497133], "max_proj": [391489.0160067292, 6088553.9543950455], "height_m": 3.0}, {"min_proj": [391432.6132130256, 6088550.131339344], "max_proj": [391450.9912572722, 6088566.866330706], "height_m": 3.0}, {"min_proj": [391511.0455695169, 6088559.347292359], "max_proj": [391517.5423687051, 6088569.237364469], "height_m": 3.0}, {"min_proj": [391487.1315159052, 6088557.310647665], "max_proj": [391503.72204613534, 6088571.697044283], "height_m": 3.0}, {"min_proj": [391521.5288908281, 6088562.11556258], "max_proj": [391530.8717090774, 6088578.573081339], "height_m": 3.0}, {"min_proj": [391497.31543795695, 6088570.669454193], "max_proj": [391503.6552983807, 6088574.826090455], "height_m": 3.0}, {"min_proj": [391507.8231827374, 6088571.57495964], "max_proj": [391518.9017015418, 6088579.353459523], "height_m": 3.0}, {"min_proj": [391582.9285136872, 6088558.482628364], "max_proj": [391600.9029616182, 6088569.651079108], "height_m": 3.0}, {"min_proj": [391600.8078210556, 6088562.076275379], "max_proj": [391605.0612575378, 6088568.399783494], "height_m": 3.0}, {"min_proj": [391551.2860943886, 6088566.014277115], "max_proj": [391563.82712099433, 6088575.248869999], "height_m": 3.0}, {"min_proj": [391543.49461761414, 6088566.491273089], "max_proj": [391552.04520176427, 6088575.402675926], "height_m": 3.0}, {"min_proj": [391610.6056048964, 6088587.062054546], "max_proj": [391620.1553178215, 6088598.319444583], "height_m": 3.0}, {"min_proj": [391623.78979587567, 6088586.3212122815], "max_proj": [391630.573376344, 6088601.150511231], "height_m": 3.0}, {"min_proj": [391588.51401413634, 6088588.921892229], "max_proj": [391603.7927384599, 6088599.192673432], "height_m": 3.0}, {"min_proj": [391528.5660550797, 6088595.7818376515], "max_proj": [391545.9979399601, 6088601.714755346], "height_m": 3.0}, {"min_proj": [391554.16344100266, 6088595.753723131], "max_proj": [391568.39890790527, 6088605.636160982], "height_m": 3.0}, {"min_proj": [391551.8773670882, 6088607.266427653], "max_proj": [391569.19839930185, 6088618.796816607], "height_m": 3.0}, {"min_proj": [391232.9115312557, 6088572.387323592], "max_proj": [391352.6299570217, 6088591.808660972], "height_m": 3.0}, {"min_proj": [391357.6392702878, 6088583.740359526], "max_proj": [391368.42291004164, 6088590.420479298], "height_m": 3.0}, {"min_proj": [391238.15005793545, 6088626.230118434], "max_proj": [391248.79873807664, 6088633.37016857], "height_m": 3.0}, {"min_proj": [391261.94925946125, 6088630.634555223], "max_proj": [391268.96185613447, 6088635.302769003], "height_m": 3.0}, {"min_proj": [391274.16845059226, 6088633.318402166], "max_proj": [391281.2398383401, 6088637.268372234], "height_m": 3.0}, {"min_proj": [391315.94713978516, 6088629.326862325], "max_proj": [391336.26126530336, 6088648.396358943], "height_m": 3.0}, {"min_proj": [391388.03459149424, 6088636.029203761], "max_proj": [391399.83404942736, 6088644.95510134], "height_m": 3.0}, {"min_proj": [391225.3897900776, 6088642.258351558], "max_proj": [391239.2481538591, 6088662.669677293], "height_m": 3.0}, {"min_proj": [391387.5346233239, 6088657.851178143], "max_proj": [391393.1771846839, 6088663.2392970715], "height_m": 3.0}, {"min_proj": [391389.2526232223, 6088661.6732731955], "max_proj": [391396.64370934694, 6088667.574309946], "height_m": 3.0}, {"min_proj": [391636.6203956657, 6088526.972257578], "max_proj": [391648.9222630935, 6088537.863050005], "height_m": 3.0}, {"min_proj": [391645.99695709447, 6088537.987408574], "max_proj": [391656.26271075883, 6088543.301628161], "height_m": 3.0}, {"min_proj": [391637.1564452062, 6088543.778617738], "max_proj": [391647.94879454747, 6088549.157775343], "height_m": 3.0}, {"min_proj": [391639.52892247046, 6088554.267267455], "max_proj": [391656.8809218824, 6088564.645243069], "height_m": 3.0}, {"min_proj": [391635.4267174065, 6088584.551045907], "max_proj": [391644.3398142934, 6088599.178467429], "height_m": 3.0}, {"min_proj": [391644.87853535445, 6088619.505924509], "max_proj": [391663.0324112441, 6088629.593392731], "height_m": 3.0}, {"min_proj": [391642.93249535095, 6088643.204953482], "max_proj": [391654.83626756404, 6088652.540069921], "height_m": 3.0}, {"min_proj": [391644.01336719823, 6088659.22347253], "max_proj": [391652.00714114954, 6088667.100750183], "height_m": 3.0}, {"min_proj": [391641.78776544554, 6088702.6905340925], "max_proj": [391650.55315028137, 6088718.964135441], "height_m": 3.0}, {"min_proj": [391114.7825442047, 6088582.177798275], "max_proj": [391134.6441117971, 6088595.749567738], "height_m": 3.0}, {"min_proj": [391141.74273920734, 6088591.593701244], "max_proj": [391160.27886304166, 6088607.479062611], "height_m": 3.0}, {"min_proj": [391115.15267832, 6088599.376265524], "max_proj": [391126.31557400577, 6088606.810901456], "height_m": 3.0}, {"min_proj": [391138.91151573474, 6088607.5939235035], "max_proj": [391151.1075538374, 6088615.427133578], "height_m": 3.0}, {"min_proj": [391061.8052223208, 6088621.793108629], "max_proj": [391091.14614459994, 6088643.69904609], "height_m": 3.0}, {"min_proj": [391096.997751402, 6088635.975910688], "max_proj": [391125.76682339236, 6088661.096175937], "height_m": 3.0}, {"min_proj": [391184.5081415409, 6088644.880694403], "max_proj": [391227.0503943346, 6088666.966520718], "height_m": 3.0}, {"min_proj": [391045.7925949988, 6088644.924475665], "max_proj": [391073.6962603202, 6088700.773386525], "height_m": 3.0}, {"min_proj": [391169.84161367436, 6088683.617352579], "max_proj": [391187.7908648141, 6088712.931110956], "height_m": 3.0}, {"min_proj": [391049.3406940551, 6088672.101924051], "max_proj": [391107.8291786459, 6088749.683655787], "height_m": 9.0}, {"min_proj": [390712.12491641194, 6088635.224811984], "max_proj": [390725.4740025267, 6088652.939022792], "height_m": 3.0}, {"min_proj": [390594.3397806298, 6088639.005092709], "max_proj": [390607.60520192474, 6088652.244451733], "height_m": 3.0}, {"min_proj": [390735.7012811575, 6088645.988390559], "max_proj": [390746.642742273, 6088661.6694135275], "height_m": 3.0}, {"min_proj": [390627.99606133555, 6088653.223623455], "max_proj": [390643.24746914895, 6088668.353127527], "height_m": 3.0}, {"min_proj": [390648.7210149639, 6088662.336953582], "max_proj": [390662.7720931545, 6088678.898241992], "height_m": 3.0}, {"min_proj": [390680.03145568445, 6088668.954343191], "max_proj": [390700.732721281, 6088682.5548674725], "height_m": 3.0}, {"min_proj": [390796.7085967357, 6088665.231035931], "max_proj": [390835.5781727148, 6088690.051037218], "height_m": 3.0}, {"min_proj": [390587.535422454, 6088672.447568055], "max_proj": [390604.915581209, 6088683.425297678], "height_m": 3.0}, {"min_proj": [390618.11061008886, 6088675.287506189], "max_proj": [390634.25840414665, 6088690.067207194], "height_m": 3.0}, {"min_proj": [390577.8271837045, 6088692.311164558], "max_proj": [390589.5669283164, 6088702.224758706], "height_m": 3.0}, {"min_proj": [390747.1059662268, 6088690.110425825], "max_proj": [390765.7808408528, 6088704.802409282], "height_m": 3.0}, {"min_proj": [390787.3931103732, 6088697.742106971], "max_proj": [390795.9216882801, 6088708.396161094], "height_m": 3.0}, {"min_proj": [390682.3566820848, 6088696.26820802], "max_proj": [390696.79531689116, 6088711.264721273], "height_m": 6.0}, {"min_proj": [390605.5754125401, 6088701.671849963], "max_proj": [390619.3318429512, 6088716.754349039], "height_m": 3.0}, {"min_proj": [390799.17985002906, 6088707.860669818], "max_proj": [390815.3165887602, 6088723.8915714165], "height_m": 3.0}, {"min_proj": [390623.8209173043, 6088709.107343772], "max_proj": [390638.13863400574, 6088725.392392498], "height_m": 3.0}, {"min_proj": [390640.2314611059, 6088713.937089365], "max_proj": [390653.240505061, 6088731.316413745], "height_m": 3.0}, {"min_proj": [390738.55700555653, 6088718.3320400845], "max_proj": [390756.9903591892, 6088733.940968203], "height_m": 3.0}, {"min_proj": [390656.7607852771, 6088719.899593461], "max_proj": [390673.0159807367, 6088735.735037906], "height_m": 3.0}, {"min_proj": [390586.51697427005, 6088725.198257924], "max_proj": [390598.5121160576, 6088739.500102856], "height_m": 3.0}, {"min_proj": [391010.8960701847, 6088701.911462727], "max_proj": [391032.25595857325, 6088735.164840655], "height_m": 3.0}, {"min_proj": [390857.57164763834, 6088728.5649525], "max_proj": [390889.90727593866, 6088750.380950973], "height_m": 6.0}, {"min_proj": [390982.5843405206, 6088728.488618557], "max_proj": [391024.01236791175, 6088756.678725807], "height_m": 3.0}, {"min_proj": [390920.9430984907, 6088748.822536415], "max_proj": [390937.724677635, 6088764.255836284], "height_m": 3.0}, {"min_proj": [390903.1217394173, 6088756.829825062], "max_proj": [390917.754330164, 6088767.432446174], "height_m": 3.0}, {"min_proj": [390849.7270947846, 6088757.180637361], "max_proj": [390859.753214708, 6088768.701425202], "height_m": 3.0}, {"min_proj": [390970.9653040939, 6088770.534781294], "max_proj": [390984.31325423287, 6088785.3705795985], "height_m": 3.0}, {"min_proj": [390894.15005359915, 6088770.266365735], "max_proj": [390914.6335934411, 6088787.08704833], "height_m": 6.0}, {"min_proj": [390991.89338427153, 6088772.352131771], "max_proj": [391012.423925865, 6088788.33923614], "height_m": 3.0}, {"min_proj": [390825.7357032115, 6088776.05195277], "max_proj": [390838.78318223066, 6088790.111968205], "height_m": 3.0}, {"min_proj": [390705.5794296435, 6088733.469860436], "max_proj": [390714.8173628133, 6088746.818570364], "height_m": 3.0}, {"min_proj": [390779.7953616587, 6088739.413339059], "max_proj": [390787.6493363118, 6088745.485741111], "height_m": 3.0}, {"min_proj": [390616.6843626018, 6088736.760315196], "max_proj": [390628.0709658033, 6088749.547729917], "height_m": 3.0}, {"min_proj": [390795.6118684103, 6088734.68262565], "max_proj": [390827.9407563559, 6088756.487014407], "height_m": 6.0}, {"min_proj": [390629.0255233515, 6088741.281716049], "max_proj": [390637.79401631304, 6088751.601770268], "height_m": 3.0}, {"min_proj": [390729.5940441018, 6088742.727273423], "max_proj": [390740.46944267943, 6088756.768085567], "height_m": 3.0}, {"min_proj": [390646.0981455354, 6088746.53683171], "max_proj": [390657.5064408268, 6088759.87779662], "height_m": 3.0}, {"min_proj": [390750.73926794005, 6088752.834656939], "max_proj": [390763.18973402074, 6088766.142830741], "height_m": 3.0}, {"min_proj": [390668.43606417265, 6088754.015713796], "max_proj": [390685.1788332903, 6088769.392391462], "height_m": 3.0}, {"min_proj": [390590.77170603536, 6088755.851168545], "max_proj": [390600.7236114959, 6088769.440707646], "height_m": 3.0}, {"min_proj": [390768.85466971644, 6088757.592947748], "max_proj": [390780.0396644795, 6088770.49647553], "height_m": 3.0}, {"min_proj": [390695.56172497943, 6088758.860380976], "max_proj": [390706.47624188126, 6088776.392466993], "height_m": 3.0}, {"min_proj": [390609.9322764836, 6088763.355072085], "max_proj": [390619.6301168932, 6088774.690148459], "height_m": 3.0}, {"min_proj": [390787.28352421924, 6088763.471774826], "max_proj": [390797.75165644014, 6088775.938605265], "height_m": 3.0}, {"min_proj": [390629.52207964275, 6088767.112806438], "max_proj": [390640.1734729378, 6088780.596300438], "height_m": 3.0}, {"min_proj": [390804.9041391114, 6088770.158262542], "max_proj": [390816.70167707524, 6088785.327861461], "height_m": 3.0}, {"min_proj": [390719.3493411988, 6088773.375547659], "max_proj": [390730.96652741294, 6088786.183350376], "height_m": 3.0}, {"min_proj": [390647.833950868, 6088774.670437464], "max_proj": [390659.50213565805, 6088789.07544812], "height_m": 3.0}, {"min_proj": [390740.40027393884, 6088777.79409238], "max_proj": [390751.1978050886, 6088790.733541869], "height_m": 3.0}, {"min_proj": [390666.1726555454, 6088779.086641087], "max_proj": [390678.0306844278, 6088791.586677269], "height_m": 3.0}, {"min_proj": [390988.48227157537, 6088784.776695525], "max_proj": [390994.8238313638, 6088791.799704109], "height_m": 3.0}, {"min_proj": [390910.22177038353, 6088775.972755798], "max_proj": [390960.2624133511, 6088804.4162982665], "height_m": 6.0}, {"min_proj": [390848.2503539256, 6088783.230183132], "max_proj": [390863.0316198244, 6088799.284767858], "height_m": 3.0}, {"min_proj": [391017.8505963396, 6088786.077642738], "max_proj": [391032.2692121116, 6088796.8456326565], "height_m": 3.0}, {"min_proj": [390867.667477371, 6088790.714731157], "max_proj": [390878.8659686035, 6088805.314337184], "height_m": 3.0}, {"min_proj": [390956.44303684833, 6088791.57304374], "max_proj": [390977.2239403024, 6088808.497997026], "height_m": 6.0}, {"min_proj": [390992.2832825083, 6088792.280987671], "max_proj": [391001.8257553953, 6088809.671366932], "height_m": 3.0}, {"min_proj": [390881.7915357972, 6088797.153857115], "max_proj": [390892.42222527927, 6088810.770376366], "height_m": 3.0}, {"min_proj": [390900.137675398, 6088801.004809527], "max_proj": [390913.0302029955, 6088813.2413375685], "height_m": 3.0}, {"min_proj": [391015.3753386247, 6088803.000789582], "max_proj": [391029.2311958802, 6088818.9207028635], "height_m": 3.0}, {"min_proj": [390759.81801587937, 6088783.599534215], "max_proj": [390770.8157797226, 6088798.516478019], "height_m": 3.0}, {"min_proj": [390590.73933750583, 6088784.846386578], "max_proj": [390601.3016803791, 6088798.812025157], "height_m": 3.0}, {"min_proj": [390685.6875726892, 6088786.450618176], "max_proj": [390697.94362435566, 6088802.05342585], "height_m": 3.0}, {"min_proj": [390777.9876310288, 6088790.147202217], "max_proj": [390788.6013327685, 6088804.095921386], "height_m": 3.0}, {"min_proj": [390609.67311938154, 6088791.862148067], "max_proj": [390620.81113323115, 6088805.2530827075], "height_m": 3.0}, {"min_proj": [390715.09201447095, 6088793.733849214], "max_proj": [390725.4025464241, 6088806.554098109], "height_m": 3.0}, {"min_proj": [390796.009775986, 6088797.230181654], "max_proj": [390806.70591133356, 6088810.650070056], "height_m": 3.0}, {"min_proj": [390629.3747301223, 6088800.306565156], "max_proj": [390639.8121316709, 6088813.019920712], "height_m": 3.0}, {"min_proj": [390736.6046795654, 6088801.055817108], "max_proj": [390745.28582064324, 6088813.675332209], "height_m": 3.0}, {"min_proj": [390648.4650361613, 6088805.238061961], "max_proj": [390662.8155761634, 6088819.318900341], "height_m": 3.0}, {"min_proj": [390411.5138296054, 6088797.7315764865], "max_proj": [390417.9592903594, 6088807.1273637945], "height_m": 3.0}, {"min_proj": [390391.11675613065, 6088798.829402784], "max_proj": [390398.00254288025, 6088807.795051004], "height_m": 3.0}, {"min_proj": [390540.42023302277, 6088797.800382983], "max_proj": [390551.83016474295, 6088813.809903581], "height_m": 3.0}, {"min_proj": [390353.89717823814, 6088807.87021437], "max_proj": [390357.94153475505, 6088812.923159696], "height_m": 3.0}, {"min_proj": [390562.4216262838, 6088803.478810625], "max_proj": [390573.8551624684, 6088819.491919738], "height_m": 3.0}, {"min_proj": [390452.4145390521, 6088820.09477105], "max_proj": [390458.55708462355, 6088830.131152369], "height_m": 3.0}, {"min_proj": [390473.6482266113, 6088819.459139858], "max_proj": [390482.254003065, 6088836.092581607], "height_m": 3.0}, {"min_proj": [390393.6525968799, 6088822.758525352], "max_proj": [390400.4024242541, 6088837.093384258], "height_m": 3.0}, {"min_proj": [390463.0362512713, 6088825.262982891], "max_proj": [390470.18742951646, 6088835.295833847], "height_m": 3.0}, {"min_proj": [390372.9677756922, 6088823.484931055], "max_proj": [390384.2432681291, 6088837.479237127], "height_m": 3.0}, {"min_proj": [390754.440351202, 6088807.0753128445], "max_proj": [390763.99566000106, 6088820.31403958], "height_m": 3.0}, {"min_proj": [390581.3273647209, 6088811.206241231], "max_proj": [390592.2243655188, 6088827.531621665], "height_m": 3.0}, {"min_proj": [390679.1441568086, 6088815.771581347], "max_proj": [390688.7391065923, 6088827.232541391], "height_m": 3.0}, {"min_proj": [390602.7820252081, 6088817.031686319], "max_proj": [390611.422962826, 6088826.692498019], "height_m": 3.0}, {"min_proj": [390772.2099389505, 6088813.542668808], "max_proj": [390783.8852193081, 6088830.4188631], "height_m": 3.0}, {"min_proj": [390791.9726705512, 6088819.100102345], "max_proj": [390801.9841571505, 6088832.110446778], "height_m": 3.0}, {"min_proj": [390705.25045181357, 6088822.368533028], "max_proj": [390714.9248101745, 6088834.222988742], "height_m": 3.0}, {"min_proj": [390620.67811460514, 6088824.055804766], "max_proj": [390630.78925876156, 6088835.970511766], "height_m": 3.0}, {"min_proj": [390812.865965271, 6088826.2375630615], "max_proj": [390821.87098659796, 6088837.828928224], "height_m": 3.0}, {"min_proj": [390726.7559548619, 6088827.808462759], "max_proj": [390737.483514323, 6088841.71404287], "height_m": 3.0}, {"min_proj": [391410.2487099526, 6088569.665100801], "max_proj": [391420.76272258256, 6088583.261931799], "height_m": 3.0}, {"min_proj": [391492.93054932146, 6088596.094355214], "max_proj": [391501.0340855319, 6088604.788463638], "height_m": 3.0}, {"min_proj": [391445.6007303596, 6088604.238025604], "max_proj": [391467.61765911954, 6088632.086053032], "height_m": 3.0}, {"min_proj": [391410.5966108187, 6088614.959661276], "max_proj": [391420.50839783147, 6088625.734913497], "height_m": 3.0}, {"min_proj": [391412.927727027, 6088635.187696758], "max_proj": [391427.4734525558, 6088646.8622053005], "height_m": 3.0}, {"min_proj": [391422.8794215955, 6088648.314697439], "max_proj": [391430.83621290047, 6088653.852345647], "height_m": 3.0}, {"min_proj": [391467.3760146431, 6088639.413277134], "max_proj": [391488.0736983989, 6088666.03523552], "height_m": 3.0}, {"min_proj": [391407.03226919036, 6088648.3459479], "max_proj": [391421.4279701827, 6088661.813614471], "height_m": 3.0}, {"min_proj": [391414.10146187426, 6088665.676970836], "max_proj": [391419.31317523617, 6088671.715530845], "height_m": 3.0}, {"min_proj": [391392.408514031, 6088666.61033688], "max_proj": [391407.8701367106, 6088679.466584511], "height_m": 3.0}, {"min_proj": [391538.6920580795, 6088611.525711911], "max_proj": [391545.15248925774, 6088615.860318217], "height_m": 3.0}, {"min_proj": [391593.23883760854, 6088612.748772152], "max_proj": [391605.93209359265, 6088624.873663029], "height_m": 3.0}, {"min_proj": [391557.6795581333, 6088617.138732526], "max_proj": [391575.52900731954, 6088633.222371235], "height_m": 3.0}, {"min_proj": [391622.07648709556, 6088621.193692855], "max_proj": [391635.03890738124, 6088630.035035684], "height_m": 3.0}, {"min_proj": [391594.3541858491, 6088624.434647394], "max_proj": [391608.11835984665, 6088635.495684151], "height_m": 3.0}, {"min_proj": [391541.5664940931, 6088624.932306969], "max_proj": [391557.6693413646, 6088639.030679665], "height_m": 3.0}, {"min_proj": [391570.1688025904, 6088633.365109385], "max_proj": [391576.710470867, 6088638.374035196], "height_m": 3.0}, {"min_proj": [391611.9232299475, 6088641.34538582], "max_proj": [391620.473733481, 6088646.450180645], "height_m": 3.0}, {"min_proj": [391598.7656629778, 6088640.316967209], "max_proj": [391612.2194896806, 6088647.962941436], "height_m": 3.0}, {"min_proj": [391562.8156746692, 6088642.424242217], "max_proj": [391575.14877840667, 6088651.662162344], "height_m": 3.0}, {"min_proj": [391572.265577951, 6088651.213734537], "max_proj": [391580.0727379384, 6088657.7879344635], "height_m": 3.0}, {"min_proj": [391601.0897286209, 6088654.815470582], "max_proj": [391617.33421472984, 6088664.077169831], "height_m": 3.0}, {"min_proj": [391556.69120211364, 6088662.570692324], "max_proj": [391578.7037448716, 6088675.296921802], "height_m": 3.0}, {"min_proj": [391604.4474086693, 6088662.480521398], "max_proj": [391623.22899758595, 6088677.723052648], "height_m": 3.0}, {"min_proj": [391630.48420525703, 6088666.373550711], "max_proj": [391641.49214854196, 6088675.879712404], "height_m": 3.0}, {"min_proj": [391603.58812497684, 6088678.700619407], "max_proj": [391612.22316503513, 6088685.1196813425], "height_m": 3.0}, {"min_proj": [391567.21989843546, 6088680.501081312], "max_proj": [391585.0810561745, 6088694.091539916], "height_m": 3.0}, {"min_proj": [391606.4891427217, 6088684.968262773], "max_proj": [391626.5021932481, 6088695.848351271], "height_m": 3.0}, {"min_proj": [391630.0362197618, 6088692.276716871], "max_proj": [391640.9389306356, 6088705.634418493], "height_m": 3.0}, {"min_proj": [391619.2650793025, 6088743.848525816], "max_proj": [391647.48509893875, 6088759.078824608], "height_m": 6.0}, {"min_proj": [391432.1637734689, 6088675.819482589], "max_proj": [391444.2340429095, 6088686.816251004], "height_m": 3.0}, {"min_proj": [391482.9607112064, 6088672.042233476], "max_proj": [391504.01187390846, 6088696.867916853], "height_m": 3.0}, {"min_proj": [391401.8831854798, 6088688.197912081], "max_proj": [391414.28401183826, 6088698.005760701], "height_m": 3.0}, {"min_proj": [391417.20531334827, 6088691.442578559], "max_proj": [391426.425087973, 6088701.978084685], "height_m": 3.0}, {"min_proj": [391432.82255892426, 6088690.769211038], "max_proj": [391450.1087749354, 6088707.1186816925], "height_m": 3.0}, {"min_proj": [391497.0786428056, 6088697.912245103], "max_proj": [391507.68935497163, 6088709.42005911], "height_m": 3.0}, {"min_proj": [391409.5765017003, 6088706.510073997], "max_proj": [391422.1697068714, 6088717.367865555], "height_m": 3.0}, {"min_proj": [391434.6774365419, 6088708.5300585525], "max_proj": [391451.3697490676, 6088717.728931023], "height_m": 3.0}, {"min_proj": [391471.97231414187, 6088726.725010605], "max_proj": [391484.28279577196, 6088735.685597169], "height_m": 3.0}, {"min_proj": [391441.5571794661, 6088727.505370596], "max_proj": [391455.29782773834, 6088739.512918337], "height_m": 3.0}, {"min_proj": [391334.8253455794, 6088668.002599174], "max_proj": [391341.709563428, 6088678.355902635], "height_m": 3.0}, {"min_proj": [391393.9980694327, 6088677.8963624025], "max_proj": [391404.1918736292, 6088689.661498689], "height_m": 3.0}, {"min_proj": [391254.2810200988, 6088694.181294432], "max_proj": [391278.9146325629, 6088707.741643107], "height_m": 3.0}, {"min_proj": [391249.2298765116, 6088704.07630056], "max_proj": [391332.94455056527, 6088723.678494596], "height_m": 3.0}, {"min_proj": [391329.952862889, 6088717.119987385], "max_proj": [391338.3366052889, 6088727.294403215], "height_m": 3.0}, {"min_proj": [391384.67761622893, 6088748.139853635], "max_proj": [391397.351058175, 6088765.457808234], "height_m": 3.0}, {"min_proj": [391282.61108838284, 6088752.074692966], "max_proj": [391292.81772705785, 6088766.541242402], "height_m": 3.0}, {"min_proj": [391267.0217331057, 6088753.6610758165], "max_proj": [391280.6263630576, 6088768.166413407], "height_m": 3.0}, {"min_proj": [391320.89972191124, 6088754.135010486], "max_proj": [391358.8445349926, 6088771.028283738], "height_m": 3.0}, {"min_proj": [391389.06162522384, 6088776.429762103], "max_proj": [391409.4663146047, 6088789.548178541], "height_m": 3.0}, {"min_proj": [391495.5736482166, 6088741.447370815], "max_proj": [391509.2737133324, 6088753.1405214975], "height_m": 3.0}, {"min_proj": [391476.0139117527, 6088746.00758513], "max_proj": [391491.4975507879, 6088755.339925721], "height_m": 3.0}, {"min_proj": [391412.92865688854, 6088750.051990193], "max_proj": [391418.5229978941, 6088765.6885871645], "height_m": 3.0}, {"min_proj": [391479.8272593003, 6088764.805107001], "max_proj": [391496.7865730355, 6088775.475317269], "height_m": 3.0}, {"min_proj": [391446.88567780354, 6088769.683292335], "max_proj": [391463.1842037879, 6088780.6465318985], "height_m": 3.0}, {"min_proj": [391515.71697821084, 6088787.366734462], "max_proj": [391531.0448352273, 6088819.771244077], "height_m": 3.0}, {"min_proj": [391489.75801414147, 6088791.101920809], "max_proj": [391505.39121675835, 6088822.7066695355], "height_m": 3.0}, {"min_proj": [391388.9995093331, 6088801.867917358], "max_proj": [391474.9051728108, 6088835.056627353], "height_m": 3.0}, {"min_proj": [391444.2663395377, 6088858.396953755], "max_proj": [391502.66918770585, 6088887.95487757], "height_m": 3.0}, {"min_proj": [391379.7961277993, 6088867.227432761], "max_proj": [391430.3498861922, 6088889.171728429], "height_m": 3.0}, {"min_proj": [391199.2694098083, 6088694.376141041], "max_proj": [391253.6357433025, 6088767.850577886], "height_m": 3.0}, {"min_proj": [391136.8028917834, 6088728.663058803], "max_proj": [391153.0228462846, 6088742.521298332], "height_m": 3.0}, {"min_proj": [391117.40171074227, 6088751.744790172], "max_proj": [391170.2035221115, 6088773.197628143], "height_m": 3.0}, {"min_proj": [391199.63913631515, 6088786.5428898875], "max_proj": [391213.64386823354, 6088794.663785819], "height_m": 3.0}, {"min_proj": [391143.68611346855, 6088790.270845243], "max_proj": [391157.82449683256, 6088798.903384287], "height_m": 3.0}, {"min_proj": [391210.69811436883, 6088841.178203544], "max_proj": [391225.7817758317, 6088860.661174346], "height_m": 3.0}, {"min_proj": [391179.97399327153, 6088854.484728341], "max_proj": [391199.9001546162, 6088922.755200199], "height_m": 3.0}, {"min_proj": [391212.8158271271, 6088869.696058659], "max_proj": [391240.2250436834, 6088943.855817493], "height_m": 3.0}, {"min_proj": [391102.9729827108, 6088921.688358723], "max_proj": [391141.0266546344, 6088934.849699605], "height_m": 3.0}, {"min_proj": [391188.2305646796, 6088921.134429766], "max_proj": [391206.29812273954, 6088962.8573323805], "height_m": 3.0}, {"min_proj": [391229.3252719522, 6088785.346662918], "max_proj": [391242.66998055065, 6088792.776819164], "height_m": 3.0}, {"min_proj": [391323.4217083791, 6088793.859842822], "max_proj": [391329.4130248871, 6088801.053027775], "height_m": 3.0}, {"min_proj": [391333.6942047875, 6088791.863682209], "max_proj": [391345.0646935899, 6088811.583065486], "height_m": 3.0}, {"min_proj": [391380.1793314493, 6088801.344962303], "max_proj": [391389.97870632, 6088808.359158984], "height_m": 3.0}, {"min_proj": [391344.2639990294, 6088799.55883124], "max_proj": [391357.31835253316, 6088819.120928793], "height_m": 3.0}, {"min_proj": [391315.8641059453, 6088843.9797190465], "max_proj": [391363.05783297966, 6088890.963737298], "height_m": 3.0}, {"min_proj": [391233.2188917665, 6088800.077622143], "max_proj": [391325.1405597674, 6088935.2710457], "height_m": 3.0}, {"min_proj": [391372.4669760192, 6088877.641014618], "max_proj": [391381.0347925222, 6088884.071141326], "height_m": 3.0}, {"min_proj": [391338.9315081757, 6088874.4825356295], "max_proj": [391373.9578279224, 6088894.42555254], "height_m": 3.0}, {"min_proj": [391339.5483395513, 6088899.30866499], "max_proj": [391368.26734684757, 6088927.668140493], "height_m": 3.0}, {"min_proj": [391414.9103804948, 6088891.23723139], "max_proj": [391433.6979968429, 6088900.188798646], "height_m": 3.0}, {"min_proj": [391473.20153598406, 6088902.890871621], "max_proj": [391524.5177057089, 6088923.600221627], "height_m": 3.0}, {"min_proj": [391455.80081915105, 6088904.990470854], "max_proj": [391470.02084591344, 6088925.578722508], "height_m": 3.0}, {"min_proj": [391482.83700522466, 6088924.361416636], "max_proj": [391528.4200647274, 6088950.340518375], "height_m": 3.0}, {"min_proj": [391436.7842241484, 6088930.079359486], "max_proj": [391483.9712930941, 6088976.613212231], "height_m": 3.0}, {"min_proj": [391440.1064980744, 6088958.293829993], "max_proj": [391468.5424187338, 6088985.0305617945], "height_m": 3.0}, {"min_proj": [391493.77567518275, 6088970.9602279365], "max_proj": [391507.52601218724, 6088989.561682956], "height_m": 3.0}, {"min_proj": [391496.0346636843, 6088988.939676632], "max_proj": [391505.4525651651, 6088999.340085304], "height_m": 3.0}, {"min_proj": [391467.418674815, 6088989.651797076], "max_proj": [391493.57615596923, 6089006.243072234], "height_m": 3.0}, {"min_proj": [391473.0539864147, 6089025.330353935], "max_proj": [391512.5028708761, 6089045.969779625], "height_m": 3.0}, {"min_proj": [391531.1987913319, 6088830.883121034], "max_proj": [391574.7682293604, 6088906.646916587], "height_m": 3.0}, {"min_proj": [391540.65534723684, 6088946.360457858], "max_proj": [391555.5168909547, 6088956.033376846], "height_m": 3.0}, {"min_proj": [391610.87270779104, 6088943.633755073], "max_proj": [391638.6135538, 6088958.909457891], "height_m": 3.0}, {"min_proj": [391542.0319949881, 6088965.144980205], "max_proj": [391568.6936337053, 6088979.546986105], "height_m": 3.0}, {"min_proj": [391605.0606749408, 6088961.595847025], "max_proj": [391656.3106595407, 6088984.718568763], "height_m": 3.0}, {"min_proj": [391582.79899125604, 6088978.790500422], "max_proj": [391598.5086108138, 6088996.756313503], "height_m": 3.0}, {"min_proj": [391547.7378529066, 6088983.99347995], "max_proj": [391563.233092833, 6089033.332049083], "height_m": 3.0}, {"min_proj": [391559.4789554066, 6089031.937070515], "max_proj": [391568.5232392815, 6089047.174430512], "height_m": 3.0}, {"min_proj": [391556.91326791106, 6089047.764188403], "max_proj": [391565.58476462075, 6089059.501623551], "height_m": 3.0}, {"min_proj": [391468.45891088585, 6089128.7553924555], "max_proj": [391593.9086454216, 6089166.058847726], "height_m": 3.0}, {"min_proj": [391609.78767515003, 6089069.276128399], "max_proj": [391735.1587686533, 6089105.865396316], "height_m": 3.0}, {"min_proj": [391612.7235772684, 6089119.987752743], "max_proj": [391677.8435069801, 6089148.7792771505], "height_m": 3.0}, {"min_proj": [391616.37545397435, 6089154.251180817], "max_proj": [391753.20666090195, 6089192.67298809], "height_m": 3.0}, {"min_proj": [391623.13367435755, 6089212.155838562], "max_proj": [391759.9631044795, 6089250.57747006], "height_m": 3.0}, {"min_proj": [391247.10919023026, 6088936.492107584], "max_proj": [391308.8303911106, 6088957.132696079], "height_m": 3.0}, {"min_proj": [391337.7181263092, 6088929.610244567], "max_proj": [391352.187803297, 6089007.474402252], "height_m": 3.0}, {"min_proj": [391372.1336716484, 6088953.77276974], "max_proj": [391382.11305521615, 6088984.185542681], "height_m": 3.0}, {"min_proj": [391342.7842710508, 6088924.378791359], "max_proj": [391446.2351596773, 6089016.600834103], "height_m": 3.0}, {"min_proj": [391277.62969812244, 6088966.103886131], "max_proj": [391312.0902741112, 6088988.599148598], "height_m": 3.0}, {"min_proj": [391373.2903472228, 6089024.469832007], "max_proj": [391395.4413712756, 6089038.345754611], "height_m": 3.0}, {"min_proj": [391297.4747467091, 6089065.240080995], "max_proj": [391422.9331222266, 6089102.548105883], "height_m": 3.0}, {"min_proj": [391307.0477798298, 6089145.230371391], "max_proj": [391432.49749665556, 6089182.538168651], "height_m": 3.0}, {"min_proj": [391313.73197364964, 6089191.179852334], "max_proj": [391439.18039266154, 6089228.487486741], "height_m": 3.0}, {"min_proj": [391231.057416642, 6089209.655575774], "max_proj": [391296.0293641601, 6089239.666028372], "height_m": 3.0}, {"min_proj": [391397.0664526517, 6089032.190596643], "max_proj": [391416.09447793756, 6089045.824677172], "height_m": 3.0}, {"min_proj": [391499.61362222687, 6089042.543048663], "max_proj": [391519.62324636546, 6089057.023323051], "height_m": 3.0}, {"min_proj": [391462.4610121473, 6089086.8742231475], "max_proj": [391588.77123865875, 6089123.612461663], "height_m": 3.0}, {"min_proj": [391456.81111467356, 6089194.08074513], "max_proj": [391466.79063988384, 6089208.549045136], "height_m": 3.0}, {"min_proj": [391385.0501046956, 6089230.448432812], "max_proj": [391485.24653867004, 6089278.224857859], "height_m": 3.0}, {"min_proj": [391451.0360374804, 6089383.937511049], "max_proj": [391460.01349711453, 6089391.316804229], "height_m": 3.0}, {"min_proj": [391473.2997923805, 6089486.455495629], "max_proj": [391489.1191377528, 6089496.849126302], "height_m": 3.0}, {"min_proj": [391485.05003027135, 6089506.763688171], "max_proj": [391505.4450550253, 6089524.3772593355], "height_m": 3.0}, {"min_proj": [391454.29462792113, 6089519.815805727], "max_proj": [391478.7289013787, 6089539.579749596], "height_m": 3.0}, {"min_proj": [391477.46606722113, 6089530.654134926], "max_proj": [391483.3550032398, 6089538.354974279], "height_m": 3.0}, {"min_proj": [391496.961981553, 6089171.931304068], "max_proj": [391600.35149953124, 6089207.70310051], "height_m": 3.0}, {"min_proj": [391573.78508582804, 6089236.125957451], "max_proj": [391613.3696500681, 6089255.310925103], "height_m": 3.0}, {"min_proj": [391490.7470782016, 6089234.662950749], "max_proj": [391570.731655588, 6089266.059686799], "height_m": 3.0}, {"min_proj": [391616.82010112103, 6089302.667524914], "max_proj": [391636.0290520594, 6089313.002229494], "height_m": 3.0}, {"min_proj": [391607.3978670044, 6089425.866586382], "max_proj": [391613.33307276847, 6089430.454940322], "height_m": 3.0}, {"min_proj": [391604.38828741224, 6089428.985703295], "max_proj": [391614.8150051822, 6089435.989432783], "height_m": 3.0}, {"min_proj": [391585.2375000818, 6089429.34877455], "max_proj": [391599.0246776764, 6089450.275618367], "height_m": 3.0}, {"min_proj": [391566.9446431026, 6089439.433092337], "max_proj": [391583.92757082277, 6089449.80478879], "height_m": 3.0}, {"min_proj": [391626.07233933447, 6089444.277780032], "max_proj": [391632.13669641747, 6089451.682572878], "height_m": 3.0}, {"min_proj": [391593.1209387978, 6089453.178655168], "max_proj": [391601.5861083932, 6089461.862007402], "height_m": 3.0}, {"min_proj": [391193.18436424964, 6088961.236574981], "max_proj": [391211.18004536786, 6089002.3823119085], "height_m": 3.0}, {"min_proj": [391201.8880444955, 6088999.04168537], "max_proj": [391226.0875336505, 6089009.369936889], "height_m": 3.0}, {"min_proj": [391193.6218160547, 6089006.982040578], "max_proj": [391200.7887179088, 6089011.851715219], "height_m": 3.0}, {"min_proj": [391149.3831900409, 6089080.752405236], "max_proj": [391274.835132402, 6089118.064413935], "height_m": 3.0}, {"min_proj": [391159.7851213766, 6089122.43678322], "max_proj": [391285.23587513587, 6089159.737401519], "height_m": 3.0}, {"min_proj": [391156.98038710584, 6089160.300243161], "max_proj": [391282.4365002123, 6089197.612076835], "height_m": 3.0}, {"min_proj": [391170.0953121607, 6089217.154927647], "max_proj": [391233.77640496433, 6089247.012258741], "height_m": 3.0}, {"min_proj": [391172.5833058203, 6089270.005669577], "max_proj": [391273.5790078095, 6089304.607411002], "height_m": 3.0}, {"min_proj": [391194.99906002835, 6089510.593281751], "max_proj": [391232.2079770337, 6089537.974373761], "height_m": 3.0}, {"min_proj": [391210.31287897343, 6089671.639129094], "max_proj": [391229.7708757919, 6089696.410172478], "height_m": 3.0}, {"min_proj": [391281.9242920453, 6089251.2420105655], "max_proj": [391384.521645759, 6089290.353487309], "height_m": 3.0}, {"min_proj": [391374.4496691069, 6089422.259768122], "max_proj": [391386.0213031632, 6089434.214293114], "height_m": 3.0}, {"min_proj": [391305.0941796542, 6089451.584496783], "max_proj": [391334.5161010326, 6089474.058507379], "height_m": 3.0}, {"min_proj": [391330.9361747075, 6089467.862627468], "max_proj": [391337.6838784376, 6089473.987292116], "height_m": 3.0}, {"min_proj": [391319.1007368728, 6089476.176307766], "max_proj": [391324.5037850114, 6089482.556341685], "height_m": 3.0}, {"min_proj": [391233.6794345254, 6089469.144499716], "max_proj": [391265.52115591976, 6089490.040815969], "height_m": 3.0}, {"min_proj": [391309.7650879082, 6089476.828909117], "max_proj": [391319.8095989655, 6089486.66340352], "height_m": 3.0}, {"min_proj": [391302.3061717778, 6089481.698757787], "max_proj": [391312.17530372494, 6089491.321705571], "height_m": 3.0}, {"min_proj": [391250.8229030418, 6089482.547099679], "max_proj": [391281.43592772965, 6089505.537225056], "height_m": 3.0}, {"min_proj": [391382.01006602217, 6089568.968291537], "max_proj": [391392.72323873994, 6089583.0332812695], "height_m": 3.0}, {"min_proj": [391541.7574251501, 6089456.772807355], "max_proj": [391548.5036182707, 6089464.2677696785], "height_m": 3.0}, {"min_proj": [391602.6348243088, 6089446.698999583], "max_proj": [391631.883322872, 6089476.103413775], "height_m": 3.0}, {"min_proj": [391576.0267759826, 6089460.8387925085], "max_proj": [391599.91172955034, 6089480.884434844], "height_m": 3.0}, {"min_proj": [391533.9329787313, 6089478.465187221], "max_proj": [391540.5192609095, 6089489.036096818], "height_m": 3.0}, {"min_proj": [391546.3746562454, 6089473.807732747], "max_proj": [391566.2841947111, 6089495.323020067], "height_m": 3.0}, {"min_proj": [391607.97567964066, 6089498.338713509], "max_proj": [391615.85961112205, 6089506.250125526], "height_m": 3.0}, {"min_proj": [391618.0838192368, 6089494.937117481], "max_proj": [391640.02425187477, 6089515.625135923], "height_m": 3.0}, {"min_proj": [391576.71944718575, 6089508.381301639], "max_proj": [391588.15762870316, 6089518.952503298], "height_m": 3.0}, {"min_proj": [391562.1125843539, 6089518.262131911], "max_proj": [391574.56418015633, 6089530.545857767], "height_m": 3.0}, {"min_proj": [391628.42794815666, 6089516.053496118], "max_proj": [391642.4700052742, 6089533.798567446], "height_m": 3.0}, {"min_proj": [391587.86081769253, 6089521.306044614], "max_proj": [391600.7119254192, 6089533.9207072705], "height_m": 3.0}, {"min_proj": [391537.6956091017, 6089526.519336217], "max_proj": [391551.4162742018, 6089541.989760784], "height_m": 3.0}, {"min_proj": [391590.5238363214, 6089531.3087359555], "max_proj": [391602.61038006586, 6089543.445547402], "height_m": 3.0}, {"min_proj": [391525.6857446678, 6089533.821579789], "max_proj": [391535.5214380238, 6089543.968411313], "height_m": 3.0}, {"min_proj": [391605.61793813104, 6089540.679964478], "max_proj": [391623.7417988779, 6089558.956712324], "height_m": 3.0}, {"min_proj": [391522.6167961872, 6089548.847672517], "max_proj": [391538.46821106214, 6089564.681256949], "height_m": 3.0}, {"min_proj": [391585.5541862046, 6089552.96298753], "max_proj": [391597.30925781064, 6089565.902482882], "height_m": 3.0}, {"min_proj": [391617.82950330555, 6089555.7926131915], "max_proj": [391634.1016906117, 6089569.66232963], "height_m": 3.0}, {"min_proj": [391592.7492343391, 6089564.857803003], "max_proj": [391599.4013145909, 6089571.528660434], "height_m": 3.0}, {"min_proj": [391538.16302255716, 6089570.35989981], "max_proj": [391551.9835609772, 6089584.079555746], "height_m": 3.0}, {"min_proj": [391419.6379088827, 6089535.259009067], "max_proj": [391446.40763528406, 6089556.0282017905], "height_m": 3.0}, {"min_proj": [391510.95630905847, 6089540.523867599], "max_proj": [391521.2222853645, 6089551.216469199], "height_m": 3.0}, {"min_proj": [391403.1644854965, 6089543.125484967], "max_proj": [391413.0944227075, 6089556.047430789], "height_m": 3.0}, {"min_proj": [391506.68052651937, 6089544.679099286], "max_proj": [391518.8904931466, 6089558.4540064465], "height_m": 3.0}, {"min_proj": [391488.54151151504, 6089551.909964259], "max_proj": [391497.9492585212, 6089561.88778646], "height_m": 3.0}, {"min_proj": [391442.57184288313, 6089554.236971653], "max_proj": [391450.0592374485, 6089560.374989766], "height_m": 3.0}, {"min_proj": [391496.9846685269, 6089549.206584499], "max_proj": [391513.6216290604, 6089567.191611326], "height_m": 3.0}, {"min_proj": [391414.49710970186, 6089556.511487436], "max_proj": [391420.1403419904, 6089563.457035702], "height_m": 3.0}, {"min_proj": [391478.36494587304, 6089556.255578348], "max_proj": [391488.91606003436, 6089567.792725641], "height_m": 3.0}, {"min_proj": [391388.02515360696, 6089552.804323509], "max_proj": [391415.44968299376, 6089572.100474705], "height_m": 3.0}, {"min_proj": [391468.5743678959, 6089564.4874140015], "max_proj": [391489.8194381731, 6089583.883062201], "height_m": 3.0}, {"min_proj": [391435.083707047, 6089578.028224369], "max_proj": [391452.99165740184, 6089595.908705895], "height_m": 3.0}, {"min_proj": [391481.2813759062, 6089584.071511181], "max_proj": [391487.7677384381, 6089590.49869727], "height_m": 3.0}, {"min_proj": [391491.3833232999, 6089588.710258751], "max_proj": [391505.3532047028, 6089602.579078695], "height_m": 3.0}, {"min_proj": [391393.756241713, 6089592.131761274], "max_proj": [391409.9632557392, 6089605.131054303], "height_m": 3.0}, {"min_proj": [391435.0407549661, 6089596.45813304], "max_proj": [391444.4245565102, 6089604.8955462435], "height_m": 3.0}, {"min_proj": [391500.0837245247, 6089596.318262992], "max_proj": [391515.02092168917, 6089611.125119901], "height_m": 3.0}, {"min_proj": [391449.32761409733, 6089601.763338184], "max_proj": [391468.29640690563, 6089619.684747978], "height_m": 3.0}, {"min_proj": [391456.34125592816, 6089605.555325013], "max_proj": [391473.9994228016, 6089622.565169068], "height_m": 3.0}, {"min_proj": [391406.26637929643, 6089609.609953945], "max_proj": [391419.3353025113, 6089622.572243861], "height_m": 3.0}, {"min_proj": [391550.554580184, 6089577.654331503], "max_proj": [391558.1033176609, 6089585.1097776685], "height_m": 3.0}, {"min_proj": [391584.7184760258, 6089577.82798676], "max_proj": [391592.9898859455, 6089585.993347647], "height_m": 3.0}, {"min_proj": [391588.3498979696, 6089580.522948785], "max_proj": [391601.99494811665, 6089594.080896176], "height_m": 3.0}, {"min_proj": [391549.7527505642, 6089584.65152948], "max_proj": [391563.4212379003, 6089599.958838709], "height_m": 3.0}, {"min_proj": [391601.37052303157, 6089587.034676097], "max_proj": [391614.7904727813, 6089600.315186544], "height_m": 3.0}, {"min_proj": [391618.30586907093, 6089595.354539283], "max_proj": [391628.12581898866, 6089605.045604314], "height_m": 3.0}, {"min_proj": [391603.0957221561, 6089596.021531607], "max_proj": [391617.10789244453, 6089609.844355223], "height_m": 3.0}, {"min_proj": [391562.2819203408, 6089598.954851381], "max_proj": [391581.02941265336, 6089617.598880863], "height_m": 3.0}, {"min_proj": [391627.7493216555, 6089605.164543695], "max_proj": [391637.227259401, 6089614.4920234755], "height_m": 3.0}, {"min_proj": [391611.7585891847, 6089606.238212596], "max_proj": [391628.28295589, 6089622.771485], "height_m": 3.0}, {"min_proj": [390815.0960548058, 6088805.425124682], "max_proj": [390826.6058450228, 6088817.459030145], "height_m": 3.0}, {"min_proj": [390836.18464912276, 6088811.081148802], "max_proj": [390846.4077573205, 6088823.398171084], "height_m": 3.0}, {"min_proj": [390919.22395202226, 6088810.417815898], "max_proj": [390934.0473964518, 6088828.4021874005], "height_m": 3.0}, {"min_proj": [390939.56570340565, 6088815.174410317], "max_proj": [390950.9816470267, 6088830.019485554], "height_m": 3.0}, {"min_proj": [390854.93154380354, 6088819.211258747], "max_proj": [390864.46054301923, 6088829.9804180395], "height_m": 3.0}, {"min_proj": [390958.4749056528, 6088821.673580167], "max_proj": [390970.6375232189, 6088836.78800903], "height_m": 3.0}, {"min_proj": [390874.8155451454, 6088823.766709693], "max_proj": [390885.9334905286, 6088837.243219364], "height_m": 3.0}, {"min_proj": [390833.08993206616, 6088833.516480842], "max_proj": [390842.7997307603, 6088846.603437628], "height_m": 3.0}, {"min_proj": [390911.0017931838, 6088831.843880843], "max_proj": [390922.764196839, 6088849.420920444], "height_m": 3.0}, {"min_proj": [390981.8414319997, 6088833.740425889], "max_proj": [390994.6533903838, 6088847.6041910965], "height_m": 3.0}, {"min_proj": [390638.01325589296, 6088829.496624399], "max_proj": [390650.01706298103, 6088844.967603705], "height_m": 3.0}, {"min_proj": [390745.0198426281, 6088834.2794064125], "max_proj": [390755.4597825397, 6088847.774895568], "height_m": 3.0}, {"min_proj": [390764.7443103802, 6088840.972767492], "max_proj": [390773.57981851284, 6088853.429506156], "height_m": 3.0}, {"min_proj": [390664.4626751145, 6088845.525260794], "max_proj": [390676.6861114134, 6088854.339831478], "height_m": 3.0}, {"min_proj": [390591.52835799975, 6088845.4614919145], "max_proj": [390602.76587941847, 6088858.375393259], "height_m": 3.0}, {"min_proj": [390781.8421508669, 6088846.014477776], "max_proj": [390792.5598477438, 6088860.044516294], "height_m": 3.0}, {"min_proj": [390613.33706073835, 6088849.900891578], "max_proj": [390624.24321890424, 6088863.088590787], "height_m": 3.0}, {"min_proj": [390809.35160917195, 6088852.784736237], "max_proj": [390820.7782553489, 6088867.948098891], "height_m": 3.0}, {"min_proj": [390629.9984403416, 6088853.805120508], "max_proj": [390641.4696269152, 6088868.811329565], "height_m": 3.0}, {"min_proj": [390719.09637895564, 6088945.196512283], "max_proj": [390736.8385593096, 6088980.369332388], "height_m": 9.0}, {"min_proj": [390853.38667913515, 6088839.94153562], "max_proj": [390863.5567781676, 6088852.437837938], "height_m": 3.0}, {"min_proj": [390931.7752719959, 6088844.865237806], "max_proj": [390946.55638706975, 6088859.43997738], "height_m": 3.0}, {"min_proj": [390870.0529201756, 6088845.428109742], "max_proj": [390880.3422160778, 6088858.961905223], "height_m": 3.0}, {"min_proj": [390980.849239704, 6088894.803389549], "max_proj": [391013.9115757749, 6088912.186210678], "height_m": 3.0}, {"min_proj": [390967.55976983474, 6088899.991977986], "max_proj": [390974.54264415544, 6088907.520924374], "height_m": 3.0}, {"min_proj": [390846.4872188097, 6088903.510860915], "max_proj": [390949.08301278367, 6088936.575678254], "height_m": 12.0}, {"min_proj": [390802.16906516446, 6088908.747778828], "max_proj": [390835.7673077632, 6088952.836132109], "height_m": 3.0}, {"min_proj": [390897.1593732512, 6088916.341072712], "max_proj": [390948.9701440322, 6088985.406837743], "height_m": 3.0}, {"min_proj": [390963.05911848904, 6088923.3922417415], "max_proj": [391088.29174035124, 6089038.691157322], "height_m": 3.0}, {"min_proj": [390798.86126678216, 6088973.94056583], "max_proj": [390861.73986512376, 6089012.055362948], "height_m": 3.0}, {"min_proj": [390911.87598480744, 6088979.578330504], "max_proj": [390960.47678186005, 6089069.741072647], "height_m": 3.0}, {"min_proj": [390861.73986512376, 6089002.351142325], "max_proj": [390881.4751744476, 6089051.736004752], "height_m": 3.0}, {"min_proj": [390870.01369357866, 6089050.350411177], "max_proj": [390883.559788834, 6089089.32889888], "height_m": 3.0}, {"min_proj": [390812.4380646492, 6089082.400954761], "max_proj": [390866.936690378, 6089105.218756353], "height_m": 9.0}, {"min_proj": [390876.95364929945, 6089088.188492678], "max_proj": [390885.24784269783, 6089101.556108846], "height_m": 3.0}, {"min_proj": [390869.59801998734, 6089098.351911108], "max_proj": [390883.0500568395, 6089112.053904459], "height_m": 3.0}, {"min_proj": [390965.77949215635, 6089114.6258235], "max_proj": [391047.22200064885, 6089146.489992653], "height_m": 3.0}, {"min_proj": [390896.5054787908, 6089108.661901723], "max_proj": [390916.73626856407, 6089160.929684859], "height_m": 3.0}, {"min_proj": [390949.2534751815, 6089125.698069935], "max_proj": [390968.6887839382, 6089148.78465285], "height_m": 3.0}, {"min_proj": [390814.6888188165, 6089143.002713854], "max_proj": [390832.347864193, 6089159.859567238], "height_m": 3.0}, {"min_proj": [390610.54022575036, 6088973.365794393], "max_proj": [390673.45634554385, 6088992.4756076895], "height_m": 6.0}, {"min_proj": [390660.00111512153, 6088989.966226871], "max_proj": [390680.41224254307, 6089036.952623902], "height_m": 6.0}, {"min_proj": [390780.5160288195, 6089075.958280794], "max_proj": [390796.46441050316, 6089093.804286909], "height_m": 3.0}, {"min_proj": [390762.3418150214, 6089092.403534087], "max_proj": [390774.98836669215, 6089123.690961819], "height_m": 3.0}, {"min_proj": [390755.04300062335, 6089107.589384695], "max_proj": [390763.2090537449, 6089115.013203406], "height_m": 3.0}, {"min_proj": [390804.6337377621, 6089128.86059981], "max_proj": [390828.1638522238, 6089137.811060332], "height_m": 3.0}, {"min_proj": [390807.51679258724, 6089144.315351734], "max_proj": [390815.93910258217, 6089160.497915736], "height_m": 3.0}, {"min_proj": [390755.10786453617, 6089148.190837748], "max_proj": [390768.876708632, 6089165.48424493], "height_m": 3.0}, {"min_proj": [390710.3209581773, 6089160.659695593], "max_proj": [390723.8680178402, 6089169.453726405], "height_m": 3.0}, {"min_proj": [390588.2534679461, 6089183.149398619], "max_proj": [390602.56319838605, 6089199.835492514], "height_m": 3.0}, {"min_proj": [390965.6063987387, 6089145.069629289], "max_proj": [391075.27436257404, 6089180.094947431], "height_m": 3.0}, {"min_proj": [390813.0799816322, 6089176.130262432], "max_proj": [390877.0058214873, 6089198.6701709125], "height_m": 3.0}, {"min_proj": [390903.62985962006, 6089184.829961489], "max_proj": [390928.6530165773, 6089200.525254977], "height_m": 3.0}, {"min_proj": [390843.5482728275, 6089254.858901766], "max_proj": [390852.5918807857, 6089261.992033022], "height_m": 3.0}, {"min_proj": [390901.8414711988, 6089267.608069435], "max_proj": [390972.9258533712, 6089291.585871985], "height_m": 3.0}, {"min_proj": [391037.98814522754, 6089759.622728598], "max_proj": [391049.5802556604, 6089771.113170447], "height_m": 3.0}, {"min_proj": [390996.52246363554, 6089772.412877108], "max_proj": [391014.3651899764, 6089789.555203108], "height_m": 3.0}, {"min_proj": [391009.96087120817, 6089777.130681056], "max_proj": [391025.2780119657, 6089798.416401134], "height_m": 3.0}, {"min_proj": [390977.79612964304, 6089789.366279096], "max_proj": [390985.66444832645, 6089797.401163126], "height_m": 3.0}, {"min_proj": [390983.76073606603, 6089795.735507766], "max_proj": [390988.5651477403, 6089800.601963574], "height_m": 3.0}, {"min_proj": [390770.8219955514, 6089183.347204903], "max_proj": [390804.1251330582, 6089202.640004396], "height_m": 3.0}, {"min_proj": [390642.5453673156, 6089180.336520847], "max_proj": [390661.9666047195, 6089220.080424998], "height_m": 3.0}, {"min_proj": [390703.67965302407, 6089187.969970994], "max_proj": [390728.2557790546, 6089213.247279089], "height_m": 3.0}, {"min_proj": [390578.3765194445, 6089204.855036924], "max_proj": [390605.2160396934, 6089224.073003954], "height_m": 3.0}, {"min_proj": [390644.49504762044, 6089219.21789834], "max_proj": [390656.49598844146, 6089236.002420345], "height_m": 3.0}, {"min_proj": [390655.3079675677, 6089236.157183175], "max_proj": [390718.81463856273, 6089276.530643724], "height_m": 3.0}, {"min_proj": [390796.14609944186, 6089892.965183733], "max_proj": [390810.8642578451, 6089909.636922002], "height_m": 3.0}, {"min_proj": [390720.5082209304, 6089905.175700917], "max_proj": [390806.16453584936, 6089982.454461659], "height_m": 3.0}, {"min_proj": [391175.3400122888, 6089732.804831689], "max_proj": [391182.4051582583, 6089739.722837505], "height_m": 3.0}, {"min_proj": [391173.93631433835, 6089740.142116883], "max_proj": [391187.50834104535, 6089753.581591218], "height_m": 3.0}, {"min_proj": [391071.89702450315, 6089744.154216516], "max_proj": [391082.77775397943, 6089754.948049497], "height_m": 3.0}, {"min_proj": [391082.970360797, 6089742.178225054], "max_proj": [391100.16549154633, 6089759.54984559], "height_m": 3.0}, {"min_proj": [391113.8509509352, 6089748.9262698805], "max_proj": [391122.7485061796, 6089757.881951697], "height_m": 3.0}, {"min_proj": [391124.5093644463, 6089750.586688638], "max_proj": [391139.76607566496, 6089765.276934271], "height_m": 3.0}, {"min_proj": [391186.99510910513, 6089752.142249471], "max_proj": [391200.16359377827, 6089764.267390425], "height_m": 3.0}, {"min_proj": [391094.9641150348, 6089755.269540474], "max_proj": [391105.0408761434, 6089764.97409811], "height_m": 3.0}, {"min_proj": [391193.5634873302, 6089757.444385192], "max_proj": [391208.8175802946, 6089772.323881258], "height_m": 3.0}, {"min_proj": [391133.6168269408, 6089759.8431704575], "max_proj": [391145.8894021488, 6089771.772836139], "height_m": 3.0}, {"min_proj": [391104.91429976537, 6089764.633004646], "max_proj": [391116.8221221223, 6089776.435493294], "height_m": 3.0}, {"min_proj": [391140.6142766777, 6089765.141063126], "max_proj": [391153.72593998566, 6089777.993421716], "height_m": 3.0}, {"min_proj": [391203.32846373314, 6089763.69488918], "max_proj": [391223.00650182855, 6089787.233038127], "height_m": 3.0}, {"min_proj": [391046.2077680202, 6089772.294667804], "max_proj": [391059.34467757534, 6089785.368119623], "height_m": 3.0}, {"min_proj": [391110.7606605038, 6089774.130319302], "max_proj": [391127.9524325546, 6089788.575523739], "height_m": 3.0}, {"min_proj": [391152.2374243078, 6089772.933598309], "max_proj": [391170.01449231786, 6089790.062904467], "height_m": 3.0}, {"min_proj": [391055.3238218732, 6089778.918719496], "max_proj": [391072.1486450763, 6089795.455999814], "height_m": 3.0}, {"min_proj": [391125.3433021122, 6089784.849028152], "max_proj": [391133.2078330374, 6089792.4748443505], "height_m": 3.0}, {"min_proj": [391210.2187824298, 6089786.331399542], "max_proj": [391221.1819528696, 6089797.605686135], "height_m": 3.0}, {"min_proj": [391162.04887137614, 6089784.783533917], "max_proj": [391176.37794365117, 6089800.9829763835], "height_m": 3.0}, {"min_proj": [391077.478722309, 6089789.256946326], "max_proj": [391095.61274319806, 6089804.741112025], "height_m": 3.0}, {"min_proj": [391124.98806537513, 6089792.176817659], "max_proj": [391139.33041718754, 6089804.457163183], "height_m": 3.0}, {"min_proj": [391167.0671245791, 6089796.406412741], "max_proj": [391174.92930360604, 6089804.039747802], "height_m": 3.0}, {"min_proj": [391138.25746150134, 6089796.107297927], "max_proj": [391149.48925283103, 6089807.248200388], "height_m": 3.0}, {"min_proj": [391080.0946967952, 6089805.086712848], "max_proj": [391090.44306627533, 6089815.388273067], "height_m": 3.0}, {"min_proj": [391177.0757018161, 6089803.907218246], "max_proj": [391190.367603756, 6089817.643002369], "height_m": 3.0}, {"min_proj": [391138.01016370207, 6089805.848473253], "max_proj": [391154.67153457506, 6089820.048010405], "height_m": 3.0}, {"min_proj": [391092.1011100967, 6089808.874621008], "max_proj": [391107.0942872884, 6089823.650983239], "height_m": 3.0}, {"min_proj": [391180.90620567533, 6089811.737508238], "max_proj": [391193.869970281, 6089824.31671045], "height_m": 3.0}, {"min_proj": [391097.7229403418, 6089820.117226578], "max_proj": [391105.7848640387, 6089827.934075279], "height_m": 3.0}, {"min_proj": [391638.52937501593, 6089433.009071511], "max_proj": [391661.1914625169, 6089451.129745877], "height_m": 3.0}, {"min_proj": [391642.9490631118, 6089480.385383206], "max_proj": [391659.07679452794, 6089500.775467974], "height_m": 3.0}, {"min_proj": [391640.66177611495, 6089529.841533357], "max_proj": [391654.8943484433, 6089544.073089825], "height_m": 3.0}, {"min_proj": [391639.5921913285, 6089576.725160756], "max_proj": [391652.4717158552, 6089589.496712621], "height_m": 3.0}, {"min_proj": [391355.8858387178, 6089568.273175203], "max_proj": [391380.3453972389, 6089587.032516398], "height_m": 3.0}, {"min_proj": [391374.8136823101, 6089579.525227362], "max_proj": [391381.1409927304, 6089587.815751765], "height_m": 3.0}, {"min_proj": [391328.97567701613, 6089581.580093927], "max_proj": [391349.70740722696, 6089599.03326325], "height_m": 3.0}, {"min_proj": [391354.01090332767, 6089588.566057495], "max_proj": [391360.43774755916, 6089596.167950952], "height_m": 3.0}, {"min_proj": [391298.8694868457, 6089595.038876801], "max_proj": [391322.2136739101, 6089613.767460398], "height_m": 3.0}, {"min_proj": [391357.17871972, 6089613.24467389], "max_proj": [391372.3606710819, 6089627.959576158], "height_m": 3.0}, {"min_proj": [391323.92535698216, 6089626.84060433], "max_proj": [391336.53192039096, 6089639.491021528], "height_m": 3.0}, {"min_proj": [391387.1338135629, 6089629.347510843], "max_proj": [391399.8776450805, 6089641.89885765], "height_m": 3.0}, {"min_proj": [391392.7054772093, 6089636.861120994], "max_proj": [391403.54806585814, 6089647.364979369], "height_m": 3.0}, {"min_proj": [391340.02937330387, 6089642.940267588], "max_proj": [391354.59989535226, 6089657.207864172], "height_m": 3.0}, {"min_proj": [391512.5765158898, 6089608.854735571], "max_proj": [391528.52584802464, 6089624.655409541], "height_m": 3.0}, {"min_proj": [391469.8966738273, 6089613.131050459], "max_proj": [391484.80485510395, 6089627.981464408], "height_m": 3.0}, {"min_proj": [391419.0633563469, 6089623.3250512825], "max_proj": [391431.76278953155, 6089635.788345378], "height_m": 3.0}, {"min_proj": [391469.44919636316, 6089628.784527835], "max_proj": [391477.44854316855, 6089636.774687337], "height_m": 3.0}, {"min_proj": [391424.46327228367, 6089632.781981929], "max_proj": [391431.3753794708, 6089639.602593314], "height_m": 3.0}, {"min_proj": [391482.0935811987, 6089631.561659799], "max_proj": [391500.2001559515, 6089650.955361674], "height_m": 3.0}, {"min_proj": [391429.9139578325, 6089634.4050591765], "max_proj": [391443.8084695694, 6089648.155788498], "height_m": 3.0}, {"min_proj": [391400.9030719702, 6089645.41147197], "max_proj": [391414.3724617502, 6089658.670585222], "height_m": 3.0}, {"min_proj": [391442.8287368066, 6089646.0106586795], "max_proj": [391455.1524234066, 6089659.938231143], "height_m": 3.0}, {"min_proj": [391504.6949497735, 6089649.464599685], "max_proj": [391518.8609732145, 6089663.545632739], "height_m": 3.0}, {"min_proj": [391574.02128612035, 6089613.462260035], "max_proj": [391590.1976758804, 6089629.381901863], "height_m": 3.0}, {"min_proj": [391625.8390295232, 6089618.316537169], "max_proj": [391639.62292466033, 6089634.737009636], "height_m": 3.0}, {"min_proj": [391583.47788001853, 6089621.341452299], "max_proj": [391597.8985897346, 6089635.582599714], "height_m": 3.0}, {"min_proj": [391527.80847274535, 6089623.584040811], "max_proj": [391545.1988380102, 6089640.715419839], "height_m": 3.0}, {"min_proj": [391534.6767262938, 6089631.777891339], "max_proj": [391550.15040458203, 6089647.164302146], "height_m": 3.0}, {"min_proj": [391592.84039142635, 6089634.533891983], "max_proj": [391607.68671149714, 6089649.191033919], "height_m": 3.0}, {"min_proj": [391540.64273715863, 6089638.611062343], "max_proj": [391559.1863690848, 6089656.95674854], "height_m": 3.0}, {"min_proj": [391552.0043860672, 6089648.771629582], "max_proj": [391573.388172655, 6089665.645390492], "height_m": 3.0}, {"min_proj": [391604.50709734333, 6089650.109680304], "max_proj": [391622.86888717057, 6089668.155991709], "height_m": 3.0}, {"min_proj": [391618.9658492354, 6089660.176809302], "max_proj": [391632.4643830254, 6089673.538418], "height_m": 3.0}, {"min_proj": [391290.11252699036, 6089642.958450383], "max_proj": [391308.2624297957, 6089658.672236729], "height_m": 3.0}, {"min_proj": [391264.943669043, 6089649.008596521], "max_proj": [391278.64266077103, 6089666.301959038], "height_m": 3.0}, {"min_proj": [391349.56701435556, 6089652.378438092], "max_proj": [391362.527873286, 6089665.013900114], "height_m": 3.0}, {"min_proj": [391361.7988911636, 6089656.882833371], "max_proj": [391374.71562513005, 6089670.115021002], "height_m": 3.0}, {"min_proj": [391304.6799557124, 6089658.441704715], "max_proj": [391317.48670874094, 6089670.905248774], "height_m": 3.0}, {"min_proj": [391248.36230810574, 6089664.361255848], "max_proj": [391267.21786281595, 6089676.592459641], "height_m": 3.0}, {"min_proj": [391362.7716926852, 6089670.176445614], "max_proj": [391374.02118396666, 6089681.5291970605], "height_m": 3.0}, {"min_proj": [391324.83979452885, 6089672.0373552935], "max_proj": [391335.72083223774, 6089682.874321522], "height_m": 3.0}, {"min_proj": [391307.1683698164, 6089671.580771017], "max_proj": [391321.96782374993, 6089686.174926615], "height_m": 3.0}, {"min_proj": [391259.6964361279, 6089674.315902513], "max_proj": [391272.448062503, 6089686.871986842], "height_m": 3.0}, {"min_proj": [391409.2729693392, 6089654.537541488], "max_proj": [391421.93502105627, 6089667.004366439], "height_m": 3.0}, {"min_proj": [391451.4751669752, 6089657.425360293], "max_proj": [391463.6123950726, 6089669.410126195], "height_m": 3.0}, {"min_proj": [391460.43951370154, 6089665.537710766], "max_proj": [391472.9435095212, 6089679.276220622], "height_m": 3.0}, {"min_proj": [391422.03782071325, 6089669.572381954], "max_proj": [391437.81324145396, 6089685.119011182], "height_m": 3.0}, {"min_proj": [391468.61733358935, 6089673.670212317], "max_proj": [391485.91527493636, 6089691.497503461], "height_m": 3.0}, {"min_proj": [391437.94553614396, 6089682.7870796565], "max_proj": [391452.93553454155, 6089697.759847857], "height_m": 3.0}, {"min_proj": [391496.203306095, 6089685.381155594], "max_proj": [391506.608967167, 6089695.750949005], "height_m": 3.0}, {"min_proj": [391488.6959204864, 6089691.785953293], "max_proj": [391500.6484840718, 6089703.521194675], "height_m": 3.0}, {"min_proj": [391506.69819488656, 6089694.156835697], "max_proj": [391522.690188435, 6089708.10019005], "height_m": 3.0}, {"min_proj": [391500.11825427465, 6089706.520044021], "max_proj": [391514.23774142907, 6089720.47736934], "height_m": 3.0}, {"min_proj": [391559.9083333502, 6089669.352727128], "max_proj": [391567.67538861424, 6089677.009710492], "height_m": 3.0}, {"min_proj": [391566.93531511805, 6089667.508669728], "max_proj": [391579.7925357318, 6089680.2052881885], "height_m": 3.0}, {"min_proj": [391520.2954774922, 6089669.328839669], "max_proj": [391536.17219965276, 6089684.821609605], "height_m": 3.0}, {"min_proj": [391609.8077890136, 6089669.67749792], "max_proj": [391625.22375468456, 6089685.029795195], "height_m": 3.0}, {"min_proj": [391629.38306930347, 6089672.645057221], "max_proj": [391645.25889515167, 6089690.015321192], "height_m": 3.0}, {"min_proj": [391533.2224262057, 6089679.825952657], "max_proj": [391545.393290467, 6089691.767789332], "height_m": 3.0}, {"min_proj": [391580.3342767833, 6089680.974001344], "max_proj": [391592.9195987571, 6089693.495955921], "height_m": 3.0}, {"min_proj": [391586.58878929884, 6089689.642970129], "max_proj": [391598.78715703293, 6089701.644381585], "height_m": 3.0}, {"min_proj": [391592.90125504957, 6089695.082687824], "max_proj": [391606.941243042, 6089708.9914857205], "height_m": 3.0}, {"min_proj": [391549.30731336086, 6089697.752931072], "max_proj": [391562.50143658486, 6089710.732865754], "height_m": 3.0}, {"min_proj": [391236.1921880758, 6089683.295628842], "max_proj": [391242.508453881, 6089689.508709989], "height_m": 3.0}, {"min_proj": [391379.6090153942, 6089680.075755638], "max_proj": [391396.37691553816, 6089699.182570738], "height_m": 3.0}, {"min_proj": [391265.41513710556, 6089685.815051174], "max_proj": [391273.22533214133, 6089693.495123791], "height_m": 3.0}, {"min_proj": [391323.1230764369, 6089682.946479132], "max_proj": [391341.15500326914, 6089700.274684953], "height_m": 3.0}, {"min_proj": [391268.63331462233, 6089686.932785683], "max_proj": [391278.5996754244, 6089696.532661465], "height_m": 3.0}, {"min_proj": [391388.88243089506, 6089690.571251775], "max_proj": [391404.1141732264, 6089702.078007209], "height_m": 3.0}, {"min_proj": [391240.4587321044, 6089693.964828138], "max_proj": [391252.8696758172, 6089706.149319006], "height_m": 3.0}, {"min_proj": [391274.29654860543, 6089692.911237292], "max_proj": [391295.35509977775, 6089710.295860899], "height_m": 3.0}, {"min_proj": [391342.48205216695, 6089695.661186348], "max_proj": [391356.64037291775, 6089713.463216827], "height_m": 3.0}, {"min_proj": [391232.6909449489, 6089699.136674002], "max_proj": [391244.3726209592, 6089713.175871919], "height_m": 3.0}, {"min_proj": [391391.34918949637, 6089701.016774163], "max_proj": [391403.9586138817, 6089713.718122547], "height_m": 3.0}, {"min_proj": [391244.95845576224, 6089702.1727416], "max_proj": [391261.5548630707, 6089724.855360264], "height_m": 3.0}, {"min_proj": [391259.2107998673, 6089708.686359636], "max_proj": [391269.9217181594, 6089719.337145909], "height_m": 3.0}, {"min_proj": [391295.34380106593, 6089704.686529314], "max_proj": [391315.0576759313, 6089724.366968232], "height_m": 3.0}, {"min_proj": [391363.43846536346, 6089711.26454937], "max_proj": [391374.9230857271, 6089724.18882676], "height_m": 3.0}, {"min_proj": [391348.804509528, 6089707.5266695], "max_proj": [391364.4546520048, 6089731.936068858], "height_m": 3.0}, {"min_proj": [391306.53403482545, 6089718.72315367], "max_proj": [391313.12351866334, 6089725.195219216], "height_m": 3.0}, {"min_proj": [391256.64530377206, 6089715.137917022], "max_proj": [391275.56751174014, 6089733.417452525], "height_m": 3.0}, {"min_proj": [391304.8842474691, 6089721.654369883], "max_proj": [391322.4529846442, 6089734.747290391], "height_m": 3.0}, {"min_proj": [391360.03945948195, 6089723.568410402], "max_proj": [391376.03939752566, 6089737.9921107], "height_m": 3.0}, {"min_proj": [391196.73891953356, 6089701.713587734], "max_proj": [391203.66871788865, 6089709.866285026], "height_m": 3.0}, {"min_proj": [391181.7125090369, 6089700.630518584], "max_proj": [391201.9223203067, 6089717.313408095], "height_m": 3.0}, {"min_proj": [391144.49350998265, 6089707.420243925], "max_proj": [391149.7227479316, 6089712.912499796], "height_m": 3.0}, {"min_proj": [391134.0239468151, 6089712.552960331], "max_proj": [391143.58748000214, 6089724.158463923], "height_m": 3.0}, {"min_proj": [391146.66101714363, 6089711.464836037], "max_proj": [391165.1403532387, 6089727.77670727], "height_m": 3.0}, {"min_proj": [391203.26903347677, 6089722.108352469], "max_proj": [391213.76481868746, 6089731.783625755], "height_m": 3.0}, {"min_proj": [391127.88164161245, 6089720.703558671], "max_proj": [391146.1591701452, 6089738.536901135], "height_m": 3.0}, {"min_proj": [391114.01198651426, 6089725.898227032], "max_proj": [391126.9183697931, 6089740.74934755], "height_m": 3.0}, {"min_proj": [391161.31088322436, 6089726.390545649], "max_proj": [391178.2886169327, 6089742.870500992], "height_m": 3.0}, {"min_proj": [391212.25068410084, 6089725.861551323], "max_proj": [391227.3609528005, 6089743.742803926], "height_m": 3.0}, {"min_proj": [391398.6553565103, 6089709.702757967], "max_proj": [391411.5578030623, 6089722.438744048], "height_m": 3.0}, {"min_proj": [391467.7704692477, 6089711.27044748], "max_proj": [391479.0970786433, 6089722.459667659], "height_m": 3.0}, {"min_proj": [391518.095784604, 6089710.784430307], "max_proj": [391531.6021823853, 6089724.3195563145], "height_m": 3.0}, {"min_proj": [391475.97786194144, 6089716.787031248], "max_proj": [391482.442360186, 6089723.187122355], "height_m": 3.0}, {"min_proj": [391506.74846639135, 6089716.758873801], "max_proj": [391514.7589569957, 6089724.493535169], "height_m": 3.0}, {"min_proj": [391406.2828567194, 6089715.733025935], "max_proj": [391422.3343837971, 6089731.670962373], "height_m": 3.0}, {"min_proj": [391511.9126732156, 6089721.6265851185], "max_proj": [391522.92218498787, 6089732.48432676], "height_m": 3.0}, {"min_proj": [391465.6671228214, 6089722.488815905], "max_proj": [391480.2814735856, 6089736.801889603], "height_m": 3.0}, {"min_proj": [391478.19529697654, 6089727.942325941], "max_proj": [391486.02868448134, 6089735.748613674], "height_m": 3.0}, {"min_proj": [391414.60301809816, 6089729.887680214], "max_proj": [391435.7468752166, 6089744.727022059], "height_m": 3.0}, {"min_proj": [391646.030414122, 6089584.031096865], "max_proj": [391660.08923140005, 6089597.871056764], "height_m": 3.0}, {"min_proj": [391633.7924488583, 6089631.867154537], "max_proj": [391646.0275328467, 6089643.995562483], "height_m": 3.0}, {"min_proj": [391643.00255717925, 6089683.402410851], "max_proj": [391657.66475093644, 6089700.104193878], "height_m": 3.0}, {"min_proj": [391645.75941694883, 6089725.393505458], "max_proj": [391655.888526025, 6089735.511663769], "height_m": 3.0}, {"min_proj": [390173.6984628234, 6088448.377191714], "max_proj": [390182.6489275668, 6088470.072096666], "height_m": 3.0}, {"min_proj": [390142.0420681065, 6088451.458310207], "max_proj": [390162.4666963754, 6088485.216956073], "height_m": 3.0}, {"min_proj": [390542.8708359028, 6088440.369270968], "max_proj": [390550.45764254825, 6088445.961882887], "height_m": 3.0}, {"min_proj": [390553.57580021396, 6088438.596880399], "max_proj": [390566.30627825303, 6088455.635949876], "height_m": 3.0}, {"min_proj": [390497.4377916776, 6088449.495015168], "max_proj": [390524.58002936316, 6088483.653429579], "height_m": 3.0}, {"min_proj": [390540.22985676123, 6088484.235442415], "max_proj": [390552.6832840927, 6088495.386947835], "height_m": 3.0}, {"min_proj": [390564.83602570766, 6088490.4552987255], "max_proj": [390575.0814346567, 6088502.369961206], "height_m": 3.0}, {"min_proj": [390499.9682541002, 6088506.631667467], "max_proj": [390592.1366269944, 6088541.7888471], "height_m": 3.0}, {"min_proj": [390234.7159115934, 6088529.913368187], "max_proj": [390386.5405880007, 6088545.320879893], "height_m": 3.0}, {"min_proj": [390314.50770817907, 6088542.8748350255], "max_proj": [390390.17967990343, 6088583.8683926035], "height_m": 3.0}, {"min_proj": [390530.47832211957, 6088567.568607325], "max_proj": [390550.69752849336, 6088638.18990587], "height_m": 15.0}, {"min_proj": [390364.61440059944, 6088592.543669944], "max_proj": [390374.4598604983, 6088622.106878534], "height_m": 3.0}, {"min_proj": [390130.0342136787, 6088556.147499034], "max_proj": [390162.911652721, 6088579.836461008], "height_m": 3.0}, {"min_proj": [390196.97196802904, 6088571.40565783], "max_proj": [390241.22973703785, 6088584.967650591], "height_m": 3.0}, {"min_proj": [390258.16804154485, 6088554.708644099], "max_proj": [390269.8279293308, 6088652.558541479], "height_m": 3.0}, {"min_proj": [390196.7679995543, 6088599.891682951], "max_proj": [390222.5630039907, 6088619.653925225], "height_m": 3.0}, {"min_proj": [390273.58442322735, 6088552.131854516], "max_proj": [390294.0354384204, 6088677.188227071], "height_m": 3.0}, {"min_proj": [390414.0010054508, 6088599.161901399], "max_proj": [390426.67730363394, 6088619.583476397], "height_m": 3.0}, {"min_proj": [390296.4883533323, 6088553.664308423], "max_proj": [390316.4750371023, 6088671.295630914], "height_m": 3.0}, {"min_proj": [390317.9288073014, 6088564.781925179], "max_proj": [390337.25318763574, 6088663.030625429], "height_m": 3.0}, {"min_proj": [390340.4144566827, 6088571.721104551], "max_proj": [390360.27366218145, 6088668.655516459], "height_m": 3.0}, {"min_proj": [390532.9176278801, 6088637.301534941], "max_proj": [390548.6288264429, 6088660.849571162], "height_m": 3.0}, {"min_proj": [390572.50737621036, 6088705.109153744], "max_proj": [390585.1398595057, 6088715.826372632], "height_m": 6.0}, {"min_proj": [390428.10187660257, 6088707.705758093], "max_proj": [390435.0500823122, 6088717.716262514], "height_m": 3.0}, {"min_proj": [390407.166518411, 6088708.869505197], "max_proj": [390416.4181420414, 6088718.009331479], "height_m": 3.0}, {"min_proj": [390385.49641185, 6088708.506788482], "max_proj": [390393.47141122347, 6088722.53542105], "height_m": 3.0}, {"min_proj": [390365.83990950027, 6088709.106701287], "max_proj": [390373.7755371712, 6088724.556233276], "height_m": 3.0}, {"min_proj": [390130.924030102, 6088605.070937873], "max_proj": [390162.10851172556, 6088673.743757319], "height_m": 3.0}, {"min_proj": [390218.1182316494, 6088627.080790208], "max_proj": [390258.605596714, 6088701.04167307], "height_m": 3.0}, {"min_proj": [390271.00131136307, 6088706.232790912], "max_proj": [390339.52450828336, 6088742.581090007], "height_m": 6.0}, {"min_proj": [390458.6518500467, 6088720.2282257695], "max_proj": [390468.8225502759, 6088732.288999454], "height_m": 3.0}, {"min_proj": [390567.27020413574, 6088722.73319415], "max_proj": [390581.32319586514, 6088733.034932145], "height_m": 3.0}, {"min_proj": [390386.8399947641, 6088739.835557359], "max_proj": [390397.10287914576, 6088749.709904361], "height_m": 3.0}, {"min_proj": [390408.11192001065, 6088745.293328711], "max_proj": [390415.7852596747, 6088753.384050295], "height_m": 3.0}, {"min_proj": [390558.4301461754, 6088744.499181955], "max_proj": [390571.956550697, 6088758.470910322], "height_m": 3.0}, {"min_proj": [390432.7464014855, 6088747.762923613], "max_proj": [390444.3839913589, 6088756.259938233], "height_m": 3.0}, {"min_proj": [390398.7121018353, 6088751.472207349], "max_proj": [390406.6125172096, 6088757.611954726], "height_m": 3.0}, {"min_proj": [390373.04730698577, 6088751.371685647], "max_proj": [390381.5204696742, 6088758.218366533], "height_m": 6.0}, {"min_proj": [390468.1493503439, 6088762.52096599], "max_proj": [390476.3886116697, 6088769.735289002], "height_m": 3.0}, {"min_proj": [390164.3556832118, 6088716.835345039], "max_proj": [390174.00733076653, 6088725.534188601], "height_m": 3.0}, {"min_proj": [390269.060690762, 6088727.334507559], "max_proj": [390278.2955362445, 6088741.134245203], "height_m": 3.0}, {"min_proj": [390204.2178059857, 6088712.179947536], "max_proj": [390234.9814325798, 6088768.49947804], "height_m": 3.0}, {"min_proj": [390280.8406346784, 6088744.995347673], "max_proj": [390302.66555429326, 6088758.937277657], "height_m": 6.0}, {"min_proj": [390264.13443215645, 6088744.914801315], "max_proj": [390296.011944949, 6088804.370615242], "height_m": 6.0}, {"min_proj": [390479.93419920345, 6088761.702694114], "max_proj": [390487.0172853481, 6088774.102920083], "height_m": 3.0}, {"min_proj": [390301.9619464163, 6088740.5533936685], "max_proj": [390353.5987017392, 6088802.323993368], "height_m": 6.0}, {"min_proj": [390453.5588285681, 6088768.538138232], "max_proj": [390461.6316135881, 6088776.513925675], "height_m": 3.0}, {"min_proj": [390469.93336585176, 6088771.468649992], "max_proj": [390475.2423254376, 6088779.809004468], "height_m": 3.0}, {"min_proj": [390550.35605802387, 6088773.505546255], "max_proj": [390560.76994289324, 6088785.498105838], "height_m": 3.0}, {"min_proj": [390417.8443513651, 6088780.339826852], "max_proj": [390427.71846786456, 6088786.229717056], "height_m": 3.0}, {"min_proj": [390571.0936290723, 6088777.5887418045], "max_proj": [390582.68096934987, 6088792.519628148], "height_m": 3.0}, {"min_proj": [390471.8933025183, 6088792.017580569], "max_proj": [390479.1837001487, 6088803.769171511], "height_m": 3.0}, {"min_proj": [390451.597423187, 6088793.488400691], "max_proj": [390459.5387919841, 6088804.966265244], "height_m": 3.0}, {"min_proj": [390432.70077846956, 6088794.772382186], "max_proj": [390439.99200531, 6088806.108453478], "height_m": 3.0}, {"min_proj": [390175.7229997409, 6088777.625457042], "max_proj": [390179.9002144553, 6088781.103663478], "height_m": 3.0}, {"min_proj": [390188.80812494346, 6088777.928264307], "max_proj": [390193.43119196227, 6088781.084286946], "height_m": 3.0}, {"min_proj": [390207.8996710684, 6088789.239939938], "max_proj": [390229.04158268566, 6088795.819867477], "height_m": 3.0}, {"min_proj": [390228.70719217486, 6088788.7889520265], "max_proj": [390236.9444449338, 6088808.025309514], "height_m": 3.0}, {"min_proj": [390131.18424295686, 6088780.082594701], "max_proj": [390164.3074990384, 6088829.794166732], "height_m": 3.0}, {"min_proj": [390265.64292831236, 6088803.514799437], "max_proj": [390287.2792130204, 6088843.676595379], "height_m": 6.0}, {"min_proj": [390198.80940398714, 6088813.058804767], "max_proj": [390219.93869176815, 6088849.985671809], "height_m": 3.0}, {"min_proj": [390415.0240297893, 6088827.825386076], "max_proj": [390422.25430845754, 6088837.260027326], "height_m": 3.0}, {"min_proj": [390531.85510851466, 6088826.671018481], "max_proj": [390542.96146636305, 6088839.113541262], "height_m": 3.0}, {"min_proj": [390439.54459625744, 6088832.959763166], "max_proj": [390450.60749941296, 6088843.001485837], "height_m": 3.0}, {"min_proj": [390315.59131951036, 6088827.354131099], "max_proj": [390348.1266988455, 6088849.033048482], "height_m": 3.0}, {"min_proj": [390553.2956901505, 6088834.589605274], "max_proj": [390564.0428954515, 6088845.787281701], "height_m": 3.0}, {"min_proj": [390353.55917970795, 6088829.643864357], "max_proj": [390365.0956993783, 6088853.6488995645], "height_m": 3.0}, {"min_proj": [390573.45614611445, 6088839.425060504], "max_proj": [390584.59027822333, 6088852.404813948], "height_m": 3.0}, {"min_proj": [390484.1506709744, 6088851.311571349], "max_proj": [390494.6605648224, 6088858.542857727], "height_m": 3.0}, {"min_proj": [390468.20608477085, 6088850.280063715], "max_proj": [390475.1204144937, 6088859.639580808], "height_m": 3.0}, {"min_proj": [390435.45816695684, 6088851.740540306], "max_proj": [390443.27611462364, 6088861.939108608], "height_m": 3.0}, {"min_proj": [390414.6027191407, 6088852.483654889], "max_proj": [390423.6721604027, 6088863.342868475], "height_m": 3.0}, {"min_proj": [390394.60281388275, 6088853.565456198], "max_proj": [390402.66364397237, 6088864.499002317], "height_m": 3.0}, {"min_proj": [390374.76595670887, 6088856.252416194], "max_proj": [390388.13356901315, 6088867.48366921], "height_m": 3.0}, {"min_proj": [390335.7246436265, 6088859.285087355], "max_proj": [390351.937064859, 6088907.348367172], "height_m": 3.0}, {"min_proj": [390304.3570511543, 6088860.752588506], "max_proj": [390318.88014984666, 6088909.405308484], "height_m": 3.0}, {"min_proj": [390469.2083554189, 6088876.721028876], "max_proj": [390502.3848723866, 6088895.786100021], "height_m": 3.0}, {"min_proj": [390381.9731243106, 6088878.879679804], "max_proj": [390462.99232257286, 6088895.909510752], "height_m": 3.0}, {"min_proj": [390499.17815633677, 6088928.969515802], "max_proj": [390511.12556126027, 6088953.818142584], "height_m": 3.0}, {"min_proj": [390391.3435447706, 6088921.890879884], "max_proj": [390487.42781732546, 6088961.184124666], "height_m": 3.0}, {"min_proj": [390329.07908232824, 6088934.530183827], "max_proj": [390348.26396080677, 6088967.117781836], "height_m": 3.0}, {"min_proj": [390220.0897497831, 6088828.100167191], "max_proj": [390260.5229663009, 6088840.710693541], "height_m": 3.0}, {"min_proj": [390161.70527315984, 6088834.6678169025], "max_proj": [390182.1668870875, 6088854.068291964], "height_m": 3.0}, {"min_proj": [390174.7410430999, 6088849.126383136], "max_proj": [390256.00261587, 6088889.683857033], "height_m": 3.0}, {"min_proj": [390269.4721990936, 6088850.483086018], "max_proj": [390285.2121897075, 6088899.364844354], "height_m": 3.0}, {"min_proj": [390149.756749826, 6088901.926158133], "max_proj": [390182.4181655404, 6088913.497960229], "height_m": 3.0}, {"min_proj": [390235.88449758384, 6088966.132262859], "max_proj": [390284.17252552474, 6088979.341854429], "height_m": 3.0}, {"min_proj": [390144.42372880655, 6088970.951462672], "max_proj": [390219.0884453124, 6088992.795114193], "height_m": 3.0}, {"min_proj": [390248.841065144, 6089005.802333852], "max_proj": [390299.42289669876, 6089030.158851654], "height_m": 3.0}, {"min_proj": [390230.9276381468, 6089014.026435982], "max_proj": [390238.45042443473, 6089028.251942408], "height_m": 3.0}, {"min_proj": [390163.8651856041, 6089034.012518593], "max_proj": [390189.87793658633, 6089050.3628353095], "height_m": 3.0}, {"min_proj": [390148.19360244833, 6089041.313790163], "max_proj": [390156.2480123886, 6089049.991763639], "height_m": 3.0}, {"min_proj": [390231.69251724996, 6089035.3183795195], "max_proj": [390274.9791535518, 6089057.513873754], "height_m": 3.0}, {"min_proj": [390286.0620591794, 6089046.327478664], "max_proj": [390300.96705475746, 6089054.256885227], "height_m": 3.0}, {"min_proj": [390151.54426576634, 6089076.720086762], "max_proj": [390162.8924967034, 6089087.928193575], "height_m": 3.0}, {"min_proj": [390352.4037218876, 6088931.33033641], "max_proj": [390365.00981259125, 6088974.057901732], "height_m": 3.0}, {"min_proj": [390299.6356690213, 6088965.2469094675], "max_proj": [390318.843662986, 6088977.751938923], "height_m": 3.0}, {"min_proj": [390414.3861760005, 6089008.057099724], "max_proj": [390422.21397701174, 6089016.643510518], "height_m": 3.0}, {"min_proj": [390458.216144618, 6089002.773508274], "max_proj": [390504.0193586187, 6089026.995492144], "height_m": 6.0}, {"min_proj": [390411.8233627785, 6089016.406879438], "max_proj": [390427.3546538749, 6089048.284562936], "height_m": 3.0}, {"min_proj": [390525.37397428416, 6089061.352258218], "max_proj": [390532.7854176935, 6089067.637908636], "height_m": 3.0}, {"min_proj": [390414.74125648127, 6089051.515773055], "max_proj": [390431.96804836934, 6089079.956848015], "height_m": 3.0}, {"min_proj": [390543.9003078239, 6089063.533408199], "max_proj": [390562.73610199813, 6089085.926375612], "height_m": 3.0}, {"min_proj": [390418.63850883907, 6089078.005681454], "max_proj": [390434.66573602526, 6089098.282208199], "height_m": 3.0}, {"min_proj": [390460.1595787888, 6089037.374550269], "max_proj": [390498.5792320505, 6089157.497478199], "height_m": 3.0}, {"min_proj": [390223.09366358316, 6089140.033903903], "max_proj": [390230.58320415387, 6089151.3124489635], "height_m": 3.0}, {"min_proj": [390285.7957080792, 6089145.4446683265], "max_proj": [390310.41160447133, 6089156.948740078], "height_m": 3.0}, {"min_proj": [390268.0903662646, 6089153.400059958], "max_proj": [390280.40436084254, 6089159.916957073], "height_m": 3.0}, {"min_proj": [390139.7480250871, 6089134.545663943], "max_proj": [390204.5982296279, 6089197.830409135], "height_m": 3.0}, {"min_proj": [390252.64117146883, 6089163.6811887715], "max_proj": [390258.35082358425, 6089170.848822249], "height_m": 3.0}, {"min_proj": [390175.22098238755, 6089163.4064139575], "max_proj": [390237.94904613064, 6089201.237122196], "height_m": 3.0}, {"min_proj": [390544.233507725, 6089123.466281496], "max_proj": [390556.9720742818, 6089136.71867597], "height_m": 3.0}, {"min_proj": [390509.7667612311, 6089115.122908789], "max_proj": [390533.6337970482, 6089164.931526113], "height_m": 3.0}, {"min_proj": [390309.6334347317, 6089141.152485942], "max_proj": [390345.62055688456, 6089151.172099062], "height_m": 3.0}, {"min_proj": [390454.592405985, 6089174.82991216], "max_proj": [390498.95459112467, 6089192.751596792], "height_m": 3.0}, {"min_proj": [390360.6678001554, 6089131.523469973], "max_proj": [390396.8917844915, 6089256.345133004], "height_m": 3.0}, {"min_proj": [390458.56437488715, 6089202.7121547535], "max_proj": [390501.59500666347, 6089220.135180036], "height_m": 3.0}, {"min_proj": [390522.75226525235, 6089223.839144188], "max_proj": [390536.8480177359, 6089231.906255323], "height_m": 3.0}, {"min_proj": [390462.7832571848, 6089234.617112384], "max_proj": [390469.15039765765, 6089240.233438646], "height_m": 3.0}, {"min_proj": [390473.69949619076, 6089231.270602937], "max_proj": [390519.65010749374, 6089246.198634309], "height_m": 3.0}, {"min_proj": [390284.73103641253, 6089230.3759635575], "max_proj": [390320.4585453556, 6089268.439294064], "height_m": 3.0}, {"min_proj": [390276.9007241379, 6089164.371703345], "max_proj": [390312.5651201954, 6089216.832784191], "height_m": 3.0}, {"min_proj": [390222.2947030929, 6089253.160722033], "max_proj": [390272.6656334073, 6089282.151629806], "height_m": 3.0}, {"min_proj": [390137.6123303296, 6089245.849414405], "max_proj": [390213.8128795552, 6089294.644267585], "height_m": 3.0}, {"min_proj": [390269.6557405766, 6089288.303678909], "max_proj": [390303.13655071676, 6089325.880270067], "height_m": 3.0}, {"min_proj": [390244.8254035418, 6089295.1306083575], "max_proj": [390259.8471908193, 6089325.8667139765], "height_m": 3.0}, {"min_proj": [390222.34525742487, 6089293.651340933], "max_proj": [390241.4529706292, 6089328.335611596], "height_m": 3.0}, {"min_proj": [390318.2743791796, 6089282.793817731], "max_proj": [390330.3702122291, 6089305.609391384], "height_m": 3.0}, {"min_proj": [390114.7160702347, 6089295.752035784], "max_proj": [390195.47505984566, 6089336.878633142], "height_m": 3.0}, {"min_proj": [389937.6098826509, 6089340.754428124], "max_proj": [390311.5668663954, 6089392.480098661], "height_m": 3.0}, {"min_proj": [391559.89408838435, 6089706.006805513], "max_proj": [391573.9231651573, 6089718.479364407], "height_m": 3.0}, {"min_proj": [391629.45598516066, 6089709.595372422], "max_proj": [391641.2289621996, 6089722.942907329], "height_m": 3.0}, {"min_proj": [391612.92480460077, 6089706.847550559], "max_proj": [391629.6188987037, 6089730.661275301], "height_m": 3.0}, {"min_proj": [391627.57441605185, 6089722.06858048], "max_proj": [391641.10295869503, 6089735.4811693635], "height_m": 3.0}, {"min_proj": [391569.4661268834, 6089723.9302622555], "max_proj": [391584.3009312581, 6089739.9143297775], "height_m": 3.0}, {"min_proj": [391523.7488773928, 6089733.466542848], "max_proj": [391535.1821112339, 6089744.720049139], "height_m": 3.0}, {"min_proj": [391583.1021181542, 6089731.950890596], "max_proj": [391603.20318357897, 6089752.36069849], "height_m": 3.0}, {"min_proj": [391531.9152441318, 6089743.9974849], "max_proj": [391539.1787542545, 6089751.094581592], "height_m": 3.0}, {"min_proj": [391535.63885154296, 6089745.280806225], "max_proj": [391548.87437826896, 6089758.270204796], "height_m": 3.0}, {"min_proj": [391556.317134152, 6089748.087207684], "max_proj": [391566.59025660314, 6089758.620849319], "height_m": 3.0}, {"min_proj": [391373.6010799093, 6089728.729846541], "max_proj": [391386.5332691396, 6089741.462946994], "height_m": 3.0}, {"min_proj": [391282.75577355304, 6089733.533795896], "max_proj": [391289.6579970701, 6089740.319576863], "height_m": 3.0}, {"min_proj": [391229.829295469, 6089733.019219804], "max_proj": [391238.7290148362, 6089741.839795556], "height_m": 3.0}, {"min_proj": [391261.7576121571, 6089732.465342942], "max_proj": [391275.7644601125, 6089746.576114167], "height_m": 3.0}, {"min_proj": [391316.93152143765, 6089732.210582131], "max_proj": [391333.19473165175, 6089747.974193092], "height_m": 3.0}, {"min_proj": [391279.13174588745, 6089740.365531444], "max_proj": [391296.4269225653, 6089755.3679207545], "height_m": 3.0}, {"min_proj": [391386.3228076531, 6089741.936876934], "max_proj": [391399.98621676664, 6089755.308911303], "height_m": 3.0}, {"min_proj": [391321.97790602973, 6089744.3862033], "max_proj": [391332.62454469805, 6089754.94957592], "height_m": 3.0}, {"min_proj": [391373.8914681365, 6089745.874852915], "max_proj": [391384.68696473254, 6089756.651679796], "height_m": 3.0}, {"min_proj": [391264.7689283447, 6089748.858586541], "max_proj": [391272.77213736204, 6089756.85616408], "height_m": 3.0}, {"min_proj": [391483.55580782506, 6089737.572538596], "max_proj": [391499.4951683807, 6089753.30501458], "height_m": 3.0}, {"min_proj": [391436.01343271916, 6089748.860101167], "max_proj": [391448.57512724143, 6089761.122736387], "height_m": 3.0}, {"min_proj": [391514.3610548049, 6089754.662931416], "max_proj": [391520.86100502446, 6089761.002218947], "height_m": 3.0}, {"min_proj": [391497.88513662794, 6089750.761405667], "max_proj": [391515.8240780724, 6089767.438741907], "height_m": 3.0}, {"min_proj": [391394.6874156541, 6089752.1604974605], "max_proj": [391414.7609737107, 6089772.211448247], "height_m": 3.0}, {"min_proj": [391442.8855601483, 6089757.446379071], "max_proj": [391455.9681872542, 6089770.515492211], "height_m": 3.0}, {"min_proj": [391450.17344895337, 6089763.770705626], "max_proj": [391462.51138951635, 6089775.879495999], "height_m": 3.0}, {"min_proj": [391509.256166714, 6089762.777022015], "max_proj": [391527.0889878442, 6089777.88867601], "height_m": 3.0}, {"min_proj": [391479.7947850595, 6089771.118621998], "max_proj": [391487.8440995603, 6089779.357822383], "height_m": 3.0}, {"min_proj": [391454.2427991173, 6089772.257419897], "max_proj": [391463.0601803953, 6089780.784872944], "height_m": 3.0}, {"min_proj": [391235.1569682275, 6089743.724973291], "max_proj": [391256.7195856971, 6089764.266892963], "height_m": 3.0}, {"min_proj": [391330.86402399803, 6089749.817464622], "max_proj": [391342.95101885544, 6089761.643582275], "height_m": 3.0}, {"min_proj": [391305.8192977072, 6089755.066879021], "max_proj": [391311.7840672219, 6089760.86310334], "height_m": 3.0}, {"min_proj": [391289.0531692847, 6089751.183282134], "max_proj": [391307.7837837609, 6089765.327537625], "height_m": 3.0}, {"min_proj": [391307.78794705606, 6089757.47186178], "max_proj": [391314.03365307394, 6089763.521247047], "height_m": 3.0}, {"min_proj": [391339.2389368322, 6089756.474955004], "max_proj": [391355.4288666725, 6089772.381926241], "height_m": 3.0}, {"min_proj": [391242.42543328885, 6089760.987920507], "max_proj": [391257.6751813257, 6089776.139015882], "height_m": 3.0}, {"min_proj": [391303.6711287799, 6089762.2008667905], "max_proj": [391319.3378512075, 6089776.448887318], "height_m": 3.0}, {"min_proj": [391360.52188958233, 6089765.660024762], "max_proj": [391369.32850188843, 6089774.512085213], "height_m": 3.0}, {"min_proj": [391313.951020418, 6089769.417477695], "max_proj": [391326.08164916694, 6089781.34813692], "height_m": 3.0}, {"min_proj": [391541.3430036756, 6089748.93007056], "max_proj": [391553.6559388791, 6089762.559366789], "height_m": 3.0}, {"min_proj": [391580.85511001776, 6089753.9956265185], "max_proj": [391591.3473115605, 6089764.333660953], "height_m": 3.0}, {"min_proj": [391562.26617933967, 6089757.636982694], "max_proj": [391574.28787679895, 6089769.837161515], "height_m": 3.0}, {"min_proj": [391590.7322655796, 6089758.440086271], "max_proj": [391603.3369039126, 6089771.027038065], "height_m": 3.0}, {"min_proj": [391546.26643053023, 6089759.917837767], "max_proj": [391561.4163560881, 6089775.50215374], "height_m": 3.0}, {"min_proj": [391600.4679975547, 6089767.944333394], "max_proj": [391607.46473737934, 6089774.836298902], "height_m": 3.0}, {"min_proj": [391593.31813279114, 6089770.663182356], "max_proj": [391601.71559892426, 6089779.342782374], "height_m": 3.0}, {"min_proj": [391558.0595522712, 6089772.069570172], "max_proj": [391566.9520871232, 6089780.821350972], "height_m": 3.0}, {"min_proj": [391530.6186334948, 6089774.872547691], "max_proj": [391537.9278487599, 6089782.067577387], "height_m": 3.0}, {"min_proj": [391620.6703221239, 6089772.895052809], "max_proj": [391635.3589087283, 6089787.336363679], "height_m": 3.0}, {"min_proj": [391352.64481304097, 6089773.654589051], "max_proj": [391364.9200568863, 6089785.807644359], "height_m": 3.0}, {"min_proj": [391262.1237108677, 6089773.185542795], "max_proj": [391275.62607265497, 6089786.573635835], "height_m": 3.0}, {"min_proj": [391318.8574341608, 6089776.229878327], "max_proj": [391332.18754950236, 6089788.908353222], "height_m": 3.0}, {"min_proj": [391280.6536685748, 6089781.147504102], "max_proj": [391298.28096136707, 6089793.9676724225], "height_m": 3.0}, {"min_proj": [391223.60655676917, 6089788.035650165], "max_proj": [391235.87420877605, 6089800.00686756], "height_m": 3.0}, {"min_proj": [391272.8574526033, 6089790.714302835], "max_proj": [391283.9542928708, 6089804.872462382], "height_m": 3.0}, {"min_proj": [391331.32845375634, 6089793.109930852], "max_proj": [391348.5618706795, 6089805.458037859], "height_m": 3.0}, {"min_proj": [391232.8177055089, 6089795.617920809], "max_proj": [391242.75886018144, 6089805.237384259], "height_m": 3.0}, {"min_proj": [391287.88496037095, 6089802.130719855], "max_proj": [391296.82230535836, 6089811.039455536], "height_m": 3.0}, {"min_proj": [391277.0675207318, 6089801.685128485], "max_proj": [391287.12961169105, 6089811.9157145675], "height_m": 3.0}, {"min_proj": [391412.12533451384, 6089768.826916609], "max_proj": [391428.9245287507, 6089785.717129805], "height_m": 3.0}, {"min_proj": [391400.5352933296, 6089776.656488337], "max_proj": [391410.2770790112, 6089786.290516687], "height_m": 3.0}, {"min_proj": [391463.20962265495, 6089776.430968319], "max_proj": [391477.0834447077, 6089790.460449156], "height_m": 3.0}, {"min_proj": [391474.20698687463, 6089783.457514889], "max_proj": [391487.8006041564, 6089796.745892254], "height_m": 3.0}, {"min_proj": [391426.2211319533, 6089785.114234153], "max_proj": [391442.395216902, 6089801.013419541], "height_m": 3.0}, {"min_proj": [391478.58438049327, 6089795.184742244], "max_proj": [391489.7734018591, 6089806.161709449], "height_m": 3.0}, {"min_proj": [391421.2526325168, 6089797.719350049], "max_proj": [391431.9002394583, 6089808.5433563525], "height_m": 3.0}, {"min_proj": [391438.0734107866, 6089796.814533945], "max_proj": [391456.82139574585, 6089815.628841082], "height_m": 3.0}, {"min_proj": [391394.73539893946, 6089809.916427007], "max_proj": [391403.8870344234, 6089819.1309971865], "height_m": 3.0}, {"min_proj": [391447.2130684563, 6089808.589600067], "max_proj": [391460.8685373632, 6089821.491415735], "height_m": 3.0}, {"min_proj": [391562.14485139964, 6089775.88928483], "max_proj": [391570.97785084235, 6089784.575856485], "height_m": 3.0}, {"min_proj": [391531.6483105751, 6089780.454385257], "max_proj": [391544.0661258698, 6089792.766510596], "height_m": 3.0}, {"min_proj": [391568.94692240795, 6089778.515665481], "max_proj": [391582.5128376767, 6089796.76317438], "height_m": 3.0}, {"min_proj": [391542.65998499736, 6089786.134299594], "max_proj": [391549.5359030977, 6089792.84399147], "height_m": 3.0}, {"min_proj": [391580.21493496164, 6089795.652298784], "max_proj": [391587.04477777117, 6089802.350352699], "height_m": 3.0}, {"min_proj": [391538.56718302675, 6089793.641557758], "max_proj": [391556.49259025895, 6089810.994861623], "height_m": 3.0}, {"min_proj": [391588.57043668826, 6089798.579890594], "max_proj": [391603.727083774, 6089818.045879681], "height_m": 3.0}, {"min_proj": [391621.31750752707, 6089810.707290198], "max_proj": [391633.6405519215, 6089824.773195542], "height_m": 3.0}, {"min_proj": [391558.1189851246, 6089811.545699247], "max_proj": [391573.03304210975, 6089826.149983827], "height_m": 3.0}, {"min_proj": [391599.2611533355, 6089813.790384493], "max_proj": [391614.122401485, 6089828.785126785], "height_m": 3.0}, {"min_proj": [391382.38468738267, 6089800.632848165], "max_proj": [391396.110607117, 6089816.53369436], "height_m": 3.0}, {"min_proj": [391234.3714856085, 6089801.825232085], "max_proj": [391250.8614344871, 6089816.825671409], "height_m": 3.0}, {"min_proj": [391287.4516669789, 6089808.22267872], "max_proj": [391300.9244395484, 6089821.457501123], "height_m": 3.0}, {"min_proj": [391345.0442769395, 6089807.657053756], "max_proj": [391361.84336831665, 6089822.463414089], "height_m": 3.0}, {"min_proj": [391251.7840182393, 6089812.302653825], "max_proj": [391258.5926663245, 6089818.980138759], "height_m": 3.0}, {"min_proj": [391307.86760785745, 6089813.0344969975], "max_proj": [391319.572178128, 6089824.69356024], "height_m": 3.0}, {"min_proj": [391252.50439362717, 6089818.334547116], "max_proj": [391267.67527399864, 6089833.194400474], "height_m": 3.0}, {"min_proj": [391356.8458749811, 6089817.017769817], "max_proj": [391372.2713874419, 6089834.665063392], "height_m": 3.0}, {"min_proj": [391295.13520834665, 6089822.549885911], "max_proj": [391303.7094508702, 6089831.0453027375], "height_m": 3.0}, {"min_proj": [391365.0109394076, 6089824.6446839245], "max_proj": [391376.5430922124, 6089835.632528141], "height_m": 3.0}, {"min_proj": [391492.8533960351, 6089808.27849743], "max_proj": [391508.86748954176, 6089824.556135105], "height_m": 3.0}, {"min_proj": [391451.83453179954, 6089813.901519159], "max_proj": [391472.341998924, 6089834.292377291], "height_m": 3.0}, {"min_proj": [391441.13364532473, 6089817.551565318], "max_proj": [391456.0811186036, 6089831.673630788], "height_m": 3.0}, {"min_proj": [391396.69242383464, 6089817.959581643], "max_proj": [391409.76081941754, 6089832.421318038], "height_m": 3.0}, {"min_proj": [391502.8422855927, 6089817.612325193], "max_proj": [391519.12721715024, 6089833.379541267], "height_m": 3.0}, {"min_proj": [391402.7948630556, 6089829.312682276], "max_proj": [391410.4747729229, 6089836.048064274], "height_m": 3.0}, {"min_proj": [391511.32577735157, 6089827.146958311], "max_proj": [391523.3396672945, 6089838.956195436], "height_m": 3.0}, {"min_proj": [391408.54914888897, 6089824.727616103], "max_proj": [391423.3408526757, 6089843.022280401], "height_m": 3.0}, {"min_proj": [391413.00375284103, 6089840.398116067], "max_proj": [391420.8408643162, 6089848.1687542945], "height_m": 3.0}, {"min_proj": [391517.864520985, 6089836.291956261], "max_proj": [391533.9341502992, 6089852.697199908], "height_m": 3.0}, {"min_proj": [391637.28311096015, 6089733.616786829], "max_proj": [391650.4342877602, 6089746.4504555715], "height_m": 3.0}, {"min_proj": [391636.10984522285, 6089747.4068397395], "max_proj": [391643.00138449215, 6089756.419703714], "height_m": 3.0}, {"min_proj": [391645.3102990748, 6089749.185818669], "max_proj": [391660.6350862679, 6089764.339711069], "height_m": 3.0}, {"min_proj": [391642.7837713821, 6089799.106827164], "max_proj": [391657.5208808409, 6089812.477684923], "height_m": 3.0}, {"min_proj": [391624.49160654854, 6089863.828538857], "max_proj": [391655.1240708685, 6089906.890985075], "height_m": 3.0}, {"min_proj": [390961.9578357671, 6089795.534766737], "max_proj": [390971.22855460463, 6089803.112918413], "height_m": 3.0}, {"min_proj": [391029.02140299475, 6089800.534627401], "max_proj": [391043.583754027, 6089814.861712346], "height_m": 3.0}, {"min_proj": [390975.8817776956, 6089803.294337841], "max_proj": [390986.97553417494, 6089814.0025371825], "height_m": 3.0}, {"min_proj": [390942.1019049787, 6089809.604762028], "max_proj": [390958.4674942177, 6089825.795241545], "height_m": 3.0}, {"min_proj": [390989.4393187549, 6089811.334687505], "max_proj": [391004.0627720794, 6089825.91258618], "height_m": 3.0}, {"min_proj": [391028.5030796483, 6089814.868295108], "max_proj": [391042.1100612372, 6089828.263504138], "height_m": 3.0}, {"min_proj": [391044.3275567324, 6089815.170196578], "max_proj": [391059.4115361539, 6089830.050691362], "height_m": 3.0}, {"min_proj": [390951.54538275144, 6089819.433189504], "max_proj": [390963.9823166433, 6089831.778576499], "height_m": 3.0}, {"min_proj": [391003.35365935334, 6089822.986709328], "max_proj": [391016.9380478906, 6089836.453413664], "height_m": 3.0}, {"min_proj": [390895.0117786718, 6089830.248330042], "max_proj": [390903.8266454465, 6089837.284912763], "height_m": 3.0}, {"min_proj": [391154.3054020107, 6089819.106991744], "max_proj": [391166.7573682879, 6089831.354725172], "height_m": 3.0}, {"min_proj": [391189.5920951634, 6089821.008641748], "max_proj": [391199.7351108464, 6089831.023836524], "height_m": 3.0}, {"min_proj": [391214.72896509035, 6089825.5504738195], "max_proj": [391223.2501306556, 6089834.307590505], "height_m": 3.0}, {"min_proj": [391099.35605471703, 6089825.435830875], "max_proj": [391113.1618682416, 6089838.961860325], "height_m": 3.0}, {"min_proj": [391105.0713496147, 6089824.1599415], "max_proj": [391124.4346849092, 6089842.307481438], "height_m": 3.0}, {"min_proj": [391161.7134438839, 6089828.590078458], "max_proj": [391175.7337824736, 6089840.999255144], "height_m": 3.0}, {"min_proj": [391052.1047868907, 6089828.167200993], "max_proj": [391068.91615070374, 6089842.601810489], "height_m": 3.0}, {"min_proj": [391064.4794613383, 6089833.0932225995], "max_proj": [391073.881211209, 6089842.268803618], "height_m": 3.0}, {"min_proj": [391201.889682513, 6089831.358826158], "max_proj": [391219.8621289643, 6089846.32505693], "height_m": 3.0}, {"min_proj": [391110.07110383786, 6089835.554097563], "max_proj": [391123.8038165768, 6089849.031412684], "height_m": 3.0}, {"min_proj": [391129.832385117, 6089836.593348867], "max_proj": [391142.17338184034, 6089849.025291189], "height_m": 3.0}, {"min_proj": [391214.3677573786, 6089834.924026338], "max_proj": [391231.1325688124, 6089851.225200587], "height_m": 3.0}, {"min_proj": [391069.67807373917, 6089839.988740461], "max_proj": [391078.7153089857, 6089848.68893908], "height_m": 3.0}, {"min_proj": [391178.8228397411, 6089842.860764971], "max_proj": [391191.038012399, 6089855.221692579], "height_m": 3.0}, {"min_proj": [391117.9422403527, 6089843.202919575], "max_proj": [391132.99349284044, 6089858.045866326], "height_m": 3.0}, {"min_proj": [391164.979014869, 6089843.282923172], "max_proj": [391185.6392054555, 6089860.182693824], "height_m": 3.0}, {"min_proj": [391072.2742082319, 6089846.326718486], "max_proj": [391086.44177533017, 6089860.213010092], "height_m": 3.0}, {"min_proj": [391219.7623200321, 6089851.755072709], "max_proj": [391231.1758554032, 6089863.051315896], "height_m": 3.0}, {"min_proj": [391128.2015737834, 6089852.1711408235], "max_proj": [391144.6013432703, 6089870.714854663], "height_m": 3.0}, {"min_proj": [391082.7227872187, 6089855.195224345], "max_proj": [391097.62349239865, 6089869.376289397], "height_m": 3.0}, {"min_proj": [390899.59271403146, 6089833.524253783], "max_proj": [390911.15895793034, 6089844.795748201], "height_m": 3.0}, {"min_proj": [390918.1311034643, 6089842.85539663], "max_proj": [390925.9276983279, 6089850.529381295], "height_m": 3.0}, {"min_proj": [390964.1142712823, 6089839.3056248985], "max_proj": [390984.57751415187, 6089855.146352801], "height_m": 3.0}, {"min_proj": [391014.26322540955, 6089841.633957941], "max_proj": [391030.6336917344, 6089860.274654154], "height_m": 3.0}, {"min_proj": [390915.37101675564, 6089850.120542288], "max_proj": [390926.77504291607, 6089861.312388161], "height_m": 3.0}, {"min_proj": [390921.5955217192, 6089856.270637272], "max_proj": [390930.84162045, 6089865.131521174], "height_m": 3.0}, {"min_proj": [390981.72986636613, 6089857.71613671], "max_proj": [391001.5771763202, 6089876.811788064], "height_m": 3.0}, {"min_proj": [390852.0611193428, 6089858.524088102], "max_proj": [390868.3505289728, 6089876.512331513], "height_m": 3.0}, {"min_proj": [390927.1340682073, 6089860.43476633], "max_proj": [390942.00495804084, 6089874.944596674], "height_m": 3.0}, {"min_proj": [391039.0540979237, 6089863.477633311], "max_proj": [391053.1758672483, 6089877.742327524], "height_m": 3.0}, {"min_proj": [391139.522540867, 6089861.976195144], "max_proj": [391156.67552070954, 6089878.997370433], "height_m": 3.0}, {"min_proj": [391195.34223984514, 6089866.858804777], "max_proj": [391210.09276145545, 6089878.709829714], "height_m": 3.0}, {"min_proj": [391087.2289210203, 6089870.582034593], "max_proj": [391096.13252453855, 6089879.377519367], "height_m": 3.0}, {"min_proj": [391209.43868062005, 6089875.834032366], "max_proj": [391216.2937933678, 6089882.5227282075], "height_m": 3.0}, {"min_proj": [391098.9588769432, 6089873.169661695], "max_proj": [391112.9252408691, 6089887.00691381], "height_m": 3.0}, {"min_proj": [391144.67628815095, 6089877.311685874], "max_proj": [391158.5646009029, 6089888.485372037], "height_m": 3.0}, {"min_proj": [391105.8547788807, 6089881.441525275], "max_proj": [391116.9109903871, 6089891.930111997], "height_m": 3.0}, {"min_proj": [391047.84327278624, 6089878.240579959], "max_proj": [391061.94659522694, 6089895.142367659], "height_m": 3.0}, {"min_proj": [391205.8967340683, 6089880.064076049], "max_proj": [391221.1043165342, 6089894.638248617], "height_m": 3.0}, {"min_proj": [391155.20431585726, 6089879.240435206], "max_proj": [391171.877011442, 6089895.560776062], "height_m": 3.0}, {"min_proj": [390887.5098698402, 6089869.088214701], "max_proj": [390902.07811811846, 6089882.019807627], "height_m": 3.0}, {"min_proj": [390934.7665485004, 6089870.754217954], "max_proj": [390945.91962994344, 6089881.444012525], "height_m": 3.0}, {"min_proj": [391034.41709580144, 6089871.798498103], "max_proj": [391044.81751288264, 6089882.139046784], "height_m": 3.0}, {"min_proj": [390940.2936645951, 6089867.176583254], "max_proj": [390958.58575861127, 6089888.364319892], "height_m": 3.0}, {"min_proj": [391008.1000005863, 6089874.2560025165], "max_proj": [391015.9460631294, 6089882.147767817], "height_m": 3.0}, {"min_proj": [390834.06863179797, 6089871.648131323], "max_proj": [390847.09796552523, 6089885.262404445], "height_m": 3.0}, {"min_proj": [390879.6492396877, 6089874.414076369], "max_proj": [390892.1159171565, 6089887.248513342], "height_m": 3.0}, {"min_proj": [391012.1909078399, 6089880.103564611], "max_proj": [391020.1997208947, 6089887.898139604], "height_m": 3.0}, {"min_proj": [390901.6459412137, 6089880.568149856], "max_proj": [390910.3360657263, 6089889.110544669], "height_m": 3.0}, {"min_proj": [390890.3019719947, 6089879.097476875], "max_proj": [390902.2926084456, 6089890.786104049], "height_m": 3.0}, {"min_proj": [391067.0249730807, 6089882.941027034], "max_proj": [391077.46261261124, 6089893.690867723], "height_m": 3.0}, {"min_proj": [391108.67411102005, 6089883.576969593], "max_proj": [391122.21704605967, 6089896.877903949], "height_m": 3.0}, {"min_proj": [391218.31322905427, 6089885.77774321], "max_proj": [391227.2669624046, 6089894.763464882], "height_m": 3.0}, {"min_proj": [391176.2101027938, 6089891.757009896], "max_proj": [391182.99226171797, 6089898.428928592], "height_m": 3.0}, {"min_proj": [391054.02756846626, 6089887.22447762], "max_proj": [391071.2189606979, 6089904.06925537], "height_m": 3.0}, {"min_proj": [391114.5820537653, 6089889.404824387], "max_proj": [391127.61707943666, 6089902.264446853], "height_m": 3.0}, {"min_proj": [391170.1628421224, 6089894.412150772], "max_proj": [391175.6025822457, 6089899.796097813], "height_m": 3.0}, {"min_proj": [391218.5707274474, 6089894.0137704], "max_proj": [391234.8670652513, 6089908.089361626], "height_m": 3.0}, {"min_proj": [391118.4709257475, 6089896.475625306], "max_proj": [391131.46465596603, 6089908.977401823], "height_m": 3.0}, {"min_proj": [391171.7732376219, 6089897.983672819], "max_proj": [391185.9418129029, 6089911.954547525], "height_m": 3.0}, {"min_proj": [390994.1891865552, 6089877.585515821], "max_proj": [391010.5175434224, 6089892.581893021], "height_m": 3.0}, {"min_proj": [390820.42985475226, 6089879.4908564], "max_proj": [390832.30321931833, 6089892.762869352], "height_m": 3.0}, {"min_proj": [390949.290501329, 6089882.499667677], "max_proj": [390964.5858466577, 6089897.357219234], "height_m": 3.0}, {"min_proj": [390894.9324626819, 6089887.958239099], "max_proj": [390902.0327786645, 6089895.088995078], "height_m": 3.0}, {"min_proj": [390901.3659103692, 6089884.865441215], "max_proj": [390917.42177427624, 6089900.600634898], "height_m": 3.0}, {"min_proj": [391009.94796790025, 6089886.744359693], "max_proj": [391028.3326388749, 6089904.481524947], "height_m": 3.0}, {"min_proj": [390960.51482006826, 6089892.6546230735], "max_proj": [390976.8763910625, 6089908.350286141], "height_m": 3.0}, {"min_proj": [390913.0449310384, 6089899.430529954], "max_proj": [390930.57647559914, 6089914.6647011535], "height_m": 3.0}, {"min_proj": [391022.1932397601, 6089898.257865152], "max_proj": [391039.3691947581, 6089916.854128691], "height_m": 3.0}, {"min_proj": [390968.27229045634, 6089906.025840115], "max_proj": [390980.22970832686, 6089917.83143141], "height_m": 3.0}, {"min_proj": [391214.17587561946, 6089904.822594573], "max_proj": [391221.358813499, 6089912.021205198], "height_m": 3.0}, {"min_proj": [391127.2201511895, 6089905.251227517], "max_proj": [391137.1750115473, 6089914.790491679], "height_m": 3.0}, {"min_proj": [391068.4487002283, 6089904.385484437], "max_proj": [391083.07849189086, 6089919.044204591], "height_m": 3.0}, {"min_proj": [391175.65369140264, 6089908.738082204], "max_proj": [391184.94971983833, 6089917.762094348], "height_m": 3.0}, {"min_proj": [391184.48790978594, 6089907.742978594], "max_proj": [391199.15906460956, 6089924.349271828], "height_m": 3.0}, {"min_proj": [391132.55853650905, 6089910.042439004], "max_proj": [391147.16315446154, 6089924.388976095], "height_m": 3.0}, {"min_proj": [391144.62829487724, 6089917.358990871], "max_proj": [391154.59509851167, 6089927.386365186], "height_m": 3.0}, {"min_proj": [391080.7635814841, 6089917.647849307], "max_proj": [391093.0841802856, 6089929.753639925], "height_m": 3.0}, {"min_proj": [391148.550455701, 6089925.0078675235], "max_proj": [391163.2381022419, 6089939.448927697], "height_m": 3.0}, {"min_proj": [391195.2163479277, 6089924.028050286], "max_proj": [391212.2312025301, 6089941.189947273], "height_m": 3.0}, {"min_proj": [390926.5296204914, 6089909.353527707], "max_proj": [390940.98055164225, 6089923.699229355], "height_m": 3.0}, {"min_proj": [390997.7522015968, 6089916.393192743], "max_proj": [391007.15744406404, 6089925.63003623], "height_m": 3.0}, {"min_proj": [390981.4972263396, 6089919.426842336], "max_proj": [390993.479780132, 6089931.095001719], "height_m": 3.0}, {"min_proj": [391012.09401933337, 6089920.958249301], "max_proj": [391022.4299300496, 6089931.099036383], "height_m": 3.0}, {"min_proj": [391039.0034705662, 6089920.24151513], "max_proj": [391052.79117492295, 6089933.840954287], "height_m": 3.0}, {"min_proj": [390949.9203565683, 6089928.029338377], "max_proj": [390956.6925915434, 6089934.698221555], "height_m": 3.0}, {"min_proj": [390939.4233696701, 6089926.1747065475], "max_proj": [390950.6825081087, 6089937.143736484], "height_m": 3.0}, {"min_proj": [390858.8924840635, 6089910.642038385], "max_proj": [390900.5473529623, 6089955.723121415], "height_m": 3.0}, {"min_proj": [390992.4667257654, 6089929.610607464], "max_proj": [391002.67216935667, 6089939.635940182], "height_m": 3.0}, {"min_proj": [390838.94397793175, 6089934.500968571], "max_proj": [390848.4503880653, 6089945.775468754], "height_m": 3.0}, {"min_proj": [391303.79413049424, 6089824.243868946], "max_proj": [391316.4574073086, 6089836.580527004], "height_m": 3.0}, {"min_proj": [391244.7035299366, 6089826.380081757], "max_proj": [391256.3052844808, 6089838.249584037], "height_m": 3.0}, {"min_proj": [391334.4913512489, 6089829.60699126], "max_proj": [391345.39708122506, 6089840.380879878], "height_m": 3.0}, {"min_proj": [391368.10785224603, 6089829.084913558], "max_proj": [391383.997317245, 6089844.52957594], "height_m": 3.0}, {"min_proj": [391311.4608657578, 6089830.194270694], "max_proj": [391326.5688890959, 6089847.056297065], "height_m": 3.0}, {"min_proj": [391262.8501456283, 6089832.571001657], "max_proj": [391280.56647948123, 6089851.433632724], "height_m": 3.0}, {"min_proj": [391244.18714102724, 6089838.491311995], "max_proj": [391257.7857402995, 6089851.619943709], "height_m": 3.0}, {"min_proj": [391277.41285300767, 6089840.545501495], "max_proj": [391286.95768254495, 6089849.944589175], "height_m": 3.0}, {"min_proj": [391373.8986974191, 6089838.909056694], "max_proj": [391389.3716039887, 6089854.306689838], "height_m": 3.0}, {"min_proj": [391273.27209139697, 6089846.7049955055], "max_proj": [391280.95011763775, 6089854.473716326], "height_m": 3.0}, {"min_proj": [391418.5712598833, 6089835.147294303], "max_proj": [391438.52491919213, 6089854.281291786], "height_m": 3.0}, {"min_proj": [391472.877274264, 6089837.117084353], "max_proj": [391487.12574986764, 6089853.92264279], "height_m": 3.0}, {"min_proj": [391424.0100904504, 6089852.001957663], "max_proj": [391430.76107120526, 6089858.623742254], "height_m": 3.0}, {"min_proj": [391430.17780254805, 6089853.031533798], "max_proj": [391444.07805768994, 6089866.707574977], "height_m": 3.0}, {"min_proj": [391486.623220744, 6089854.9108492285], "max_proj": [391506.20462962403, 6089867.986146473], "height_m": 3.0}, {"min_proj": [391398.9381115375, 6089858.795360042], "max_proj": [391410.7602546425, 6089870.044174303], "height_m": 3.0}, {"min_proj": [391437.0989812891, 6089865.3262830125], "max_proj": [391444.5259530302, 6089872.625360891], "height_m": 3.0}, {"min_proj": [391501.3080471988, 6089864.602305445], "max_proj": [391517.83230100217, 6089881.052127861], "height_m": 3.0}, {"min_proj": [391443.34694016085, 6089865.923224402], "max_proj": [391457.6654587713, 6089880.488178551], "height_m": 3.0}, {"min_proj": [391396.99265072437, 6089865.327834242], "max_proj": [391416.3083386031, 6089883.919978263], "height_m": 3.0}, {"min_proj": [391572.1630485764, 6089825.322133751], "max_proj": [391588.7078465882, 6089842.937228223], "height_m": 3.0}, {"min_proj": [391530.70295482606, 6089827.755924348], "max_proj": [391543.27775879, 6089841.754863282], "height_m": 3.0}, {"min_proj": [391547.887690463, 6089835.612133818], "max_proj": [391563.0671855145, 6089852.636037827], "height_m": 3.0}, {"min_proj": [391566.19814294926, 6089840.827678466], "max_proj": [391577.7550900234, 6089853.691274748], "height_m": 3.0}, {"min_proj": [391528.5957930682, 6089850.088126164], "max_proj": [391537.41636717063, 6089858.751687301], "height_m": 3.0}, {"min_proj": [391542.7120605906, 6089852.8103531925], "max_proj": [391554.8608460999, 6089866.01990002], "height_m": 3.0}, {"min_proj": [391538.7739583313, 6089858.949244122], "max_proj": [391548.38507076993, 6089871.424998401], "height_m": 3.0}, {"min_proj": [391585.12128205097, 6089873.156872142], "max_proj": [391593.5054371146, 6089882.9440094475], "height_m": 3.0}, {"min_proj": [391604.41314131476, 6089869.1756795], "max_proj": [391621.7244219561, 6089887.379244891], "height_m": 3.0}, {"min_proj": [391576.1078588028, 6089877.690469963], "max_proj": [391589.7760227965, 6089894.738684222], "height_m": 3.0}, {"min_proj": [391320.3814500832, 6089848.52017628], "max_proj": [391327.26604539005, 6089855.324569753], "height_m": 3.0}, {"min_proj": [391324.04909283156, 6089851.199373291], "max_proj": [391331.0932573682, 6089858.074514648], "height_m": 3.0}, {"min_proj": [391280.28241895593, 6089847.781791127], "max_proj": [391295.0331927581, 6089862.236884103], "height_m": 3.0}, {"min_proj": [391331.728334876, 6089847.805646058], "max_proj": [391346.32074224815, 6089866.798749649], "height_m": 3.0}, {"min_proj": [391385.91891575494, 6089850.1935351305], "max_proj": [391402.57188432734, 6089866.680126611], "height_m": 3.0}, {"min_proj": [391289.988761843, 6089857.582075224], "max_proj": [391305.684106102, 6089871.644561163], "height_m": 3.0}, {"min_proj": [391228.7396335093, 6089854.843420157], "max_proj": [391254.3199457858, 6089878.338551687], "height_m": 3.0}, {"min_proj": [391335.7627432571, 6089864.351912745], "max_proj": [391343.7932369644, 6089872.295361213], "height_m": 3.0}, {"min_proj": [391295.3491101406, 6089864.957534411], "max_proj": [391311.92841289425, 6089881.07933572], "height_m": 3.0}, {"min_proj": [391347.27479499247, 6089866.193748007], "max_proj": [391363.2661765085, 6089881.525315861], "height_m": 3.0}, {"min_proj": [391250.68806648947, 6089870.558580105], "max_proj": [391264.1788219333, 6089883.976266886], "height_m": 3.0}, {"min_proj": [391361.6154235697, 6089871.4942061985], "max_proj": [391376.8759762355, 6089886.6466605], "height_m": 3.0}, {"min_proj": [391240.2667694942, 6089875.710245835], "max_proj": [391247.22228374623, 6089882.51711732], "height_m": 3.0}, {"min_proj": [391351.15848681383, 6089879.613167324], "max_proj": [391360.8561546891, 6089889.24452462], "height_m": 3.0}, {"min_proj": [391306.5552724325, 6089877.831086922], "max_proj": [391323.01492283633, 6089896.122046222], "height_m": 3.0}, {"min_proj": [391253.3287578957, 6089885.112035902], "max_proj": [391262.25921531685, 6089893.607928617], "height_m": 3.0}, {"min_proj": [391314.2937600864, 6089886.021579041], "max_proj": [391330.3349303615, 6089899.272934855], "height_m": 3.0}, {"min_proj": [391257.7504931538, 6089889.349829586], "max_proj": [391271.281905364, 6089902.5477523925], "height_m": 3.0}, {"min_proj": [391380.70245465933, 6089893.526399641], "max_proj": [391394.77672952926, 6089909.257436628], "height_m": 3.0}, {"min_proj": [391319.4157478158, 6089893.458089876], "max_proj": [391340.4567061687, 6089909.461781258], "height_m": 3.0}, {"min_proj": [391514.9588203451, 6089878.2323243795], "max_proj": [391526.1300489623, 6089886.718138265], "height_m": 3.0}, {"min_proj": [391410.93554746447, 6089876.9498141995], "max_proj": [391427.0716851566, 6089892.717610184], "height_m": 3.0}, {"min_proj": [391453.8740524153, 6089874.028311008], "max_proj": [391475.84498514544, 6089897.015486858], "height_m": 3.0}, {"min_proj": [391494.2726242177, 6089881.9609008655], "max_proj": [391505.7210233084, 6089893.959152634], "height_m": 3.0}, {"min_proj": [391419.62652591866, 6089885.8391736], "max_proj": [391435.6272158265, 6089903.08735716], "height_m": 3.0}, {"min_proj": [391477.71757371654, 6089898.508865176], "max_proj": [391483.8230883257, 6089904.33690871], "height_m": 3.0}, {"min_proj": [391411.86897982133, 6089909.6106749335], "max_proj": [391423.8120004906, 6089920.1072368035], "height_m": 3.0}, {"min_proj": [391436.1337911821, 6089910.987280749], "max_proj": [391451.32116605784, 6089927.249874449], "height_m": 3.0}, {"min_proj": [391508.05612728687, 6089913.502705482], "max_proj": [391522.9028955007, 6089930.434268187], "height_m": 3.0}, {"min_proj": [391422.0706238187, 6089918.261379074], "max_proj": [391437.3128726439, 6089934.05772983], "height_m": 3.0}, {"min_proj": [391560.95819693996, 6089884.31360951], "max_proj": [391572.49560761655, 6089896.737298662], "height_m": 3.0}, {"min_proj": [391621.5478224824, 6089888.147907469], "max_proj": [391628.48941441096, 6089894.736722388], "height_m": 3.0}, {"min_proj": [391534.73380940023, 6089897.567323899], "max_proj": [391547.0968318294, 6089909.335828892], "height_m": 3.0}, {"min_proj": [391571.2752041172, 6089901.395827451], "max_proj": [391577.8858356315, 6089907.997506651], "height_m": 3.0}, {"min_proj": [391524.97687576036, 6089903.189805903], "max_proj": [391534.68171865505, 6089912.510345187], "height_m": 3.0}, {"min_proj": [391580.66508866876, 6089902.439682638], "max_proj": [391594.3723373112, 6089915.9126171125], "height_m": 3.0}, {"min_proj": [391621.8902139426, 6089902.64795078], "max_proj": [391638.8153076289, 6089917.529174149], "height_m": 3.0}, {"min_proj": [391539.6219228254, 6089904.499385171], "max_proj": [391554.8289314036, 6089919.16475782], "height_m": 3.0}, {"min_proj": [391598.08266684244, 6089917.806374667], "max_proj": [391611.3787284731, 6089933.424934289], "height_m": 3.0}, {"min_proj": [391556.5040623182, 6089921.57944688], "max_proj": [391572.8794633884, 6089937.5876118], "height_m": 3.0}, {"min_proj": [391278.6725829813, 6089896.304832166], "max_proj": [391289.7072377579, 6089909.013903542], "height_m": 3.0}, {"min_proj": [391270.5668666672, 6089904.677112658], "max_proj": [391280.99749982177, 6089914.940063988], "height_m": 3.0}, {"min_proj": [391318.7752735425, 6089907.995705833], "max_proj": [391331.0978079837, 6089920.158250761], "height_m": 3.0}, {"min_proj": [391382.25688246056, 6089907.285237064], "max_proj": [391396.807464001, 6089921.744915317], "height_m": 3.0}, {"min_proj": [391340.32196282514, 6089911.325423559], "max_proj": [391351.8389019737, 6089922.549692598], "height_m": 3.0}, {"min_proj": [391224.187115371, 6089907.634687338], "max_proj": [391247.13291694294, 6089927.74122464], "height_m": 3.0}, {"min_proj": [391278.10886911885, 6089914.3987760665], "max_proj": [391284.87980005855, 6089920.983167175], "height_m": 3.0}, {"min_proj": [391329.60647463985, 6089914.170825084], "max_proj": [391337.3470619321, 6089921.996586064], "height_m": 3.0}, {"min_proj": [391243.23602945596, 6089914.747972445], "max_proj": [391250.8412574935, 6089922.194627482], "height_m": 3.0}, {"min_proj": [391281.52974855166, 6089915.575668371], "max_proj": [391293.5566850901, 6089927.417186406], "height_m": 3.0}, {"min_proj": [391346.84836751356, 6089917.81754191], "max_proj": [391361.9670452107, 6089932.675705032], "height_m": 3.0}, {"min_proj": [391244.2389389075, 6089920.385125639], "max_proj": [391258.30076018255, 6089934.108788453], "height_m": 3.0}, {"min_proj": [391289.1236335517, 6089927.247548047], "max_proj": [391296.0590022925, 6089934.080726745], "height_m": 3.0}, {"min_proj": [391292.6814946864, 6089927.222445065], "max_proj": [391306.0721234328, 6089940.345131201], "height_m": 3.0}, {"min_proj": [391365.2777612468, 6089934.123102149], "max_proj": [391376.2612416089, 6089945.000635096], "height_m": 3.0}, {"min_proj": [391248.36346717115, 6089928.293012891], "max_proj": [391271.0447385077, 6089953.14980001], "height_m": 3.0}, {"min_proj": [391303.92095583904, 6089937.985079774], "max_proj": [391317.86565259733, 6089952.093847144], "height_m": 3.0}, {"min_proj": [391608.55005721137, 6089930.372421073], "max_proj": [391623.41363805614, 6089944.938377449], "height_m": 3.0}, {"min_proj": [391567.4103899325, 6089933.5822835155], "max_proj": [391580.54193189973, 6089946.643850704], "height_m": 3.0}, {"min_proj": [391635.483474878, 6089916.998392288], "max_proj": [391651.6340629795, 6089932.709803804], "height_m": 3.0}, {"min_proj": [391636.24995997635, 6089922.246113558], "max_proj": [391656.59029848455, 6089942.666292108], "height_m": 3.0}, {"min_proj": [391481.5734450154, 6089927.030488401], "max_proj": [391493.1753640318, 6089936.714030038], "height_m": 3.0}, {"min_proj": [391398.55460808886, 6089924.497391762], "max_proj": [391411.43613407155, 6089939.618177617], "height_m": 3.0}, {"min_proj": [391474.4702709123, 6089935.6934143575], "max_proj": [391483.4250719155, 6089947.395830322], "height_m": 3.0}, {"min_proj": [391096.4112928974, 6089927.361633548], "max_proj": [391110.2152690366, 6089941.108166882], "height_m": 3.0}, {"min_proj": [391044.26163349435, 6089926.569071768], "max_proj": [391061.4656030383, 6089943.339725622], "height_m": 3.0}, {"min_proj": [391110.33925285784, 6089936.387355487], "max_proj": [391124.2484359578, 6089950.339527993], "height_m": 3.0}, {"min_proj": [391207.4751056238, 6089938.105687798], "max_proj": [391219.60617356596, 6089950.003104439], "height_m": 3.0}, {"min_proj": [390943.8440743485, 6089934.979429078], "max_proj": [390956.53147917247, 6089950.245694282], "height_m": 3.0}]}