{"id": "chunk_9_9", "ix": 9, "iy": 9, "tile_proj_bounds": [391647.2182111981, 6089938.107330536, 393147.2182111981, 6091438.107330536], "roads": [{"pts_proj": [[391919.194362031, 6089976.85655803], [391782.15367218264, 6089827.267695187], [391756.78212122235, 6089788.793642503], [391745.93498956965, 6089770.597690422]], "width_m": 7.0, "highway": "residential"}, {"pts_proj": [[391745.93498956965, 6089770.597690422], [391756.78212122235, 6089788.793642503], [391782.15367218264, 6089827.267695187], [391919.194362031, 6089976.85655803]], "width_m": 7.0, "highway": "residential"}, {"pts_proj": [[391887.0920035553, 6089873.128805843], [391916.9281724163, 6089904.938759247], [391956.4069756052, 6089942.795239857]], "width_m": 7.0, "highway": "residential"}, {"pts_proj": [[391956.4069756052, 6089942.795239857], [391916.9281724163, 6089904.938759247], [391887.0920035553, 6089873.128805843]], "width_m": 7.0, "highway": "residential"}, {"pts_proj": [[391875.08211817185, 6090018.421061702], [391686.85440423444, 6089812.280641176], [391682.0425111244, 6089806.752672832]], "width_m": 7.0, "highway": "residential"}, {"pts_proj": [[392525.7363771624, 6089947.375523914], [392369.293535057, 6089783.450623084]], "width_m": 7.0, "highway": "residential"}, {"pts_proj": [[392369.293535057, 6089783.450623084], [392525.7363771624, 6089947.375523914]], "width_m": 7.0, "highway": "residential"}, {"pts_proj": [[392471.5525499627, 6089998.081539683], [392316.53315357, 6089829.671271204]], "width_m": 7.0, "highway": "residential"}, {"pts_proj": [[392316.53315357, 6089829.671271204], [392471.5525499627, 6089998.081539683]], "width_m": 7.0, "highway": "residential"}, {"pts_proj": [[392259.8305408428, 6089884.069610224], [392357.2922936737, 6089989.268685866], [392384.60962718097, 6090018.570477431], [392414.8204600633, 6090050.964619568]], "width_m": 7.0, "highway": "residential"}, {"pts_proj": [[392414.8204600633, 6090050.964619568], [392384.60962718097, 6090018.570477431], [392357.2922936737, 6089989.268685866], [392259.8305408428, 6089884.069610224]], "width_m": 7.0, "highway": "residential"}, {"pts_proj": [[393081.01303122635, 6089959.198596639], [393131.9066408383, 6089910.237402146]], "width_m": 10.0, "highway": "tertiary"}, {"pts_proj": [[393081.01303122635, 6089959.198596639], [392983.12921458745, 6089853.849740778], [392941.98433766456, 6089807.864158635]], "width_m": 7.0, "highway": "residential"}, {"pts_proj": [[392941.98433766456, 6089807.864158635], [392983.12921458745, 6089853.849740778], [393081.01303122635, 6089959.198596639]], "width_m": 7.0, "highway": "residential"}, {"pts_proj": [[393010.23071379156, 6090026.202285423], [392863.42309235176, 6089869.300424112], [392744.9859709225, 6089744.665307635], [392738.23106546834, 6089741.175472619]], "width_m": 7.0, "highway": "residential"}, {"pts_proj": [[392738.23106546834, 6089741.175472619], [392863.42309235176, 6089869.300424112], [393010.23071379156, 6090026.202285423]], "width_m": 7.0, "highway": "residential"}, {"pts_proj": [[392904.32702906715, 6089844.844338835], [392962.0933058226, 6089906.841961779], [393047.534272923, 6089990.812220698]], "width_m": 7.0, "highway": "residential"}, {"pts_proj": [[393047.534272923, 6089990.812220698], [392962.0933058226, 6089906.841961779], [392904.32702906715, 6089844.844338835]], "width_m": 7.0, "highway": "residential"}, {"pts_proj": [[392584.79054949223, 6089888.326517499], [392525.7363771624, 6089947.375523914]], "width_m": 7.0, "highway": "residential"}, {"pts_proj": [[392525.7363771624, 6089947.375523914], [392584.79054949223, 6089888.326517499]], "width_m": 7.0, "highway": "residential"}, {"pts_proj": [[392693.38288912585, 6089783.450523221], [392957.9976326446, 6090060.55766581], [392965.6283123846, 6090068.54670564]], "width_m": 14.0, "highway": "primary"}, {"pts_proj": [[392965.6283123846, 6090068.54670564], [392693.38288912585, 6089783.450523221]], "width_m": 14.0, "highway": "primary"}, {"pts_proj": [[392913.58460819436, 6090119.107096727], [392891.47979003633, 6090096.713416623], [392875.3009219319, 6090085.522255345], [392634.1157166588, 6089838.272717883]], "width_m": 7.0, "highway": "residential"}, {"pts_proj": [[392634.1157166588, 6089838.272717883], [392875.3009219319, 6090085.522255345], [392891.47979003633, 6090096.713416623], [392913.58460819436, 6090119.107096727]], "width_m": 7.0, "highway": "residential"}, {"pts_proj": [[392584.79054949223, 6089888.326517499], [392855.90347041126, 6090174.779160991]], "width_m": 7.0, "highway": "residential"}, {"pts_proj": [[393131.9066408383, 6089910.237402146], [393088.5930755066, 6089951.904092423], [393081.01303122635, 6089959.198596639]], "width_m": 10.0, "highway": "tertiary"}, {"pts_proj": [[393047.534272923, 6089990.812220698], [393081.01303122635, 6089959.198596639]], "width_m": 10.0, "highway": "tertiary"}, {"pts_proj": [[393081.01303122635, 6089959.198596639], [393047.534272923, 6089990.812220698]], "width_m": 10.0, "highway": "tertiary"}, {"pts_proj": [[393047.534272923, 6089990.812220698], [393010.23071379156, 6090026.202285423]], "width_m": 10.0, "highway": "tertiary"}, {"pts_proj": [[393010.23071379156, 6090026.202285423], [393047.534272923, 6089990.812220698]], "width_m": 10.0, "highway": "tertiary"}, {"pts_proj": [[393125.82999956707, 6089988.10956882], [393172.12758353556, 6090033.996168071], [393228.3491353817, 6090085.747397143], [393231.2737949388, 6090090.965666741]], "width_m": 7.0, "highway": "residential"}, {"pts_proj": [[393231.2737949388, 6090090.965666741], [393182.8510552256, 6090040.019318276], [393125.82999956707, 6089988.10956882]], "width_m": 7.0, "highway": "residential"}, {"pts_proj": [[393047.534272923, 6089990.812220698], [393184.2138206368, 6090136.1829436505]], "width_m": 7.0, "highway": "residential"}, {"pts_proj": [[393184.2138206368, 6090136.1829436505], [393053.62291389867, 6089997.2907847185], [393047.534272923, 6089990.812220698]], "width_m": 7.0, "highway": "residential"}, {"pts_proj": [[392855.90347041126, 6090174.779160991], [392584.79054949223, 6089888.326517499]], "width_m": 7.0, "highway": "residential"}, {"pts_proj": [[392965.6283123846, 6090068.54670564], [393010.23071379156, 6090026.202285423]], "width_m": 10.0, "highway": "tertiary"}, {"pts_proj": [[393010.23071379156, 6090026.202285423], [392965.6283123846, 6090068.54670564]], "width_m": 10.0, "highway": "tertiary"}, {"pts_proj": [[392525.7363771624, 6089947.375523914], [392798.65898643725, 6090230.697626661]], "width_m": 7.0, "highway": "residential"}, {"pts_proj": [[392798.65898643725, 6090230.697626661], [392525.7363771624, 6089947.375523914]], "width_m": 7.0, "highway": "residential"}, {"pts_proj": [[392913.58460819436, 6090119.107096727], [392965.6283123846, 6090068.54670564]], "width_m": 7.0, "highway": "residential"}, {"pts_proj": [[392965.6283123846, 6090068.54670564], [392913.58460819436, 6090119.107096727]], "width_m": 7.0, "highway": "residential"}, {"pts_proj": [[392913.58460819436, 6090119.107096727], [392903.11648533435, 6090129.409925213]], "width_m": 7.0, "highway": "residential"}, {"pts_proj": [[392903.11648533435, 6090129.409925213], [392913.58460819436, 6090119.107096727]], "width_m": 7.0, "highway": "residential"}, {"pts_proj": [[392738.53601833526, 6090290.248193441], [392695.94830507296, 6090246.581596698], [392542.5333968374, 6090080.2408301495], [392471.5525499627, 6089998.081539683]], "width_m": 7.0, "highway": "residential"}, {"pts_proj": [[392965.6283123846, 6090068.54670564], [393069.9144502615, 6090179.731605289], [393146.8270586136, 6090258.3741709], [393227.05878913053, 6090340.890932064], [393236.6882065858, 6090350.513791612]], "width_m": 14.0, "highway": "primary"}, {"pts_proj": [[391657.35631891445, 6089919.688899714], [391672.1419627678, 6089906.484433778], [391693.1771520522, 6089916.930599998], [391833.1196968972, 6090058.219718864]], "width_m": 7.0, "highway": "residential"}, {"pts_proj": [[391682.0425111244, 6089806.752672832], [391875.08211817185, 6090018.421061702]], "width_m": 7.0, "highway": "residential"}, {"pts_proj": [[391987.8513119896, 6089915.597362874], [391956.4069756052, 6089942.795239857]], "width_m": 7.0, "highway": "residential"}, {"pts_proj": [[391956.4069756052, 6089942.795239857], [391987.8513119896, 6089915.597362874]], "width_m": 7.0, "highway": "residential"}, {"pts_proj": [[391919.194362031, 6089976.85655803], [391956.4069756052, 6089942.795239857]], "width_m": 7.0, "highway": "residential"}, {"pts_proj": [[391956.4069756052, 6089942.795239857], [391919.194362031, 6089976.85655803]], "width_m": 7.0, "highway": "residential"}, {"pts_proj": [[392131.11614445574, 6090068.326499611], [392114.4499982518, 6090050.559231923], [392059.0377574584, 6089991.487869983], [391987.8513119896, 6089915.597362874]], "width_m": 7.0, "highway": "residential"}, {"pts_proj": [[391987.8513119896, 6089915.597362874], [392059.0377574584, 6089991.487869983], [392114.4499982518, 6090050.559231923], [392131.11614445574, 6090068.326499611]], "width_m": 7.0, "highway": "residential"}, {"pts_proj": [[391948.2348399553, 6090009.988398017], [391919.194362031, 6089976.85655803]], "width_m": 7.0, "highway": "residential"}, {"pts_proj": [[391919.194362031, 6089976.85655803], [391948.2348399553, 6090009.988398017]], "width_m": 7.0, "highway": "residential"}, {"pts_proj": [[391919.194362031, 6089976.85655803], [391875.08211817185, 6090018.421061702]], "width_m": 7.0, "highway": "residential"}, {"pts_proj": [[391833.1196968972, 6090058.219718864], [391693.1771520522, 6089916.930599998], [391680.52542426507, 6089905.736317932], [391657.35631891445, 6089919.688899714]], "width_m": 7.0, "highway": "residential"}, {"pts_proj": [[391809.0843163892, 6090081.399133949], [391731.74763679085, 6090000.406438247], [391657.35631891445, 6089919.688899714]], "width_m": 7.0, "highway": "residential"}, {"pts_proj": [[391657.35631891445, 6089919.688899714], [391731.74763679085, 6090000.406438247], [391809.0843163892, 6090081.399133949]], "width_m": 7.0, "highway": "residential"}, {"pts_proj": [[391765.22372161044, 6090131.441800064], [391764.83096308913, 6090118.893660397], [391543.64794514765, 6089883.563746648]], "width_m": 7.0, "highway": "residential"}, {"pts_proj": [[391543.64794514765, 6089883.563746648], [391762.17182197666, 6090112.801527364], [391765.976812188, 6090125.211595997], [391765.22372161044, 6090131.441800064]], "width_m": 7.0, "highway": "residential"}, {"pts_proj": [[391723.62761184503, 6090162.181870056], [391707.9688363994, 6090140.0165942125], [391557.6689889241, 6089989.474606778], [391522.3718818106, 6089948.447697616]], "width_m": 7.0, "highway": "residential"}, {"pts_proj": [[391522.3718818106, 6089948.447697616], [391557.6689889241, 6089989.474606778], [391707.9688363994, 6090140.0165942125], [391721.6381295137, 6090157.019855921], [391723.62761184503, 6090162.181870056]], "width_m": 7.0, "highway": "residential"}, {"pts_proj": [[391725.4200122064, 6090192.341447472], [391709.78330644715, 6090179.571593463], [391688.39036079636, 6090164.34699548], [391511.40116534586, 6089985.005728668], [391511.53087040735, 6089968.125467227], [391522.3718818106, 6089948.447697616]], "width_m": 7.0, "highway": "residential"}, {"pts_proj": [[391522.3718818106, 6089948.447697616], [391511.53087040735, 6089968.125467227], [391511.40116534586, 6089985.005728668], [391688.39036079636, 6090164.34699548], [391709.78330644715, 6090179.571593463], [391725.4200122064, 6090192.341447472]], "width_m": 7.0, "highway": "residential"}, {"pts_proj": [[391751.67446721724, 6090143.547383355], [391765.22372161044, 6090131.441800064]], "width_m": 7.0, "highway": "residential"}, {"pts_proj": [[391765.22372161044, 6090131.441800064], [391751.67446721724, 6090143.547383355]], "width_m": 7.0, "highway": "residential"}, {"pts_proj": [[391688.57006785617, 6090220.039321972], [391680.35242538183, 6090202.436820215], [391668.3385831538, 6090195.067943694], [391651.18925617205, 6090207.472393645], [391565.54122513434, 6090120.961274562], [391544.7098098922, 6090098.5209148675], [391521.20934685704, 6090079.663170258], [391507.7661164089, 6090062.510288549], [391487.33964939567, 6090061.8470091205]], "width_m": 8.0, "highway": "unclassified"}, {"pts_proj": [[391487.33964939567, 6090061.8470091205], [391507.7661164089, 6090062.510288549], [391521.20934685704, 6090079.663170258], [391534.4494508642, 6090092.134152552], [391565.54122513434, 6090120.961274562], [391644.12943118834, 6090207.019652698], [391668.3385831538, 6090195.067943694], [391680.35242538183, 6090202.436820215], [391688.57006785617, 6090220.039321972]], "width_m": 8.0, "highway": "unclassified"}, {"pts_proj": [[391723.62761184503, 6090162.181870056], [391751.67446721724, 6090143.547383355]], "width_m": 7.0, "highway": "residential"}, {"pts_proj": [[391751.67446721724, 6090143.547383355], [391723.62761184503, 6090162.181870056]], "width_m": 7.0, "highway": "residential"}, {"pts_proj": [[391726.73725628736, 6090182.145512978], [391742.6268390861, 6090171.430558085], [391747.2750293281, 6090156.934897399], [391751.67446721724, 6090143.547383355]], "width_m": 7.0, "highway": "residential"}, {"pts_proj": [[391751.67446721724, 6090143.547383355], [391747.2750293281, 6090156.934897399], [391742.6268390861, 6090171.430558085], [391726.73725628736, 6090182.145512978]], "width_m": 7.0, "highway": "residential"}, {"pts_proj": [[391723.62761184503, 6090162.181870056], [391726.73725628736, 6090182.145512978]], "width_m": 7.0, "highway": "residential"}, {"pts_proj": [[392471.5525499627, 6089998.081539683], [392542.5333968374, 6090080.2408301495], [392695.94830507296, 6090246.581596698], [392738.53601833526, 6090290.248193441]], "width_m": 7.0, "highway": "residential"}, {"pts_proj": [[392855.90347041126, 6090174.779160991], [392903.11648533435, 6090129.409925213]], "width_m": 7.0, "highway": "residential"}, {"pts_proj": [[392903.11648533435, 6090129.409925213], [392855.90347041126, 6090174.779160991]], "width_m": 7.0, "highway": "residential"}, {"pts_proj": [[392659.0379998963, 6090322.799622499], [392414.8204600633, 6090050.964619568]], "width_m": 7.0, "highway": "residential"}, {"pts_proj": [[392414.8204600633, 6090050.964619568], [392394.29917040234, 6090079.9678403335], [392386.1401514085, 6090101.260002784], [392391.52762534854, 6090120.6683393195], [392443.65066880547, 6090236.787995575], [392461.71626966185, 6090274.238650261], [392477.1383665347, 6090294.99825203], [392504.26496397203, 6090308.441336751], [392659.0379998963, 6090322.799622499]], "width_m": 7.0, "highway": "residential"}, {"pts_proj": [[392659.0379998963, 6090322.799622499], [392515.0722692297, 6090310.19711182], [392487.7469602924, 6090302.091238829], [392468.6518975169, 6090285.015559022], [392443.65066880547, 6090236.787995575], [392391.52762534854, 6090120.6683393195], [392386.1401514085, 6090101.260002784], [392394.29917040234, 6090079.9678403335], [392414.8204600633, 6090050.964619568]], "width_m": 7.0, "highway": "residential"}, {"pts_proj": [[392414.8204600633, 6090050.964619568], [392659.0379998963, 6090322.799622499]], "width_m": 7.0, "highway": "residential"}, {"pts_proj": [[392855.90347041126, 6090174.779160991], [392838.5102161719, 6090191.314960329], [392823.96768702974, 6090205.66747107], [392811.8979984245, 6090217.578520401], [392798.65898643725, 6090230.697626661]], "width_m": 7.0, "highway": "residential"}, {"pts_proj": [[392798.65898643725, 6090230.697626661], [392811.8979984245, 6090217.578520401], [392823.96768702974, 6090205.66747107], [392838.5102161719, 6090191.314960329], [392855.90347041126, 6090174.779160991]], "width_m": 7.0, "highway": "residential"}, {"pts_proj": [[392798.65898643725, 6090230.697626661], [392738.53601833526, 6090290.248193441]], "width_m": 7.0, "highway": "residential"}, {"pts_proj": [[392525.7363771624, 6089947.375523914], [392471.5525499627, 6089998.081539683]], "width_m": 7.0, "highway": "residential"}, {"pts_proj": [[392471.5525499627, 6089998.081539683], [392525.7363771624, 6089947.375523914]], "width_m": 7.0, "highway": "residential"}, {"pts_proj": [[392414.8204600633, 6090050.964619568], [392471.5525499627, 6089998.081539683]], "width_m": 7.0, "highway": "residential"}, {"pts_proj": [[392471.5525499627, 6089998.081539683], [392414.8204600633, 6090050.964619568]], "width_m": 7.0, "highway": "residential"}, {"pts_proj": [[392378.2601250544, 6091228.725354681], [392495.6861588482, 6091105.128436972], [392526.02903244854, 6091074.175452039], [392540.05994801864, 6091059.4889808465], [392584.7529477671, 6091012.695689671], [392605.3022192973, 6090991.418531698], [392610.75967062864, 6090985.22045997]], "width_m": 12.0, "highway": "secondary"}, {"pts_proj": [[392610.75967062864, 6090985.22045997], [392587.93400211557, 6091009.357577084], [392540.05994801864, 6091059.4889808465], [392526.02903244854, 6091074.175452039], [392495.6861588482, 6091105.128436972], [392381.5718537286, 6091225.23922048], [392378.2601250544, 6091228.725354681]], "width_m": 12.0, "highway": "secondary"}, {"pts_proj": [[391891.6113703995, 6091098.133620014], [391903.6651192622, 6091087.088636292], [391917.93263422843, 6091078.573056671], [391934.46842268447, 6091073.253545952], [391954.2407858498, 6091070.104838358], [391979.18804095325, 6091071.663015627], [391997.7982370597, 6091076.6470861], [392089.6342273074, 6091112.596883306], [392123.57674464537, 6091125.884517755], [392194.6436983305, 6091152.395101873], [392298.8566404616, 6091194.853294249], [392351.2356198213, 6091215.058091023], [392370.73517507775, 6091223.239629389], [392378.2601250544, 6091228.725354681]], "width_m": 8.0, "highway": "unclassified"}, {"pts_proj": [[392378.2601250544, 6091228.725354681], [392351.2356198213, 6091215.058091023], [392298.8566404616, 6091194.853294249], [392194.6436983305, 6091152.395101873], [392123.57674464537, 6091125.884517755], [392098.35926660773, 6091116.0159793785], [392089.6342273074, 6091112.596883306], [391997.7982370597, 6091076.6470861], [391979.18804095325, 6091071.663015627], [391954.2407858498, 6091070.104838358], [391934.46842268447, 6091073.253545952], [391917.93263422843, 6091078.573056671], [391903.6651192622, 6091087.088636292], [391891.6113703995, 6091098.133620014]], "width_m": 8.0, "highway": "unclassified"}, {"pts_proj": [[392378.2601250544, 6091228.725354681], [392358.14255843026, 6091249.748348443], [392336.89674443234, 6091271.800489464], [392283.73018426646, 6091326.9937989395], [392273.9005925619, 6091337.56123128]], "width_m": 12.0, "highway": "secondary"}, {"pts_proj": [[392273.9005925619, 6091337.56123128], [392283.73018426646, 6091326.9937989395], [392336.89674443234, 6091271.800489464], [392358.14255843026, 6091249.748348443], [392373.59879724437, 6091233.635490178], [392378.2601250544, 6091228.725354681]], "width_m": 12.0, "highway": "secondary"}, {"pts_proj": [[391875.08211817185, 6090018.421061702], [391919.194362031, 6089976.85655803]], "width_m": 7.0, "highway": "residential"}, {"pts_proj": [[391875.08211817185, 6090018.421061702], [391833.1196968972, 6090058.219718864]], "width_m": 7.0, "highway": "residential"}, {"pts_proj": [[391833.1196968972, 6090058.219718864], [391875.08211817185, 6090018.421061702]], "width_m": 7.0, "highway": "residential"}, {"pts_proj": [[391833.1196968972, 6090058.219718864], [391809.0843163892, 6090081.399133949]], "width_m": 7.0, "highway": "residential"}, {"pts_proj": [[391809.0843163892, 6090081.399133949], [391833.1196968972, 6090058.219718864]], "width_m": 7.0, "highway": "residential"}, {"pts_proj": [[391809.0843163892, 6090081.399133949], [391793.65068775555, 6090101.198195654], [391783.48727216944, 6090117.652722175], [391765.22372161044, 6090131.441800064]], "width_m": 7.0, "highway": "residential"}, {"pts_proj": [[391765.22372161044, 6090131.441800064], [391783.48727216944, 6090117.652722175], [391793.65068775555, 6090101.198195654], [391809.0843163892, 6090081.399133949]], "width_m": 7.0, "highway": "residential"}, {"pts_proj": [[391726.73725628736, 6090182.145512978], [391723.62761184503, 6090162.181870056]], "width_m": 7.0, "highway": "residential"}, {"pts_proj": [[391725.4200122064, 6090192.341447472], [391726.73725628736, 6090182.145512978]], "width_m": 7.0, "highway": "residential"}, {"pts_proj": [[391726.73725628736, 6090182.145512978], [391725.4200122064, 6090192.341447472]], "width_m": 7.0, "highway": "residential"}, {"pts_proj": [[391725.4200122064, 6090192.341447472], [391688.57006785617, 6090220.039321972]], "width_m": 7.0, "highway": "residential"}, {"pts_proj": [[391688.57006785617, 6090220.039321972], [391724.25282974413, 6090199.995512715], [391725.4200122064, 6090192.341447472]], "width_m": 7.0, "highway": "residential"}, {"pts_proj": [[391633.4579461698, 6090253.311231063], [391688.57006785617, 6090220.039321972]], "width_m": 8.0, "highway": "unclassified"}, {"pts_proj": [[391688.57006785617, 6090220.039321972], [391633.4579461698, 6090253.311231063]], "width_m": 8.0, "highway": "unclassified"}, {"pts_proj": [[391678.86776037683, 6090315.458035159], [391633.4579461698, 6090253.311231063]], "width_m": 7.0, "highway": "residential"}, {"pts_proj": [[391633.4579461698, 6090253.311231063], [391669.5894124393, 6090305.662921775], [391678.86776037683, 6090315.458035159]], "width_m": 7.0, "highway": "residential"}, {"pts_proj": [[392273.9005925619, 6091337.56123128], [392226.0743751692, 6091289.52760125], [392218.6706694815, 6091283.493712027], [392205.69961886073, 6091273.196400969]], "width_m": 7.0, "highway": "residential"}, {"pts_proj": [[392205.69961886073, 6091273.196400969], [392218.6706694815, 6091283.493712027], [392226.0743751692, 6091289.52760125], [392273.9005925619, 6091337.56123128]], "width_m": 7.0, "highway": "residential"}, {"pts_proj": [[393236.6882065858, 6090350.513791612], [393146.8270586136, 6090258.3741709], [393069.9144502615, 6090179.731605289], [392972.2959830613, 6090075.657019305], [392965.6283123846, 6090068.54670564]], "width_m": 14.0, "highway": "primary"}, {"pts_proj": [[393190.07822841476, 6090397.8244476225], [393176.4618963588, 6090385.457930455], [393150.0666544729, 6090360.382202516], [392969.57757880585, 6090187.759816685], [392938.5375305641, 6090161.482549393], [392903.11648533435, 6090129.409925213]], "width_m": 7.0, "highway": "residential"}, {"pts_proj": [[392903.11648533435, 6090129.409925213], [392938.5375305641, 6090161.482549393], [392969.57757880585, 6090187.759816685], [393150.0666544729, 6090360.382202516], [393176.4618963588, 6090385.457930455], [393190.07822841476, 6090397.8244476225]], "width_m": 7.0, "highway": "residential"}, {"pts_proj": [[393131.572981183, 6090458.143774772], [393141.649360199, 6090447.817409005], [393190.07822841476, 6090397.8244476225]], "width_m": 12.0, "highway": "secondary"}, {"pts_proj": [[393190.07822841476, 6090397.8244476225], [393141.649360199, 6090447.817409005], [393131.572981183, 6090458.143774772]], "width_m": 12.0, "highway": "secondary"}, {"pts_proj": [[392738.53601833526, 6090290.248193441], [392798.65898643725, 6090230.697626661]], "width_m": 7.0, "highway": "residential"}, {"pts_proj": [[392673.15589043347, 6090323.930983058], [392693.46694570954, 6090322.253404636], [392715.7608177903, 6090309.985910209], [392731.9009753384, 6090296.819362446], [392738.53601833526, 6090290.248193441]], "width_m": 7.0, "highway": "residential"}, {"pts_proj": [[392738.53601833526, 6090290.248193441], [392715.7608177903, 6090309.985910209], [392703.467175904, 6090318.139827484], [392683.6125063471, 6090324.159264919], [392673.15589043347, 6090323.930983058]], "width_m": 7.0, "highway": "residential"}, {"pts_proj": [[392855.90347041126, 6090174.779160991], [392885.2164337724, 6090203.579708447], [392951.73386035097, 6090269.954529624], [392967.0693261503, 6090285.3073888775], [393069.9568197613, 6090396.080254471], [393091.59114265256, 6090417.651025698], [393103.60294759856, 6090429.632529088], [393118.96373911866, 6090445.285848127], [393131.572981183, 6090458.143774772]], "width_m": 7.0, "highway": "residential"}, {"pts_proj": [[393131.572981183, 6090458.143774772], [393118.96373911866, 6090445.285848127], [393103.60294759856, 6090429.632529088], [393091.59114265256, 6090417.651025698], [393069.9568197613, 6090396.080254471], [392967.0693261503, 6090285.3073888775], [392951.73386035097, 6090269.954529624], [392885.2164337724, 6090203.579708447], [392855.90347041126, 6090174.779160991]], "width_m": 7.0, "highway": "residential"}, {"pts_proj": [[392659.0379998963, 6090322.799622499], [392673.15589043347, 6090323.930983058]], "width_m": 7.0, "highway": "residential"}, {"pts_proj": [[392673.15589043347, 6090323.930983058], [392659.0379998963, 6090322.799622499]], "width_m": 7.0, "highway": "residential"}, {"pts_proj": [[392686.4841268855, 6090371.29258972], [392673.15589043347, 6090323.930983058]], "width_m": 7.0, "highway": "residential"}, {"pts_proj": [[392673.15589043347, 6090323.930983058], [392686.4841268855, 6090371.29258972]], "width_m": 7.0, "highway": "residential"}, {"pts_proj": [[392610.75967062864, 6090985.22045997], [392541.72673453816, 6090912.342914297], [392520.100980151, 6090889.817159474], [392504.54891342495, 6090870.496692179], [392488.93179909134, 6090845.533609553], [392469.9908442084, 6090804.886586481], [392458.6593637681, 6090778.039534842], [392458.4755618512, 6090753.296183961], [392444.43986748846, 6090709.358735142], [392421.4069099287, 6090640.822764046], [392403.6017129173, 6090589.094045484], [392390.3561095011, 6090550.615007854], [392436.651416233, 6090533.839932224], [392486.46976183314, 6090521.01081603], [392517.18347457447, 6090513.093497001], [392577.1831359146, 6090497.293728306], [392617.3403007989, 6090486.367591823], [392689.16557447845, 6090468.014939612], [392743.4454039092, 6090454.402807234], [392756.83059284417, 6090451.711218329], [392777.06324561435, 6090448.65543713], [392795.2990736768, 6090448.107814182], [392813.7578091116, 6090450.182217765], [392837.71116746165, 6090455.342604989], [392857.45861815487, 6090457.720345372], [392880.02936638193, 6090460.2644653525], [392884.25732173363, 6090480.324454801], [392898.9949920076, 6090534.221124994], [392905.80274591886, 6090547.751459499], [392914.81323733885, 6090559.614942656], [392934.1416007749, 6090579.336400251], [392965.5929593786, 6090609.26633754], [392975.00795606663, 6090618.225808032]], "width_m": 10.0, "highway": "tertiary"}, {"pts_proj": [[392975.00795606663, 6090618.225808032], [392996.55545565404, 6090596.203129415], [393006.9319448879, 6090585.590956533], [393100.6179950967, 6090489.841683912], [393115.2917690312, 6090474.818979429], [393124.89278345334, 6090464.982610371], [393131.572981183, 6090458.143774772]], "width_m": 12.0, "highway": "secondary"}, {"pts_proj": [[393131.572981183, 6090458.143774772], [393122.00289528933, 6090467.934860591], [393115.2917690312, 6090474.818979429], [393100.6179950967, 6090489.841683912], [393010.95953772793, 6090581.453677397], [392996.55545565404, 6090596.203129415], [392979.8616483311, 6090613.267224354], [392975.00795606663, 6090618.225808032]], "width_m": 12.0, "highway": "secondary"}, {"pts_proj": [[392975.00795606663, 6090618.225808032], [392934.1416007749, 6090579.336400251], [392914.81323733885, 6090559.614942656], [392905.80274591886, 6090547.751459499], [392898.9949920076, 6090534.221124994], [392884.25732173363, 6090480.324454801], [392880.02936638193, 6090460.2644653525], [392857.45861815487, 6090457.720345372], [392837.71116746165, 6090455.342604989], [392813.7578091116, 6090450.182217765], [392795.2990736768, 6090448.107814182], [392777.06324561435, 6090448.65543713], [392756.83059284417, 6090451.711218329], [392743.4454039092, 6090454.402807234], [392692.7896896124, 6090467.371525571], [392617.3403007989, 6090486.367591823], [392577.1831359146, 6090497.293728306], [392528.5380776506, 6090510.1716065835], [392498.1108999642, 6090518.015176851], [392436.651416233, 6090533.839932224], [392390.3561095011, 6090550.615007854], [392403.6017129173, 6090589.094045484], [392421.4069099287, 6090640.822764046], [392444.43986748846, 6090709.358735142], [392458.4755618512, 6090753.296183961], [392458.6593637681, 6090778.039534842], [392469.9908442084, 6090804.886586481], [392488.93179909134, 6090845.533609553], [392504.54891342495, 6090870.496692179], [392520.100980151, 6090889.817159474], [392536.99546871544, 6090907.413324907], [392606.2833475218, 6090980.496210866], [392610.75967062864, 6090985.22045997]], "width_m": 10.0, "highway": "tertiary"}, {"pts_proj": [[392610.75967062864, 6090985.22045997], [392635.6477140951, 6090959.976452134], [392660.52616674383, 6090934.855281624], [392711.91068914055, 6090882.982454995], [392770.01842330664, 6090824.993434262], [392868.62953788583, 6090725.825823296], [392883.0076700637, 6090711.365994401], [392923.24183942075, 6090670.471874488], [392961.68431205954, 6090631.791790437], [392975.00795606663, 6090618.225808032]], "width_m": 12.0, "highway": "secondary"}, {"pts_proj": [[392975.00795606663, 6090618.225808032], [392961.68431205954, 6090631.791790437], [392923.24183942075, 6090670.471874488], [392883.0076700637, 6090711.365994401], [392871.2885410787, 6090723.146098269], [392770.01842330664, 6090824.993434262], [392711.91068914055, 6090882.982454995], [392664.3420706416, 6090931.001052318], [392645.21564693016, 6090950.985843109], [392615.5322448029, 6090980.385853283], [392610.75967062864, 6090985.22045997]], "width_m": 12.0, "highway": "secondary"}, {"pts_proj": [[393437.25283768936, 6090751.018923947], [393412.46080780326, 6090800.190892398], [393393.6575653836, 6090839.301454976], [393372.10793932294, 6090884.14391981], [393332.41221570456, 6090961.7250597095], [393314.35155962716, 6090997.790287802], [393272.29332619836, 6091077.231773209], [393255.52124134736, 6091106.030436222], [393213.3247540592, 6091178.506887353], [393203.55745860946, 6091195.282661643], [393193.08103107056, 6091210.795124208], [393115.90061982645, 6091353.3289576685], [393099.4889069389, 6091382.375740287], [393086.2600945447, 6091403.587238173], [393075.08364107396, 6091417.914404494], [393055.790713929, 6091437.34481575], [393021.7034764108, 6091461.225373503], [393008.6579891839, 6091468.36118901], [392986.4926341953, 6091473.722168302], [392962.3179863963, 6091473.008358102], [392947.3519799636, 6091472.1525332], [392892.57095359504, 6091468.318748463], [392832.8244468148, 6091463.65814693], [392625.8594317546, 6091450.813129147], [392419.40135599574, 6091437.809590605], [392401.7507443931, 6091435.884523782], [392387.69192863407, 6091433.338876527], [392374.3548536631, 6091428.03730923], [392358.1030025681, 6091418.208046399], [392344.97525172296, 6091407.758264155], [392305.5962306281, 6091368.872249494], [392280.974995387, 6091344.5605301075], [392273.9005925619, 6091337.56123128]], "width_m": 12.0, "highway": "secondary"}, {"pts_proj": [[392273.9005925619, 6091337.56123128], [392305.5962306281, 6091368.872249494], [392344.97525172296, 6091407.758264155], [392358.1030025681, 6091418.208046399], [392374.3548536631, 6091428.03730923], [392387.69192863407, 6091433.338876527], [392401.7507443931, 6091435.884523782], [392419.40135599574, 6091437.809590605], [392625.8594317546, 6091450.813129147], [392832.8244468148, 6091463.65814693], [392892.57095359504, 6091468.318748463], [392947.3519799636, 6091472.1525332], [392962.3179863963, 6091473.008358102], [392986.4926341953, 6091473.722168302], [393008.6579891839, 6091468.36118901], [393021.7034764108, 6091461.225373503], [393055.790713929, 6091437.34481575], [393066.34313278575, 6091427.474382509], [393086.2600945447, 6091403.587238173], [393099.4889069389, 6091382.375740287], [393115.90061982645, 6091353.3289576685], [393193.08103107056, 6091210.795124208], [393203.55745860946, 6091195.282661643], [393213.3247540592, 6091178.506887353], [393255.52124134736, 6091106.030436222], [393267.1172225223, 6091086.127514948], [393314.35155962716, 6090997.790287802], [393332.41221570456, 6090961.7250597095], [393372.10793932294, 6090884.14391981], [393392.76021091384, 6090841.170803275], [393412.46080780326, 6090800.190892398], [393437.25283768936, 6090751.018923947]], "width_m": 12.0, "highway": "secondary"}], "buildings": [{"min_proj": [391928.4386681536, 6089926.732533595], "max_proj": [391943.5281390213, 6089942.119571977], "height_m": 3.0}, {"min_proj": [391894.17507430015, 6089928.598721212], "max_proj": [391912.41994888993, 6089946.1269899625], "height_m": 3.0}, {"min_proj": [391914.79841406, 6089930.435367651], "max_proj": [391933.2856690169, 6089947.522293349], "height_m": 3.0}, {"min_proj": [391986.21363384806, 6089937.816802916], "max_proj": [391998.8178343717, 6089950.474984748], "height_m": 3.0}, {"min_proj": [391866.76111482247, 6089939.4251864385], "max_proj": [391877.1968372075, 6089949.591702258], "height_m": 3.0}, {"min_proj": [392153.0173181319, 6089905.637696336], "max_proj": [392187.52732340846, 6089946.974862078], "height_m": 3.0}, {"min_proj": [392124.68997735245, 6089897.979722437], "max_proj": [392150.36267624854, 6089956.854398898], "height_m": 3.0}, {"min_proj": [392027.56981180847, 6089927.994785536], "max_proj": [392051.09086750314, 6089952.360193521], "height_m": 3.0}, {"min_proj": [392162.4402055759, 6089953.00757947], "max_proj": [392179.93849750643, 6089965.980785427], "height_m": 3.0}, {"min_proj": [392018.2116079138, 6089979.841162226], "max_proj": [392038.8718097488, 6089999.248927523], "height_m": 3.0}, {"min_proj": [392036.50724436087, 6089992.760910186], "max_proj": [392049.7342737641, 6090006.021586745], "height_m": 3.0}, {"min_proj": [392051.8251873186, 6090006.600936194], "max_proj": [392065.5960602205, 6090020.264356679], "height_m": 3.0}, {"min_proj": [392220.40472471656, 6089923.445279653], "max_proj": [392240.45903372683, 6089942.515848279], "height_m": 3.0}, {"min_proj": [392210.7999583539, 6089932.45000814], "max_proj": [392219.1249034642, 6089940.478071823], "height_m": 3.0}, {"min_proj": [392330.69169821567, 6089931.015418335], "max_proj": [392344.0261425595, 6089942.355638094], "height_m": 3.0}, {"min_proj": [392337.1483535901, 6089938.54141395], "max_proj": [392348.3501325317, 6089949.607707489], "height_m": 3.0}, {"min_proj": [392481.10900724964, 6089924.9080959875], "max_proj": [392494.6840446034, 6089938.182361938], "height_m": 3.0}, {"min_proj": [392549.7039109372, 6089928.7157051815], "max_proj": [392567.08319231047, 6089948.220830258], "height_m": 3.0}, {"min_proj": [392484.9561274461, 6089932.060572925], "max_proj": [392501.4007138581, 6089948.254630983], "height_m": 3.0}, {"min_proj": [392439.10473951395, 6089939.279170248], "max_proj": [392452.69516567624, 6089952.45577557], "height_m": 3.0}, {"min_proj": [392539.34019430424, 6089940.5924484385], "max_proj": [392550.2972973795, 6089951.3398441775], "height_m": 3.0}, {"min_proj": [392499.9489828937, 6089942.133953804], "max_proj": [392510.74568099354, 6089952.815740314], "height_m": 3.0}, {"min_proj": [392391.78506170545, 6089940.131347473], "max_proj": [392407.40362721996, 6089955.451688611], "height_m": 3.0}, {"min_proj": [392453.04568195035, 6089945.151536971], "max_proj": [392468.87564262375, 6089966.764010748], "height_m": 3.0}, {"min_proj": [392398.75087504747, 6089948.615195566], "max_proj": [392412.45439702657, 6089965.241570269], "height_m": 3.0}, {"min_proj": [392445.61307874956, 6089954.319854573], "max_proj": [392452.40844717727, 6089961.1451787315], "height_m": 3.0}, {"min_proj": [392557.82072772546, 6089953.538963559], "max_proj": [392571.134983402, 6089966.851878836], "height_m": 3.0}, {"min_proj": [392410.1401426051, 6089956.99138009], "max_proj": [392422.1517500947, 6089968.656517619], "height_m": 3.0}, {"min_proj": [392395.43958117644, 6089962.698628627], "max_proj": [392403.98881077825, 6089971.441925818], "height_m": 3.0}, {"min_proj": [391677.1427597739, 6089926.217495001], "max_proj": [391688.3416820716, 6089940.920750493], "height_m": 3.0}, {"min_proj": [391687.4046507053, 6089928.127981467], "max_proj": [391702.4343597973, 6089942.78753692], "height_m": 3.0}, {"min_proj": [391702.14222575375, 6089933.177956937], "max_proj": [391709.48063290305, 6089940.729097942], "height_m": 3.0}, {"min_proj": [391645.8067507914, 6089930.342116062], "max_proj": [391665.240283615, 6089951.804486843], "height_m": 3.0}, {"min_proj": [391660.07805796136, 6089937.120752034], "max_proj": [391669.091872408, 6089945.992885297], "height_m": 3.0}, {"min_proj": [391735.5259254387, 6089937.2870520195], "max_proj": [391750.3347127966, 6089951.837243577], "height_m": 3.0}, {"min_proj": [391703.5941023347, 6089942.871353212], "max_proj": [391716.4238035341, 6089955.447295665], "height_m": 3.0}, {"min_proj": [391809.34808051016, 6089924.049826795], "max_proj": [391821.32552992407, 6089938.1187177785], "height_m": 3.0}, {"min_proj": [391862.9119762938, 6089934.8293008], "max_proj": [391873.92539147957, 6089945.664936853], "height_m": 3.0}, {"min_proj": [391771.5365718728, 6089932.455029928], "max_proj": [391788.2186953642, 6089948.939882837], "height_m": 3.0}, {"min_proj": [391818.4306633365, 6089933.073661447], "max_proj": [391831.34750540776, 6089951.507078044], "height_m": 3.0}, {"min_proj": [391847.5621433751, 6089946.444235366], "max_proj": [391862.46017459594, 6089961.571013937], "height_m": 3.0}, {"min_proj": [391827.4369808071, 6089951.822589057], "max_proj": [391834.5159975206, 6089958.855562847], "height_m": 3.0}, {"min_proj": [391749.023581971, 6089951.628039105], "max_proj": [391763.66585233505, 6089966.026926939], "height_m": 3.0}, {"min_proj": [391928.7720719593, 6089941.298352292], "max_proj": [391940.36279409425, 6089953.093486388], "height_m": 3.0}, {"min_proj": [391872.43133782106, 6089942.918810423], "max_proj": [391881.09628023923, 6089951.500318011], "height_m": 3.0}, {"min_proj": [391924.5261472239, 6089951.282264423], "max_proj": [391930.07019477646, 6089957.008543667], "height_m": 3.0}, {"min_proj": [391905.80732501374, 6089946.3324985625], "max_proj": [391922.2568524161, 6089962.976620155], "height_m": 3.0}, {"min_proj": [391877.86888864386, 6089948.659011283], "max_proj": [391890.47629710304, 6089961.222138649], "height_m": 3.0}, {"min_proj": [391977.8199017546, 6089950.373780172], "max_proj": [391988.00431704207, 6089960.719287028], "height_m": 3.0}, {"min_proj": [392003.35100926703, 6089953.835391205], "max_proj": [392013.249845866, 6089963.776025549], "height_m": 3.0}, {"min_proj": [391949.797310091, 6089955.595689243], "max_proj": [391962.5006456124, 6089968.403656765], "height_m": 3.0}, {"min_proj": [391888.9258931151, 6089960.731891125], "max_proj": [391907.23523562495, 6089979.315699721], "height_m": 3.0}, {"min_proj": [391938.6103188057, 6089966.963123737], "max_proj": [391950.5803806414, 6089979.168160836], "height_m": 3.0}, {"min_proj": [391659.8596787469, 6089941.71950417], "max_proj": [391679.6167631591, 6089961.339652061], "height_m": 3.0}, {"min_proj": [391716.7660418696, 6089954.988588417], "max_proj": [391729.7732666632, 6089967.860226398], "height_m": 3.0}, {"min_proj": [391677.5713274385, 6089958.6825321065], "max_proj": [391693.4348695023, 6089974.362967418], "height_m": 3.0}, {"min_proj": [391729.5751169449, 6089964.074476022], "max_proj": [391737.1481120283, 6089971.411977135], "height_m": 3.0}, {"min_proj": [391642.57213649724, 6089963.587281859], "max_proj": [391656.51529366185, 6089977.252581426], "height_m": 3.0}, {"min_proj": [391730.90544609964, 6089970.614064189], "max_proj": [391744.57360017527, 6089984.042673328], "height_m": 3.0}, {"min_proj": [391681.7789729, 6089973.90928166], "max_proj": [391691.1006802141, 6089983.092936239], "height_m": 3.0}, {"min_proj": [391692.6603749989, 6089973.674668606], "max_proj": [391706.671899664, 6089987.519881415], "height_m": 3.0}, {"min_proj": [391702.3010204503, 6089980.131804696], "max_proj": [391709.92370410863, 6089987.642331632], "height_m": 3.0}, {"min_proj": [391651.9583930842, 6089975.782267423], "max_proj": [391667.0294841296, 6089992.713165471], "height_m": 3.0}, {"min_proj": [391830.7231427463, 6089955.0605866015], "max_proj": [391838.68653658195, 6089962.963100171], "height_m": 3.0}, {"min_proj": [391800.46107499057, 6089956.469721636], "max_proj": [391807.28891700285, 6089963.231504499], "height_m": 3.0}, {"min_proj": [391840.07757242676, 6089958.622146957], "max_proj": [391851.65306934185, 6089972.181070355], "height_m": 3.0}, {"min_proj": [391796.60778345936, 6089961.975571888], "max_proj": [391815.2033487172, 6089980.204773614], "height_m": 3.0}, {"min_proj": [391763.39666335715, 6089965.835195918], "max_proj": [391778.8795237605, 6089980.973992759], "height_m": 3.0}, {"min_proj": [391815.76778771816, 6089974.515861874], "max_proj": [391824.67546194274, 6089983.316205015], "height_m": 3.0}, {"min_proj": [391745.4136916567, 6089978.710878546], "max_proj": [391752.31709612225, 6089985.572645225], "height_m": 3.0}, {"min_proj": [391853.20854049176, 6089977.5180410445], "max_proj": [391864.72769678646, 6089988.919572612], "height_m": 3.0}, {"min_proj": [391816.5406711909, 6089979.4796454795], "max_proj": [391829.6515754491, 6089992.441023631], "height_m": 3.0}, {"min_proj": [391777.7627156109, 6089981.662710565], "max_proj": [391791.52844487823, 6089995.264951327], "height_m": 3.0}, {"min_proj": [391986.8158276601, 6089959.1102892365], "max_proj": [392023.39062888914, 6089989.415007112], "height_m": 3.0}, {"min_proj": [391930.20530582336, 6089972.434635848], "max_proj": [391947.4747475143, 6089986.650633456], "height_m": 3.0}, {"min_proj": [392001.62502386014, 6089977.007684058], "max_proj": [392017.09214876813, 6089992.5420784345], "height_m": 3.0}, {"min_proj": [391866.6072225572, 6089986.138051079], "max_proj": [391882.35410154134, 6090003.599157111], "height_m": 3.0}, {"min_proj": [391913.13274371857, 6089988.630809102], "max_proj": [391928.1569739908, 6090003.7873067865], "height_m": 3.0}, {"min_proj": [391921.054881725, 6089998.708296093], "max_proj": [391931.1948515335, 6090008.674959604], "height_m": 3.0}, {"min_proj": [391902.01203829003, 6090000.270624959], "max_proj": [391909.5752961267, 6090007.859601594], "height_m": 3.0}, {"min_proj": [391926.59469178057, 6090005.60242369], "max_proj": [391937.33252547635, 6090016.194323643], "height_m": 3.0}, {"min_proj": [391933.11160330736, 6090010.978019126], "max_proj": [391945.5614308938, 6090023.321369854], "height_m": 3.0}, {"min_proj": [391887.00221510086, 6090013.321812416], "max_proj": [391902.5460758466, 6090029.027032938], "height_m": 3.0}, {"min_proj": [391745.4734019282, 6089983.25258998], "max_proj": [391758.13187685487, 6089995.817919677], "height_m": 3.0}, {"min_proj": [391860.4506555267, 6089987.567280161], "max_proj": [391867.6069328416, 6089994.63486229], "height_m": 3.0}, {"min_proj": [391782.46290022304, 6089995.29614078], "max_proj": [391791.0957559601, 6090004.183403206], "height_m": 3.0}, {"min_proj": [391807.91319140396, 6089998.617369094], "max_proj": [391816.1710371887, 6090006.789549137], "height_m": 3.0}, {"min_proj": [391823.2831880832, 6089995.47386494], "max_proj": [391842.8281263101, 6090012.524453841], "height_m": 3.0}, {"min_proj": [391792.494930981, 6089998.936019637], "max_proj": [391804.14176105196, 6090010.428759884], "height_m": 3.0}, {"min_proj": [391760.03272015945, 6089999.2227527425], "max_proj": [391773.6315576093, 6090012.631075783], "height_m": 3.0}, {"min_proj": [391776.77545992937, 6090010.09169827], "max_proj": [391782.4685289393, 6090015.728045288], "height_m": 3.0}, {"min_proj": [391841.8982200102, 6090008.282963121], "max_proj": [391857.3008151184, 6090023.521326706], "height_m": 3.0}, {"min_proj": [391806.17697678355, 6090012.757158305], "max_proj": [391819.05126559467, 6090025.441012867], "height_m": 3.0}, {"min_proj": [391727.5184537678, 6089982.398273756], "max_proj": [391735.1742829036, 6089989.967811893], "height_m": 3.0}, {"min_proj": [391696.85131936474, 6089991.517416499], "max_proj": [391720.58523332706, 6090008.587087015], "height_m": 3.0}, {"min_proj": [391636.0820733611, 6090002.078764289], "max_proj": [391648.8439036773, 6090014.627540713], "height_m": 3.0}, {"min_proj": [391671.7745956942, 6089999.159396887], "max_proj": [391690.3004260231, 6090018.0198782515], "height_m": 3.0}, {"min_proj": [391727.2867158442, 6090006.071958089], "max_proj": [391738.6555735052, 6090015.777740181], "height_m": 3.0}, {"min_proj": [391639.0535555274, 6090008.809114105], "max_proj": [391653.8167953199, 6090022.923468977], "height_m": 3.0}, {"min_proj": [391734.1036888243, 6090020.674446991], "max_proj": [391741.1816159849, 6090027.835333129], "height_m": 3.0}, {"min_proj": [391742.23550738697, 6090021.697031583], "max_proj": [391750.7754191421, 6090030.269882724], "height_m": 3.0}, {"min_proj": [391643.3308154871, 6090018.599160814], "max_proj": [391663.09191041836, 6090037.998981346], "height_m": 3.0}, {"min_proj": [391723.3479489902, 6090022.851699555], "max_proj": [391735.6411292481, 6090035.213912895], "height_m": 3.0}, {"min_proj": [391773.93611995585, 6090014.771772331], "max_proj": [391785.93323156284, 6090026.596460968], "height_m": 3.0}, {"min_proj": [391810.28374735196, 6090023.041273283], "max_proj": [391818.27945657825, 6090030.929429197], "height_m": 3.0}, {"min_proj": [391788.6457478586, 6090024.750659184], "max_proj": [391795.9387844644, 6090031.940349851], "height_m": 3.0}, {"min_proj": [391829.47828185465, 6090019.016236613], "max_proj": [391848.6614132107, 6090039.01265753], "height_m": 3.0}, {"min_proj": [391766.83855754626, 6090025.14928614], "max_proj": [391777.03953024535, 6090033.951912532], "height_m": 3.0}, {"min_proj": [391817.2591566604, 6090026.251238749], "max_proj": [391833.6616041966, 6090042.810033808], "height_m": 3.0}, {"min_proj": [391787.96350987337, 6090031.464778818], "max_proj": [391801.5140342199, 6090044.746077662], "height_m": 3.0}, {"min_proj": [391831.0006025225, 6090042.0161431115], "max_proj": [391839.9287295331, 6090050.753442542], "height_m": 3.0}, {"min_proj": [391855.71811228816, 6090043.798112561], "max_proj": [391864.4122354346, 6090052.604620388], "height_m": 3.0}, {"min_proj": [391757.13689878304, 6090043.277312931], "max_proj": [391773.6218903268, 6090059.756087854], "height_m": 3.0}, {"min_proj": [391697.66839650867, 6090022.673882338], "max_proj": [391712.96602591075, 6090037.617600158], "height_m": 3.0}, {"min_proj": [391659.6179980353, 6090025.355276231], "max_proj": [391676.68898901186, 6090047.5527512105], "height_m": 3.0}, {"min_proj": [391712.72050027084, 6090034.970516997], "max_proj": [391727.6431797741, 6090052.307954182], "height_m": 3.0}, {"min_proj": [391734.5476581923, 6090039.172092305], "max_proj": [391749.3471673035, 6090052.057633251], "height_m": 3.0}, {"min_proj": [391719.232535919, 6090051.452681053], "max_proj": [391728.4190946565, 6090060.412599146], "height_m": 3.0}, {"min_proj": [391678.7296115455, 6090048.847845084], "max_proj": [391693.2599553589, 6090064.088672086], "height_m": 3.0}, {"min_proj": [391640.1611416745, 6090052.141869641], "max_proj": [391650.72370545875, 6090062.86628482], "height_m": 3.0}, {"min_proj": [391725.7694528789, 6090055.604696826], "max_proj": [391737.58035209175, 6090067.303445349], "height_m": 3.0}, {"min_proj": [391693.1886488459, 6090061.5881828545], "max_proj": [391706.9906508883, 6090075.214588864], "height_m": 3.0}, {"min_proj": [391640.600225232, 6090062.888206802], "max_proj": [391658.6696774795, 6090078.974677886], "height_m": 3.0}, {"min_proj": [391862.04320431314, 6090047.407161411], "max_proj": [391871.46900937334, 6090056.765959627], "height_m": 3.0}, {"min_proj": [391804.6435639468, 6090048.476806778], "max_proj": [391817.04860727635, 6090060.911057983], "height_m": 3.0}, {"min_proj": [391843.1403905708, 6090053.3752794545], "max_proj": [391855.5571744873, 6090065.742935462], "height_m": 3.0}, {"min_proj": [391797.48223272973, 6090057.6326743625], "max_proj": [391811.22246278025, 6090071.76235223], "height_m": 3.0}, {"min_proj": [391839.293323068, 6090061.371150456], "max_proj": [391850.6775984138, 6090072.931058243], "height_m": 3.0}, {"min_proj": [391739.7832588959, 6090064.301353186], "max_proj": [391758.5285514799, 6090083.245305487], "height_m": 3.0}, {"min_proj": [391827.5537903943, 6090067.884938073], "max_proj": [391846.08657162497, 6090089.008232329], "height_m": 3.0}, {"min_proj": [391793.87135357736, 6090075.958596331], "max_proj": [391800.3118716944, 6090082.35336708], "height_m": 3.0}, {"min_proj": [391781.6665349761, 6090076.468216504], "max_proj": [391793.8637626831, 6090088.539362384], "height_m": 3.0}, {"min_proj": [391821.5611802364, 6090077.063311472], "max_proj": [391834.9651600393, 6090090.77147309], "height_m": 3.0}, {"min_proj": [391733.6587257501, 6090068.607173079], "max_proj": [391740.0310397994, 6090074.880365303], "height_m": 3.0}, {"min_proj": [391663.16122491384, 6090074.260192517], "max_proj": [391676.8306356182, 6090087.698442428], "height_m": 3.0}, {"min_proj": [391706.66376963235, 6090076.666106742], "max_proj": [391720.9177451029, 6090090.64597192], "height_m": 3.0}, {"min_proj": [391678.59861244133, 6090087.231146976], "max_proj": [391695.5654420881, 6090103.759657384], "height_m": 3.0}, {"min_proj": [391640.35794375703, 6090090.6079196585], "max_proj": [391652.5780481758, 6090102.613371842], "height_m": 3.0}, {"min_proj": [391718.420943533, 6090090.505907312], "max_proj": [391734.5813227873, 6090106.495219381], "height_m": 3.0}, {"min_proj": [391653.3740677893, 6090097.804848325], "max_proj": [391661.19696109183, 6090105.525090055], "height_m": 3.0}, {"min_proj": [391692.24119984277, 6090104.156987893], "max_proj": [391708.0730685076, 6090119.644194523], "height_m": 3.0}, {"min_proj": [391649.3195213628, 6090104.296936043], "max_proj": [391669.85068204254, 6090123.8416969525], "height_m": 3.0}, {"min_proj": [391733.576357855, 6090107.196385458], "max_proj": [391749.36598888796, 6090121.309735953], "height_m": 3.0}, {"min_proj": [391663.05483476946, 6090119.269278334], "max_proj": [391682.96643366816, 6090138.795778314], "height_m": 3.0}, {"min_proj": [391712.1939830701, 6090127.28421047], "max_proj": [391728.6441528158, 6090143.408198441], "height_m": 3.0}, {"min_proj": [391637.14012315415, 6090133.204408191], "max_proj": [391653.89680956624, 6090148.153294449], "height_m": 3.0}, {"min_proj": [391651.5161432799, 6090138.293731896], "max_proj": [391658.8460920858, 6090146.665885247], "height_m": 3.0}, {"min_proj": [391678.71675876086, 6090135.692616601], "max_proj": [391698.4966679422, 6090149.409122766], "height_m": 3.0}, {"min_proj": [391650.6178235645, 6090145.648744565], "max_proj": [391667.02102029155, 6090162.827675491], "height_m": 3.0}, {"min_proj": [391670.8573926579, 6090162.059557755], "max_proj": [391683.23549224314, 6090174.196353466], "height_m": 3.0}, {"min_proj": [391655.654744269, 6090176.484405933], "max_proj": [391661.77667983744, 6090182.544507762], "height_m": 3.0}, {"min_proj": [391658.6044251844, 6090179.727832899], "max_proj": [391670.5963962187, 6090191.930603853], "height_m": 3.0}, {"min_proj": [391745.59064381145, 6090081.831247875], "max_proj": [391752.641150073, 6090088.928486082], "height_m": 3.0}, {"min_proj": [391755.1610315865, 6090082.304176411], "max_proj": [391770.388326872, 6090097.180600284], "height_m": 3.0}, {"min_proj": [391819.450633667, 6090090.846785814], "max_proj": [391830.6862625589, 6090102.117267277], "height_m": 3.0}, {"min_proj": [391763.6445453014, 6090100.951275621], "max_proj": [391769.7168842214, 6090106.9333209535], "height_m": 3.0}, {"min_proj": [391768.53003153845, 6090097.170068577], "max_proj": [391781.81932199147, 6090112.038690227], "height_m": 3.0}, {"min_proj": [391799.90714273445, 6090142.394074478], "max_proj": [391838.9534256448, 6090172.511146881], "height_m": 9.0}, {"min_proj": [391772.91110170307, 6090154.866106981], "max_proj": [391792.25531187956, 6090171.169677782], "height_m": 3.0}, {"min_proj": [391745.901136125, 6090182.382345043], "max_proj": [391774.2910225575, 6090201.9276730055], "height_m": 3.0}, {"min_proj": [391763.26989536925, 6090194.525169133], "max_proj": [391837.2559523724, 6090254.362767352], "height_m": 3.0}, {"min_proj": [391778.2026291977, 6090178.063299448], "max_proj": [391951.60643389897, 6090284.092828382], "height_m": 3.0}, {"min_proj": [391863.05481800716, 6090032.146561602], "max_proj": [391884.47146082274, 6090049.5409172205], "height_m": 3.0}, {"min_proj": [391948.3666995469, 6090176.3375949375], "max_proj": [391966.5436060278, 6090198.403421649], "height_m": 3.0}, {"min_proj": [391923.04694008944, 6090197.049256417], "max_proj": [391949.3793117508, 6090222.144467976], "height_m": 6.0}, {"min_proj": [391878.6307398024, 6090219.327034405], "max_proj": [391907.0119525091, 6090246.336468359], "height_m": 3.0}, {"min_proj": [391945.07878701965, 6090251.055162592], "max_proj": [391958.6296510341, 6090259.195800501], "height_m": 3.0}, {"min_proj": [391902.5324345341, 6090618.3967820695], "max_proj": [391930.61565190065, 6090640.551894243], "height_m": 3.0}, {"min_proj": [391645.3162763597, 6090183.793263841], "max_proj": [391660.415877642, 6090198.64101394], "height_m": 3.0}, {"min_proj": [391665.85282599845, 6090229.263958167], "max_proj": [391766.8991629202, 6090331.083951576], "height_m": 9.0}, {"min_proj": [391655.2308781128, 6090265.074516085], "max_proj": [391683.46908547677, 6090302.333119606], "height_m": 9.0}, {"min_proj": [391641.2089943049, 6090318.053417532], "max_proj": [391654.4908291651, 6090334.579098783], "height_m": 3.0}, {"min_proj": [391716.8200163912, 6090361.452339944], "max_proj": [391735.2152512181, 6090376.12903331], "height_m": 3.0}, {"min_proj": [391739.2437972907, 6090398.009011956], "max_proj": [391751.06039306184, 6090409.714364059], "height_m": 3.0}, {"min_proj": [391661.8372355602, 6090988.713455525], "max_proj": [391693.33070178167, 6091024.785707098], "height_m": 3.0}, {"min_proj": [391770.18823482847, 6090285.089657738], "max_proj": [391794.0563700357, 6090305.813904285], "height_m": 3.0}, {"min_proj": [391749.5968515217, 6090335.083658089], "max_proj": [391787.66205559066, 6090364.246813771], "height_m": 6.0}, {"min_proj": [391798.97125610965, 6090379.890319465], "max_proj": [391823.5767287965, 6090413.700316419], "height_m": 3.0}, {"min_proj": [391751.4887067247, 6090420.757919618], "max_proj": [391770.72791985597, 6090439.848887501], "height_m": 3.0}, {"min_proj": [391846.7247044205, 6090900.438692315], "max_proj": [391862.5635638821, 6090931.393080145], "height_m": 3.0}, {"min_proj": [393124.92283227236, 6089935.310306925], "max_proj": [393136.0573561784, 6089946.416388589], "height_m": 3.0}, {"min_proj": [393135.37952253636, 6089938.649267228], "max_proj": [393145.88949152414, 6089949.262057373], "height_m": 3.0}, {"min_proj": [393142.1461578938, 6089941.615562569], "max_proj": [393149.0385403103, 6089948.51964783], "height_m": 3.0}, {"min_proj": [392854.3034685118, 6089926.827908332], "max_proj": [392866.02736862574, 6089938.383266621], "height_m": 3.0}, {"min_proj": [392798.1506900238, 6089928.226818372], "max_proj": [392811.9086945832, 6089941.702818952], "height_m": 3.0}, {"min_proj": [392866.4351496856, 6089928.332859295], "max_proj": [392883.065461145, 6089941.712065373], "height_m": 3.0}, {"min_proj": [392951.3588520613, 6089925.17693239], "max_proj": [392968.3683249204, 6089941.938342291], "height_m": 3.0}, {"min_proj": [393072.13568538456, 6089926.308818532], "max_proj": [393089.6033835477, 6089940.473102297], "height_m": 3.0}, {"min_proj": [393038.90365615115, 6089927.6046196595], "max_proj": [393051.8793025197, 6089940.492359661], "height_m": 3.0}, {"min_proj": [393010.5216162201, 6089928.76835563], "max_proj": [393022.9774608777, 6089940.951841838], "height_m": 3.0}, {"min_proj": [393062.9609843257, 6089930.689848384], "max_proj": [393071.3975531827, 6089939.239569177], "height_m": 3.0}, {"min_proj": [392594.8392707975, 6089924.196045982], "max_proj": [392608.7115129704, 6089938.243191031], "height_m": 3.0}, {"min_proj": [392644.49972698354, 6089928.658285393], "max_proj": [392660.2807641577, 6089944.069217001], "height_m": 3.0}, {"min_proj": [392707.5839815603, 6089933.7797317775], "max_proj": [392718.7500628715, 6089944.820847614], "height_m": 3.0}, {"min_proj": [392590.72187636385, 6089933.805308741], "max_proj": [392603.14516277635, 6089945.987869799], "height_m": 3.0}, {"min_proj": [392605.66239301406, 6089936.121775492], "max_proj": [392615.13445946964, 6089945.352665533], "height_m": 3.0}, {"min_proj": [392669.0924406864, 6089938.715464084], "max_proj": [392679.90971106285, 6089949.429182629], "height_m": 3.0}, {"min_proj": [392715.6892483489, 6089944.1839235155], "max_proj": [392730.2960850213, 6089956.212407819], "height_m": 3.0}, {"min_proj": [392662.407495287, 6089946.193180081], "max_proj": [392674.1206912184, 6089956.001832735], "height_m": 3.0}, {"min_proj": [392614.0650564945, 6089946.369622357], "max_proj": [392625.1593673578, 6089957.18464166], "height_m": 3.0}, {"min_proj": [392728.5944530346, 6089955.374315442], "max_proj": [392741.67017647123, 6089968.2634154605], "height_m": 3.0}, {"min_proj": [392942.8843769434, 6089931.390771608], "max_proj": [392950.8087380405, 6089939.341102415], "height_m": 3.0}, {"min_proj": [392896.7563453419, 6089931.714036196], "max_proj": [392918.2069616962, 6089948.947370066], "height_m": 3.0}, {"min_proj": [392962.7100137723, 6089936.206257992], "max_proj": [392977.4841479965, 6089950.982031663], "height_m": 3.0}, {"min_proj": [392944.0276107404, 6089944.133255902], "max_proj": [392955.6677745064, 6089955.744961307], "height_m": 3.0}, {"min_proj": [392970.3448994624, 6089943.985682633], "max_proj": [392986.27495658887, 6089959.6095292885], "height_m": 3.0}, {"min_proj": [392921.72634209885, 6089947.088258242], "max_proj": [392933.22502935765, 6089958.389557106], "height_m": 3.0}, {"min_proj": [392985.9628429151, 6089955.631555018], "max_proj": [392998.7563017367, 6089965.691747876], "height_m": 3.0}, {"min_proj": [392972.72000560234, 6089963.520251901], "max_proj": [392978.52510576404, 6089969.414915836], "height_m": 3.0}, {"min_proj": [392934.34818311164, 6089961.815281322], "max_proj": [392946.4937317853, 6089973.736620719], "height_m": 3.0}, {"min_proj": [392965.3492118127, 6089967.165745943], "max_proj": [392973.2255237776, 6089974.844428249], "height_m": 3.0}, {"min_proj": [392803.7925938863, 6089933.135620002], "max_proj": [392821.2429816227, 6089949.917367024], "height_m": 3.0}, {"min_proj": [392780.01235894574, 6089933.883912447], "max_proj": [392796.35583427345, 6089950.400054315], "height_m": 3.0}, {"min_proj": [392748.314011561, 6089933.405186609], "max_proj": [392766.9612618034, 6089951.594348433], "height_m": 3.0}, {"min_proj": [392815.9661515848, 6089944.265540517], "max_proj": [392827.60867509077, 6089955.677460466], "height_m": 3.0}, {"min_proj": [392754.5196665898, 6089944.354614876], "max_proj": [392767.3490908649, 6089956.696302681], "height_m": 3.0}, {"min_proj": [392758.7529859201, 6089947.877823549], "max_proj": [392772.9408185641, 6089961.788241603], "height_m": 3.0}, {"min_proj": [392877.53208905295, 6089950.22679249], "max_proj": [392891.49177321116, 6089964.1620329255], "height_m": 3.0}, {"min_proj": [392795.9981581053, 6089956.834310861], "max_proj": [392810.42879378685, 6089969.156328786], "height_m": 3.0}, {"min_proj": [392825.2607633015, 6089956.325454807], "max_proj": [392840.88574831304, 6089971.810769855], "height_m": 3.0}, {"min_proj": [392770.74446440174, 6089958.651368435], "max_proj": [392787.37455132976, 6089975.007850123], "height_m": 3.0}, {"min_proj": [392987.62214265484, 6089963.001015657], "max_proj": [393004.3647623097, 6089979.236696507], "height_m": 3.0}, {"min_proj": [392891.978877883, 6089967.586847977], "max_proj": [392904.23244952515, 6089979.9106399035], "height_m": 3.0}, {"min_proj": [392972.00650125695, 6089970.1342967665], "max_proj": [392984.9726325652, 6089982.869502348], "height_m": 3.0}, {"min_proj": [392945.53508952743, 6089972.684959407], "max_proj": [392960.8700080262, 6089987.849895831], "height_m": 3.0}, {"min_proj": [392917.14716340404, 6089974.602929057], "max_proj": [392930.9708856164, 6089988.437527017], "height_m": 3.0}, {"min_proj": [392907.5157879795, 6089985.287289023], "max_proj": [392922.4370197993, 6089999.839963224], "height_m": 3.0}, {"min_proj": [392958.2378294756, 6089989.832859917], "max_proj": [392973.3654689007, 6090003.0146562345], "height_m": 3.0}, {"min_proj": [392913.0614271358, 6089993.709332068], "max_proj": [392926.5085504829, 6090007.174317831], "height_m": 3.0}, {"min_proj": [392973.0786320328, 6089997.938495706], "max_proj": [392980.1704118952, 6090004.96134053], "height_m": 3.0}, {"min_proj": [392924.1807122652, 6090000.945818888], "max_proj": [392935.35629749496, 6090011.9739256], "height_m": 3.0}, {"min_proj": [392787.79595534736, 6089964.202288549], "max_proj": [392799.8845619532, 6089976.419952114], "height_m": 3.0}, {"min_proj": [392844.6546780286, 6089975.928175045], "max_proj": [392857.12075095624, 6089988.071493459], "height_m": 3.0}, {"min_proj": [392751.50776018936, 6089977.62061139], "max_proj": [392764.04031763045, 6089990.031609339], "height_m": 3.0}, {"min_proj": [392853.29602203076, 6089984.614467881], "max_proj": [392865.78408861795, 6089996.905890771], "height_m": 3.0}, {"min_proj": [392794.9059784754, 6089985.635605515], "max_proj": [392808.0781800934, 6089998.683228454], "height_m": 3.0}, {"min_proj": [392754.3197535269, 6089985.50458399], "max_proj": [392771.82172775356, 6090002.5226392625], "height_m": 3.0}, {"min_proj": [392802.13520893484, 6089992.389168925], "max_proj": [392815.08176127926, 6090005.070766626], "height_m": 3.0}, {"min_proj": [392870.9640390928, 6089995.1707196105], "max_proj": [392879.2159619725, 6090003.262764725], "height_m": 3.0}, {"min_proj": [392808.9833875467, 6090001.04417708], "max_proj": [392819.8544546207, 6090011.7790792165], "height_m": 3.0}, {"min_proj": [392772.2615097101, 6090001.1145270625], "max_proj": [392786.4611243015, 6090015.111374613], "height_m": 3.0}, {"min_proj": [393085.662676356, 6089967.596296694], "max_proj": [393103.01551837113, 6089984.92087827], "height_m": 3.0}, {"min_proj": [393102.9006376681, 6089973.2613728065], "max_proj": [393121.82551513065, 6089991.944162906], "height_m": 3.0}, {"min_proj": [393010.30525709386, 6089983.972770208], "max_proj": [393025.8410812425, 6089999.336411899], "height_m": 3.0}, {"min_proj": [393067.3458641229, 6089983.6640545055], "max_proj": [393085.06124903576, 6090001.33459149], "height_m": 6.0}, {"min_proj": [393110.7557061164, 6090003.4045217335], "max_proj": [393119.2997289094, 6090011.9374218015], "height_m": 3.0}, {"min_proj": [393118.4502793129, 6090006.774996482], "max_proj": [393126.7532071248, 6090014.985403896], "height_m": 3.0}, {"min_proj": [393091.0242594581, 6090007.995995568], "max_proj": [393103.8563117143, 6090020.786894888], "height_m": 6.0}, {"min_proj": [393074.6607230487, 6090013.366717513], "max_proj": [393079.4915644086, 6090018.202487122], "height_m": 3.0}, {"min_proj": [393035.9609328902, 6090012.11478719], "max_proj": [393051.4281660849, 6090026.547025901], "height_m": 3.0}, {"min_proj": [393025.7471485158, 6090024.717046464], "max_proj": [393040.7986460143, 6090039.612589792], "height_m": 3.0}, {"min_proj": [392814.06055001507, 6090002.96088079], "max_proj": [392826.4242208394, 6090014.838395243], "height_m": 3.0}, {"min_proj": [392839.7372940101, 6090003.509442864], "max_proj": [392853.5265594536, 6090017.525373353], "height_m": 3.0}, {"min_proj": [392877.1626286885, 6090005.939132125], "max_proj": [392888.3193563207, 6090016.854002018], "height_m": 3.0}, {"min_proj": [392866.68299507437, 6090006.66838924], "max_proj": [392877.0137498188, 6090017.035088919], "height_m": 3.0}, {"min_proj": [392819.5937008338, 6090009.449512603], "max_proj": [392833.24019276834, 6090022.816224964], "height_m": 3.0}, {"min_proj": [392783.7981768433, 6090011.637127619], "max_proj": [392798.0572656255, 6090025.699192569], "height_m": 3.0}, {"min_proj": [392794.6629719477, 6090023.866812752], "max_proj": [392809.784244104, 6090038.779056258], "height_m": 3.0}, {"min_proj": [392839.78488826996, 6090032.137531054], "max_proj": [392852.87347308424, 6090045.053356731], "height_m": 3.0}, {"min_proj": [392744.30587223044, 6090033.561630811], "max_proj": [392759.63604898355, 6090048.677400323], "height_m": 3.0}, {"min_proj": [392804.0883705269, 6090034.644773238], "max_proj": [392819.00184621976, 6090049.219157804], "height_m": 3.0}, {"min_proj": [393013.26398065477, 6089937.199716435], "max_proj": [393024.23487536603, 6089945.715737474], "height_m": 3.0}, {"min_proj": [393051.18309363327, 6089938.482249933], "max_proj": [393057.8472825871, 6089945.043156464], "height_m": 3.0}, {"min_proj": [393024.6893896974, 6089942.959473164], "max_proj": [393036.8150620802, 6089954.992488318], "height_m": 3.0}, {"min_proj": [393044.6160199697, 6089944.662632298], "max_proj": [393054.165791382, 6089954.381148605], "height_m": 3.0}, {"min_proj": [393115.0138535432, 6089947.521174939], "max_proj": [393125.70347796753, 6089958.133640472], "height_m": 3.0}, {"min_proj": [393054.9121892083, 6089948.157018681], "max_proj": [393069.9812387306, 6089962.865586441], "height_m": 3.0}, {"min_proj": [393028.57120964193, 6089953.105973515], "max_proj": [393036.40294225, 6089960.793876112], "height_m": 3.0}, {"min_proj": [393099.8407983696, 6089952.652243298], "max_proj": [393117.32763787854, 6089967.768062642], "height_m": 3.0}, {"min_proj": [393035.14029031433, 6089953.283570483], "max_proj": [393049.33067835716, 6089967.186734641], "height_m": 3.0}, {"min_proj": [393043.6365131651, 6089964.403862493], "max_proj": [393054.8358406065, 6089975.370255159], "height_m": 3.0}, {"min_proj": [393134.8967523962, 6089947.377344374], "max_proj": [393155.14363536774, 6089966.422697079], "height_m": 3.0}, {"min_proj": [393123.77737418417, 6089968.691033545], "max_proj": [393135.71413119166, 6089980.678967296], "height_m": 3.0}, {"min_proj": [393141.24200533197, 6089987.146494926], "max_proj": [393154.04265987227, 6089999.966551392], "height_m": 3.0}, {"min_proj": [393125.9547263456, 6089998.369247836], "max_proj": [393136.9054494789, 6090009.243860764], "height_m": 3.0}, {"min_proj": [393133.9129618697, 6090006.906751642], "max_proj": [393146.0909878778, 6090019.055732134], "height_m": 3.0}, {"min_proj": [393122.15993304655, 6090044.6374098305], "max_proj": [393134.35202322423, 6090056.851643407], "height_m": 3.0}, {"min_proj": [393133.8749740652, 6090056.513690786], "max_proj": [393146.3241253181, 6090069.013425088], "height_m": 3.0}, {"min_proj": [393142.04136928386, 6090062.34823303], "max_proj": [393157.6668735723, 6090078.06549847], "height_m": 3.0}, {"min_proj": [392619.8446941363, 6089955.321016742], "max_proj": [392634.36233829486, 6089969.371127267], "height_m": 3.0}, {"min_proj": [392676.64271816856, 6089957.810683605], "max_proj": [392692.3063862265, 6089973.340264345], "height_m": 3.0}, {"min_proj": [392599.06392777065, 6089962.083678123], "max_proj": [392610.5253321851, 6089973.440900313], "height_m": 3.0}, {"min_proj": [392735.1873036926, 6089962.983404897], "max_proj": [392751.5018612059, 6089979.130939355], "height_m": 3.0}, {"min_proj": [392563.6194571449, 6089966.3093204545], "max_proj": [392575.55746306776, 6089978.138921008], "height_m": 3.0}, {"min_proj": [392574.87773115246, 6089968.598859683], "max_proj": [392585.4963767674, 6089978.992951325], "height_m": 3.0}, {"min_proj": [392627.7074608355, 6089969.741402062], "max_proj": [392648.0003142009, 6089989.214131686], "height_m": 3.0}, {"min_proj": [392685.8853112383, 6089973.664507714], "max_proj": [392701.96307061915, 6089989.640904333], "height_m": 3.0}, {"min_proj": [392574.1540975288, 6089979.958779903], "max_proj": [392584.9861834148, 6089990.751401797], "height_m": 3.0}, {"min_proj": [392644.2959233, 6089983.328201122], "max_proj": [392661.80259030696, 6090000.348116137], "height_m": 3.0}, {"min_proj": [392514.11340679304, 6089960.123700289], "max_proj": [392529.1995962666, 6089975.736002663], "height_m": 3.0}, {"min_proj": [392455.87028117187, 6089963.985940277], "max_proj": [392464.71777057124, 6089972.701638796], "height_m": 3.0}, {"min_proj": [392483.13491514337, 6089967.077211051], "max_proj": [392490.89707736124, 6089974.595840717], "height_m": 3.0}, {"min_proj": [392412.70646596176, 6089964.927781641], "max_proj": [392427.6623211258, 6089979.507300182], "height_m": 3.0}, {"min_proj": [392463.03232649923, 6089967.85208215], "max_proj": [392478.0264341034, 6089983.083886396], "height_m": 3.0}, {"min_proj": [392506.3023978248, 6089971.861702306], "max_proj": [392516.72301266214, 6089982.451739956], "height_m": 3.0}, {"min_proj": [392523.64855102357, 6089970.7896199], "max_proj": [392544.85428902565, 6089991.962599069], "height_m": 3.0}, {"min_proj": [392496.44432710693, 6089978.615720116], "max_proj": [392509.9631677516, 6089992.216254736], "height_m": 3.0}, {"min_proj": [392423.7611507074, 6089980.321790907], "max_proj": [392439.2077491583, 6089995.532648192], "height_m": 3.0}, {"min_proj": [392380.01654254994, 6089981.140206424], "max_proj": [392397.02444324596, 6089997.967885998], "height_m": 3.0}, {"min_proj": [392486.25674728747, 6089989.047906798], "max_proj": [392501.9659228431, 6090001.868330565], "height_m": 3.0}, {"min_proj": [392535.5765071674, 6089986.9740726305], "max_proj": [392555.8965471046, 6090006.643679042], "height_m": 3.0}, {"min_proj": [392414.76819186, 6089994.650157328], "max_proj": [392427.407211441, 6090007.43046212], "height_m": 3.0}, {"min_proj": [392390.634627709, 6089995.76279562], "max_proj": [392404.15364899335, 6090009.08105588], "height_m": 3.0}, {"min_proj": [392500.2230732112, 6089998.342962337], "max_proj": [392510.834702836, 6090008.7477580225], "height_m": 3.0}, {"min_proj": [392432.10045793734, 6089997.312914632], "max_proj": [392447.27490949683, 6090012.769954235], "height_m": 3.0}, {"min_proj": [392395.30511582136, 6090007.024132609], "max_proj": [392403.1448568105, 6090014.753373903], "height_m": 3.0}, {"min_proj": [392421.02946832124, 6090005.1886099065], "max_proj": [392433.9944857353, 6090017.98044197], "height_m": 3.0}, {"min_proj": [392402.08929462713, 6090006.206054534], "max_proj": [392417.83089506545, 6090021.546164499], "height_m": 3.0}, {"min_proj": [392553.09321706253, 6090004.757011096], "max_proj": [392569.82979276613, 6090025.4427246675], "height_m": 3.0}, {"min_proj": [392288.7809618411, 6089944.952657515], "max_proj": [392302.7815845689, 6089958.868086178], "height_m": 6.0}, {"min_proj": [392348.1466958403, 6089949.355361111], "max_proj": [392360.51858953986, 6089961.482329528], "height_m": 3.0}, {"min_proj": [392358.1274240329, 6089957.395236246], "max_proj": [392374.835964135, 6089973.632157449], "height_m": 3.0}, {"min_proj": [392204.47734987846, 6089954.36781895], "max_proj": [392237.61221369874, 6089987.657537797], "height_m": 3.0}, {"min_proj": [392369.9505322457, 6089973.616348765], "max_proj": [392382.37575021933, 6089985.83528502], "height_m": 3.0}, {"min_proj": [392244.965671998, 6089977.223306281], "max_proj": [392270.6504377922, 6090003.322969466], "height_m": 3.0}, {"min_proj": [392328.66194607556, 6089988.439102066], "max_proj": [392344.56338449963, 6090001.860022038], "height_m": 3.0}, {"min_proj": [392225.91213807854, 6090001.270868624], "max_proj": [392269.4832254215, 6090046.356745476], "height_m": 3.0}, {"min_proj": [392321.5784730323, 6090010.389803577], "max_proj": [392366.9400015362, 6090050.222184673], "height_m": 3.0}, {"min_proj": [392252.1951699699, 6089998.415717889], "max_proj": [392321.1778975314, 6090069.695600233], "height_m": 3.0}, {"min_proj": [392702.8647818429, 6089992.476220531], "max_proj": [392715.4891370984, 6090004.910697552], "height_m": 3.0}, {"min_proj": [392590.41513579275, 6089996.573012679], "max_proj": [392602.13309648016, 6090008.4262274625], "height_m": 3.0}, {"min_proj": [392657.30301826395, 6089995.394276702], "max_proj": [392674.68393872824, 6090012.331769767], "height_m": 3.0}, {"min_proj": [392606.9549378381, 6089997.061557811], "max_proj": [392624.28839714587, 6090014.447329043], "height_m": 3.0}, {"min_proj": [392709.03929199115, 6090001.89519195], "max_proj": [392718.0241677826, 6090010.779603285], "height_m": 3.0}, {"min_proj": [392597.5912829667, 6090006.984956482], "max_proj": [392605.1487198603, 6090014.435663437], "height_m": 3.0}, {"min_proj": [392718.9353675941, 6090008.075102823], "max_proj": [392729.73515138665, 6090018.732930849], "height_m": 3.0}, {"min_proj": [392664.5400798004, 6090008.282227505], "max_proj": [392684.31334828236, 6090028.062810692], "height_m": 3.0}, {"min_proj": [392562.2187765869, 6090015.244293104], "max_proj": [392580.18267555186, 6090032.447914748], "height_m": 3.0}, {"min_proj": [392731.1747778605, 6090017.512858039], "max_proj": [392747.49830126285, 6090033.892379206], "height_m": 3.0}, {"min_proj": [392502.65416008455, 6090009.341830023], "max_proj": [392516.9355971299, 6090022.959793839], "height_m": 3.0}, {"min_proj": [392456.42937581387, 6090011.358102368], "max_proj": [392472.3537864869, 6090026.762347147], "height_m": 3.0}, {"min_proj": [392508.9965585754, 6090014.534904139], "max_proj": [392524.0958781918, 6090032.061553594], "height_m": 3.0}, {"min_proj": [392413.0670437761, 6090021.013523939], "max_proj": [392427.4116250482, 6090035.045363106], "height_m": 3.0}, {"min_proj": [392471.0823207737, 6090023.6573556475], "max_proj": [392483.3438532925, 6090035.700967995], "height_m": 3.0}, {"min_proj": [392524.8139376845, 6090029.489557327], "max_proj": [392538.8727378893, 6090043.501732726], "height_m": 3.0}, {"min_proj": [392441.031628343, 6090031.8692531595], "max_proj": [392453.6214461254, 6090044.72040862], "height_m": 3.0}, {"min_proj": [392485.4977217945, 6090037.789332395], "max_proj": [392495.8610823008, 6090047.975057382], "height_m": 3.0}, {"min_proj": [392429.5833869394, 6090037.779644797], "max_proj": [392445.97206805454, 6090051.742345966], "height_m": 3.0}, {"min_proj": [392529.456109236, 6090041.4798171865], "max_proj": [392540.3555971279, 6090052.0378001295], "height_m": 3.0}, {"min_proj": [392370.5795308063, 6090038.614009814], "max_proj": [392388.19038311136, 6090056.545019933], "height_m": 3.0}, {"min_proj": [392475.45916525257, 6090041.956125081], "max_proj": [392488.417681291, 6090054.747927787], "height_m": 3.0}, {"min_proj": [392451.25988928153, 6090043.482993197], "max_proj": [392464.2183964298, 6090056.274809376], "height_m": 3.0}, {"min_proj": [392552.85183265683, 6090047.2313678125], "max_proj": [392563.9191642837, 6090058.04091787], "height_m": 3.0}, {"min_proj": [392533.8196978275, 6090046.832276588], "max_proj": [392549.32133524306, 6090062.196106449], "height_m": 3.0}, {"min_proj": [392491.44920573395, 6090052.555624755], "max_proj": [392508.33953923587, 6090066.824061744], "height_m": 3.0}, {"min_proj": [392460.7157705426, 6090054.321895697], "max_proj": [392473.6739810101, 6090067.102580703], "height_m": 3.0}, {"min_proj": [392546.00419893273, 6090058.537932763], "max_proj": [392560.2686902978, 6090073.322687722], "height_m": 3.0}, {"min_proj": [392445.4253078904, 6090061.610126582], "max_proj": [392464.6671808229, 6090076.168048304], "height_m": 3.0}, {"min_proj": [392491.5055479664, 6090065.545365388], "max_proj": [392498.9467861559, 6090072.858230431], "height_m": 3.0}, {"min_proj": [392207.6072086439, 6090029.866126354], "max_proj": [392246.9981224525, 6090063.005488174], "height_m": 3.0}, {"min_proj": [392341.8585361751, 6090056.06034614], "max_proj": [392376.37500353716, 6090083.210835363], "height_m": 3.0}, {"min_proj": [392276.31220839714, 6090057.58697624], "max_proj": [392304.57843245385, 6090086.130534827], "height_m": 3.0}, {"min_proj": [392327.42975506687, 6090071.864723225], "max_proj": [392348.2637226627, 6090091.316703073], "height_m": 3.0}, {"min_proj": [392246.53095043934, 6090062.810391905], "max_proj": [392268.5354283287, 6090101.470384302], "height_m": 3.0}, {"min_proj": [392227.6968460747, 6090066.039972895], "max_proj": [392255.0597808238, 6090105.986611666], "height_m": 6.0}, {"min_proj": [392294.38072628086, 6090079.970764993], "max_proj": [392333.84137291554, 6090109.9008176215], "height_m": 3.0}, {"min_proj": [392292.41321520024, 6090083.77425278], "max_proj": [392368.9789603943, 6090138.965370595], "height_m": 3.0}, {"min_proj": [392282.880164787, 6090109.9008176215], "max_proj": [392303.77766283724, 6090125.265987233], "height_m": 3.0}, {"min_proj": [392369.6983484255, 6090109.477430699], "max_proj": [392382.218311467, 6090126.183308703], "height_m": 3.0}, {"min_proj": [392472.6768433481, 6090065.946637797], "max_proj": [392485.64169369574, 6090078.738442607], "height_m": 3.0}, {"min_proj": [392499.82341170486, 6090065.234327928], "max_proj": [392519.15541832923, 6090081.063596097], "height_m": 3.0}, {"min_proj": [392559.6210944238, 6090074.475861112], "max_proj": [392572.6718821703, 6090087.255813902], "height_m": 3.0}, {"min_proj": [392517.0536438329, 6090075.871658272], "max_proj": [392531.34420614294, 6090089.8977793045], "height_m": 3.0}, {"min_proj": [392465.0718999462, 6090078.852335455], "max_proj": [392479.64928821975, 6090093.111103303], "height_m": 3.0}, {"min_proj": [392475.03916547465, 6090084.87810547], "max_proj": [392483.0554289813, 6090092.675883394], "height_m": 3.0}, {"min_proj": [392469.8278234662, 6090090.178721833], "max_proj": [392476.97333992133, 6090097.175698207], "height_m": 3.0}, {"min_proj": [392526.78254363453, 6090089.3356264895], "max_proj": [392541.1685980171, 6090103.239743208], "height_m": 3.0}, {"min_proj": [392474.8636445723, 6090091.39836448], "max_proj": [392489.0903686284, 6090105.485939056], "height_m": 3.0}, {"min_proj": [392482.8140407663, 6090100.626244709], "max_proj": [392493.39393074345, 6090111.004214753], "height_m": 3.0}, {"min_proj": [392074.56317847525, 6090029.571557714], "max_proj": [392085.1939705298, 6090040.225640794], "height_m": 3.0}, {"min_proj": [392064.7241536167, 6090036.598762081], "max_proj": [392073.0773503998, 6090044.882021662], "height_m": 3.0}, {"min_proj": [392078.84421885625, 6090036.519254685], "max_proj": [392092.6477270763, 6090050.373237021], "height_m": 3.0}, {"min_proj": [392085.77089285955, 6090056.412694692], "max_proj": [392094.76959521836, 6090064.675416803], "height_m": 3.0}, {"min_proj": [392108.01095200237, 6090065.54376683], "max_proj": [392123.23823435436, 6090079.551914976], "height_m": 3.0}, {"min_proj": [392173.82437131077, 6090036.993968146], "max_proj": [392215.61266188574, 6090121.31271686], "height_m": 3.0}, {"min_proj": [392063.2137672415, 6090073.773651371], "max_proj": [392087.2368034344, 6090100.281598567], "height_m": 3.0}, {"min_proj": [392087.1413836193, 6090104.592197961], "max_proj": [392099.8262989763, 6090114.71354594], "height_m": 3.0}, {"min_proj": [392155.9546257431, 6090094.9434905555], "max_proj": [392188.8177844117, 6090153.769950177], "height_m": 3.0}, {"min_proj": [392148.2453881735, 6090131.086492803], "max_proj": [392174.89453930594, 6090153.505268741], "height_m": 3.0}, {"min_proj": [392968.0753345719, 6090002.434933458], "max_proj": [392986.46411571046, 6090017.429443522], "height_m": 3.0}, {"min_proj": [392932.1933569019, 6090010.927457347], "max_proj": [392943.4471208269, 6090021.824288411], "height_m": 3.0}, {"min_proj": [392985.6683706137, 6090014.547066896], "max_proj": [392999.64780549577, 6090028.354585929], "height_m": 3.0}, {"min_proj": [392938.71881173074, 6090015.959848816], "max_proj": [392952.864271512, 6090029.892578545], "height_m": 3.0}, {"min_proj": [392890.79071629094, 6090021.785133439], "max_proj": [392903.1364380301, 6090033.948481336], "height_m": 3.0}, {"min_proj": [392968.0381191266, 6090022.422544766], "max_proj": [392984.0924837271, 6090039.094550671], "height_m": 3.0}, {"min_proj": [392903.2189743858, 6090035.103308116], "max_proj": [392915.0583183655, 6090046.855303011], "height_m": 3.0}, {"min_proj": [392957.00168024306, 6090034.481895898], "max_proj": [392978.9384106925, 6090052.552628612], "height_m": 3.0}, {"min_proj": [392998.8837320634, 6090049.7340888465], "max_proj": [393010.24157448416, 6090060.919347218], "height_m": 3.0}, {"min_proj": [392920.08080494154, 6090050.832529337], "max_proj": [392932.4916379119, 6090063.003094923], "height_m": 3.0}, {"min_proj": [392570.99434859527, 6090021.899419127], "max_proj": [392586.58439595683, 6090037.396665542], "height_m": 3.0}, {"min_proj": [392619.2009329799, 6090023.705188819], "max_proj": [392631.75125056616, 6090036.069895057], "height_m": 3.0}, {"min_proj": [392637.9780485843, 6090025.701860184], "max_proj": [392648.9172426268, 6090036.730062237], "height_m": 3.0}, {"min_proj": [392690.3645366837, 6090025.655839545], "max_proj": [392703.5801779602, 6090038.631963077], "height_m": 3.0}, {"min_proj": [392584.61092356447, 6090029.175278605], "max_proj": [392592.97847467166, 6090037.511936634], "height_m": 3.0}, {"min_proj": [392738.77208970394, 6090030.293515325], "max_proj": [392750.1087831428, 6090041.429425275], "height_m": 3.0}, {"min_proj": [392703.490207747, 6090033.845435851], "max_proj": [392710.46320383437, 6090040.717390408], "height_m": 3.0}, {"min_proj": [392586.2812700792, 6090036.2224317165], "max_proj": [392597.80469355895, 6090047.519891429], "height_m": 3.0}, {"min_proj": [392631.9395390912, 6090035.422740736], "max_proj": [392647.9975871049, 6090050.608519176], "height_m": 3.0}, {"min_proj": [392698.86585144955, 6090039.71572121], "max_proj": [392719.3223498448, 6090061.545767864], "height_m": 3.0}, {"min_proj": [393108.5273455912, 6090026.5997744985], "max_proj": [393124.26887587307, 6090042.402218196], "height_m": 3.0}, {"min_proj": [393055.9574305995, 6090030.052193056], "max_proj": [393069.32969539665, 6090043.039659217], "height_m": 3.0}, {"min_proj": [393013.2248842724, 6090035.101926755], "max_proj": [393027.3738537298, 6090049.095318213], "height_m": 3.0}, {"min_proj": [393074.91926018655, 6090047.356998002], "max_proj": [393085.8979163624, 6090058.084218225], "height_m": 3.0}, {"min_proj": [393056.961177242, 6090046.273058435], "max_proj": [393074.9214124391, 6090064.211600041], "height_m": 3.0}, {"min_proj": [393086.59706311126, 6090055.796230242], "max_proj": [393094.0536498381, 6090063.098787409], "height_m": 3.0}, {"min_proj": [393086.62397677003, 6090061.95418495], "max_proj": [393099.13990136306, 6090072.922602599], "height_m": 3.0}, {"min_proj": [393079.6769602094, 6090067.404380743], "max_proj": [393089.10886699107, 6090076.610185485], "height_m": 3.0}, {"min_proj": [393051.0965592993, 6090063.602220655], "max_proj": [393068.4667734948, 6090081.152708124], "height_m": 3.0}, {"min_proj": [393028.83709327684, 6090070.260831701], "max_proj": [393043.66487459233, 6090084.957361767], "height_m": 3.0}, {"min_proj": [392854.67611505376, 6090035.821677054], "max_proj": [392867.2789602716, 6090048.5503459545], "height_m": 3.0}, {"min_proj": [392758.8927451906, 6090038.360343388], "max_proj": [392773.2387888397, 6090052.44418571], "height_m": 3.0}, {"min_proj": [392848.8930169593, 6090042.416492117], "max_proj": [392860.5845681457, 6090053.965272073], "height_m": 3.0}, {"min_proj": [392817.9070530662, 6090046.575735664], "max_proj": [392830.9614394199, 6090059.449060479], "height_m": 3.0}, {"min_proj": [392768.22184888204, 6090052.199497154], "max_proj": [392786.964668946, 6090069.87029041], "height_m": 3.0}, {"min_proj": [392860.73615944263, 6090054.72968081], "max_proj": [392875.18774360116, 6090069.263294222], "height_m": 3.0}, {"min_proj": [392828.6152662215, 6090056.417613805], "max_proj": [392840.45759785647, 6090068.0716463365], "height_m": 3.0}, {"min_proj": [392802.8841314674, 6090061.271785436], "max_proj": [392816.2893839793, 6090074.786316309], "height_m": 3.0}, {"min_proj": [392776.40640038357, 6090062.738564425], "max_proj": [392790.6180141303, 6090076.837822544], "height_m": 3.0}, {"min_proj": [392842.2731173392, 6090071.237765398], "max_proj": [392857.7987096396, 6090086.876185002], "height_m": 3.0}, {"min_proj": [392596.9579567613, 6090046.170981066], "max_proj": [392610.77470651024, 6090059.782217717], "height_m": 3.0}, {"min_proj": [392648.67483636783, 6090051.719619275], "max_proj": [392663.2812526615, 6090066.019476324], "height_m": 3.0}, {"min_proj": [392606.1259160029, 6090053.078346977], "max_proj": [392622.2518760597, 6090069.368461113], "height_m": 3.0}, {"min_proj": [392662.5378946753, 6090055.820328585], "max_proj": [392675.7530408331, 6090069.036464714], "height_m": 3.0}, {"min_proj": [392715.7948081189, 6090056.105084577], "max_proj": [392730.0752931953, 6090070.283936305], "height_m": 3.0}, {"min_proj": [392664.80561761896, 6090068.923191098], "max_proj": [392680.35204608814, 6090084.435518996], "height_m": 3.0}, {"min_proj": [392680.79697891633, 6090073.109790825], "max_proj": [392693.83151795936, 6090086.122708601], "height_m": 3.0}, {"min_proj": [392621.83883941406, 6090074.37567269], "max_proj": [392635.2397378647, 6090087.594179027], "height_m": 3.0}, {"min_proj": [392729.96840965614, 6090073.399827787], "max_proj": [392750.1602928562, 6090092.90342543], "height_m": 3.0}, {"min_proj": [392710.7187065944, 6090078.873027951], "max_proj": [392728.28372080636, 6090093.500993194], "height_m": 3.0}, {"min_proj": [392999.28055648983, 6090061.416403837], "max_proj": [393006.54028816236, 6090068.653287178], "height_m": 3.0}, {"min_proj": [392980.3781916823, 6090056.068265489], "max_proj": [392999.66992908437, 6090077.6776760435], "height_m": 3.0}, {"min_proj": [392935.2528763738, 6090065.6264164345], "max_proj": [392946.4204909379, 6090076.692403052], "height_m": 3.0}, {"min_proj": [392885.33162775583, 6090073.193862868], "max_proj": [392901.35856626695, 6090088.905738722], "height_m": 3.0}, {"min_proj": [392901.32022667193, 6090077.41394501], "max_proj": [392918.92365575087, 6090095.183516001], "height_m": 3.0}, {"min_proj": [392999.4880055153, 6090083.180026993], "max_proj": [393012.71235733136, 6090096.42186824], "height_m": 3.0}, {"min_proj": [392954.47817911574, 6090085.683115693], "max_proj": [392971.669390767, 6090102.842192598], "height_m": 3.0}, {"min_proj": [392903.6004240101, 6090093.839139903], "max_proj": [392913.78506972955, 6090104.208676422], "height_m": 3.0}, {"min_proj": [392887.43068806344, 6090107.330404949], "max_proj": [392898.4708290681, 6090118.566398329], "height_m": 3.0}, {"min_proj": [392975.058885607, 6090106.368411878], "max_proj": [392989.1721882574, 6090120.545282599], "height_m": 3.0}, {"min_proj": [392632.52319713554, 6090081.491581127], "max_proj": [392644.4420167061, 6090092.092882186], "height_m": 3.0}, {"min_proj": [392578.08568560454, 6090082.470331682], "max_proj": [392589.1926451461, 6090093.563060467], "height_m": 3.0}, {"min_proj": [392739.12451547396, 6090087.821903462], "max_proj": [392753.79826346243, 6090102.198905555], "height_m": 3.0}, {"min_proj": [392684.0139578321, 6090089.327661215], "max_proj": [392697.3999335081, 6090104.624666555], "height_m": 3.0}, {"min_proj": [392574.0885615605, 6090095.914544646], "max_proj": [392583.2229493425, 6090104.894079442], "height_m": 3.0}, {"min_proj": [392608.71241109143, 6090097.187442958], "max_proj": [392619.4582226787, 6090108.0903369365], "height_m": 3.0}, {"min_proj": [392624.0174318787, 6090093.230736496], "max_proj": [392643.29109718127, 6090112.445417036], "height_m": 3.0}, {"min_proj": [392716.42672811163, 6090100.136815151], "max_proj": [392731.6580129946, 6090115.02605004], "height_m": 3.0}, {"min_proj": [392691.38432964275, 6090103.922169149], "max_proj": [392699.7747167699, 6090112.213680228], "height_m": 3.0}, {"min_proj": [392584.1634287997, 6090101.60670908], "max_proj": [392600.5735146644, 6090117.859461969], "height_m": 3.0}, {"min_proj": [392789.1761458609, 6090079.1988055585], "max_proj": [392803.96018659964, 6090093.785331297], "height_m": 3.0}, {"min_proj": [392852.37443508825, 6090084.929563334], "max_proj": [392865.365944526, 6090098.155486551], "height_m": 3.0}, {"min_proj": [392863.7711414262, 6090093.50487215], "max_proj": [392876.2333093563, 6090105.75790958], "height_m": 3.0}, {"min_proj": [392763.6428875317, 6090096.711244046], "max_proj": [392771.4227418393, 6090104.40237818], "height_m": 3.0}, {"min_proj": [392830.9264701889, 6090095.136598508], "max_proj": [392842.9419370748, 6090107.165540651], "height_m": 3.0}, {"min_proj": [392802.0731333232, 6090095.303357117], "max_proj": [392814.6795395206, 6090107.797216131], "height_m": 3.0}, {"min_proj": [392823.0594267008, 6090103.214766416], "max_proj": [392832.681286188, 6090112.791000589], "height_m": 3.0}, {"min_proj": [392815.0649069227, 6090108.985990569], "max_proj": [392826.78336223826, 6090120.700084376], "height_m": 3.0}, {"min_proj": [392764.54216979875, 6090111.131948733], "max_proj": [392773.0328297847, 6090119.601029557], "height_m": 3.0}, {"min_proj": [392861.1609511832, 6090116.106694241], "max_proj": [392872.6607531133, 6090127.433455106], "height_m": 3.0}, {"min_proj": [393093.4873404137, 6090075.1789756175], "max_proj": [393108.2451765811, 6090089.602574215], "height_m": 3.0}, {"min_proj": [393103.1310370683, 6090083.033868903], "max_proj": [393117.85928215255, 6090096.851333182], "height_m": 3.0}, {"min_proj": [393113.5223711039, 6090087.879814867], "max_proj": [393124.1656053616, 6090098.387010674], "height_m": 3.0}, {"min_proj": [393082.9175957292, 6090086.026139056], "max_proj": [393095.6247181668, 6090100.799058592], "height_m": 3.0}, {"min_proj": [393007.9331365138, 6090090.746793811], "max_proj": [393022.09488429164, 6090104.983433937], "height_m": 3.0}, {"min_proj": [393120.06928693113, 6090094.472027931], "max_proj": [393129.2064722498, 6090103.430411814], "height_m": 3.0}, {"min_proj": [393019.38625180663, 6090100.031635529], "max_proj": [393033.4235714956, 6090115.939170307], "height_m": 3.0}, {"min_proj": [393030.53097945696, 6090114.934759027], "max_proj": [393043.36782680376, 6090127.8074692795], "height_m": 3.0}, {"min_proj": [393105.31971266493, 6090123.414417264], "max_proj": [393115.79266788013, 6090133.349238019], "height_m": 3.0}, {"min_proj": [393080.4364648917, 6090124.848396939], "max_proj": [393093.1154128609, 6090137.012906881], "height_m": 3.0}, {"min_proj": [392698.5149576153, 6090103.765428294], "max_proj": [392712.460569547, 6090117.306402357], "height_m": 3.0}, {"min_proj": [392744.532244055, 6090104.806405546], "max_proj": [392756.47822190594, 6090116.5595555715], "height_m": 3.0}, {"min_proj": [392607.708224926, 6090109.284979551], "max_proj": [392617.93664984347, 6090119.476408675], "height_m": 3.0}, {"min_proj": [392723.74000035436, 6090107.850043889], "max_proj": [392738.1922934967, 6090122.010180129], "height_m": 3.0}, {"min_proj": [392659.72038413474, 6090111.565163524], "max_proj": [392673.3573628653, 6090124.987057971], "height_m": 3.0}, {"min_proj": [392594.2878610788, 6090112.742307781], "max_proj": [392609.1608031264, 6090128.799387042], "height_m": 3.0}, {"min_proj": [392706.64551911707, 6090116.611591694], "max_proj": [392717.26382524526, 6090127.016745184], "height_m": 3.0}, {"min_proj": [392647.687391783, 6090120.3847345505], "max_proj": [392656.50354129507, 6090129.327668881], "height_m": 3.0}, {"min_proj": [392602.06054465513, 6090120.852371123], "max_proj": [392617.1912848459, 6090135.815552021], "height_m": 3.0}, {"min_proj": [392670.68406658777, 6090123.426298187], "max_proj": [392686.39679138554, 6090139.013050471], "height_m": 3.0}, {"min_proj": [393120.3850533592, 6090099.600827492], "max_proj": [393136.4146510925, 6090115.266128856], "height_m": 3.0}, {"min_proj": [393127.0223202182, 6090118.609958489], "max_proj": [393135.9157134765, 6090127.3930246495], "height_m": 3.0}, {"min_proj": [393133.27973715885, 6090115.689907568], "max_proj": [393151.6816227616, 6090136.836591552], "height_m": 3.0}, {"min_proj": [393128.16081423266, 6090142.277369584], "max_proj": [393146.4904127104, 6090157.657921344], "height_m": 3.0}, {"min_proj": [393144.47003171267, 6090170.169575186], "max_proj": [393161.0478571492, 6090183.936833594], "height_m": 3.0}, {"min_proj": [393141.5924026713, 6090176.825534677], "max_proj": [393149.11382916913, 6090184.2935955785], "height_m": 3.0}, {"min_proj": [393131.83912438573, 6090185.3868528735], "max_proj": [393139.43988389685, 6090193.0056164], "height_m": 3.0}, {"min_proj": [393132.8639703671, 6090201.966309585], "max_proj": [393144.891249268, 6090213.966461679], "height_m": 3.0}, {"min_proj": [393126.34411160304, 6090207.599441234], "max_proj": [393133.34350510745, 6090214.642132683], "height_m": 3.0}, {"min_proj": [393144.9873641524, 6090212.0814580815], "max_proj": [393151.6471834743, 6090218.7085302835], "height_m": 3.0}, {"min_proj": [393136.404764788, 6090218.807427754], "max_proj": [393143.7125486758, 6090226.046986273], "height_m": 3.0}, {"min_proj": [393130.62225695996, 6090222.936512752], "max_proj": [393139.60177165444, 6090231.883788429], "height_m": 3.0}, {"min_proj": [393139.8182570831, 6090226.954856823], "max_proj": [393152.246386064, 6090239.52350018], "height_m": 3.0}, {"min_proj": [393143.0509009295, 6090232.209122573], "max_proj": [393159.8209220889, 6090247.215475177], "height_m": 3.0}, {"min_proj": [392934.64610325324, 6090106.70964632], "max_proj": [392949.0948707443, 6090121.079971852], "height_m": 3.0}, {"min_proj": [392966.25380911503, 6090114.159613492], "max_proj": [392978.96160856175, 6090126.856666465], "height_m": 3.0}, {"min_proj": [392883.2484075549, 6090116.9737089425], "max_proj": [392892.11025103205, 6090126.029884329], "height_m": 3.0}, {"min_proj": [392935.53804335464, 6090123.01364947], "max_proj": [392945.6309789864, 6090133.113911189], "height_m": 3.0}, {"min_proj": [392997.82306184253, 6090125.448064906], "max_proj": [393005.642556694, 6090133.314157552], "height_m": 3.0}, {"min_proj": [392980.0356388876, 6090123.214278321], "max_proj": [392995.6380072871, 6090138.760861878], "height_m": 3.0}, {"min_proj": [392919.36565224966, 6090125.622549977], "max_proj": [392937.1500195523, 6090143.328782536], "height_m": 3.0}, {"min_proj": [392996.64825338696, 6090129.619798798], "max_proj": [393014.3259298287, 6090149.52021208], "height_m": 3.0}, {"min_proj": [392903.6746298558, 6090140.496693547], "max_proj": [392910.29366424336, 6090147.049532074], "height_m": 3.0}, {"min_proj": [392951.0874530048, 6090141.414264584], "max_proj": [392969.991927362, 6090157.373154893], "height_m": 3.0}, {"min_proj": [392768.7025424594, 6090113.341406974], "max_proj": [392791.748065822, 6090130.458562175], "height_m": 3.0}, {"min_proj": [392836.8609734301, 6090117.270346857], "max_proj": [392847.4792901836, 6090127.675433892], "height_m": 3.0}, {"min_proj": [392872.20838339464, 6090124.302645003], "max_proj": [392883.4032659784, 6090135.693784335], "height_m": 3.0}, {"min_proj": [392791.4826045475, 6090124.785132584], "max_proj": [392802.0486951792, 6090135.435231961], "height_m": 3.0}, {"min_proj": [392837.58411823394, 6090129.995078749], "max_proj": [392850.77631484205, 6090145.39194363], "height_m": 3.0}, {"min_proj": [392795.3682460357, 6090135.161015815], "max_proj": [392809.80515409855, 6090147.947450093], "height_m": 3.0}, {"min_proj": [392844.0751603041, 6090139.329536633], "max_proj": [392854.04068430385, 6090148.970846815], "height_m": 3.0}, {"min_proj": [392805.3456428069, 6090143.104054585], "max_proj": [392817.26531682163, 6090156.228305684], "height_m": 3.0}, {"min_proj": [392849.93185393687, 6090142.7650285605], "max_proj": [392864.70320005674, 6090157.297312133], "height_m": 3.0}, {"min_proj": [392808.8445890085, 6090150.852987489], "max_proj": [392824.4392046352, 6090164.875458835], "height_m": 3.0}, {"min_proj": [392720.6684457766, 6090131.54038292], "max_proj": [392728.21607786807, 6090138.987828223], "height_m": 3.0}, {"min_proj": [392560.4497965248, 6090129.697662598], "max_proj": [392577.77145214163, 6090146.212627576], "height_m": 3.0}, {"min_proj": [392725.28603913786, 6090133.162118274], "max_proj": [392740.2248661864, 6090147.978072881], "height_m": 3.0}, {"min_proj": [392567.1277070296, 6090136.961718664], "max_proj": [392585.175602815, 6090152.155751168], "height_m": 3.0}, {"min_proj": [392618.3303267525, 6090138.778375256], "max_proj": [392634.477362108, 6090154.0132643655], "height_m": 3.0}, {"min_proj": [392685.1633977169, 6090141.653192637], "max_proj": [392703.42132731224, 6090159.652751688], "height_m": 3.0}, {"min_proj": [392638.90128018486, 6090146.646928597], "max_proj": [392649.6089661924, 6090157.089243546], "height_m": 3.0}, {"min_proj": [392575.0228236588, 6090145.089469392], "max_proj": [392593.1585324384, 6090162.732105949], "height_m": 3.0}, {"min_proj": [392627.40290870913, 6090147.820179723], "max_proj": [392640.5502083807, 6090160.460404261], "height_m": 3.0}, {"min_proj": [392740.8455573599, 6090146.872376423], "max_proj": [392756.9190630477, 6090162.707890757], "height_m": 3.0}, {"min_proj": [393037.9269474856, 6090122.78665984], "max_proj": [393056.24196202296, 6090140.94631994], "height_m": 3.0}, {"min_proj": [393070.6402986713, 6090138.8045262], "max_proj": [393078.4040866194, 6090146.563486623], "height_m": 3.0}, {"min_proj": [393078.8016519052, 6090140.659990957], "max_proj": [393086.7068307607, 6090148.556562747], "height_m": 3.0}, {"min_proj": [393058.97263726866, 6090142.878851569], "max_proj": [393072.7960544041, 6090156.75006096], "height_m": 3.0}, {"min_proj": [393006.681316646, 6090142.215892971], "max_proj": [393024.19953693287, 6090157.79037852], "height_m": 3.0}, {"min_proj": [393097.9557500143, 6090145.579605916], "max_proj": [393114.7682019607, 6090163.4734763205], "height_m": 3.0}, {"min_proj": [393064.2745808301, 6090155.482875301], "max_proj": [393069.30131728516, 6090160.523406238], "height_m": 3.0}, {"min_proj": [393071.87637374183, 6090153.103439174], "max_proj": [393083.2159290024, 6090166.064264924], "height_m": 3.0}, {"min_proj": [393018.1872213475, 6090153.735629475], "max_proj": [393035.1859470729, 6090170.8751747925], "height_m": 3.0}, {"min_proj": [393082.8261091372, 6090164.5259457715], "max_proj": [393101.5474395418, 6090183.018989376], "height_m": 3.0}, {"min_proj": [392669.68493246555, 6090149.2782806335], "max_proj": [392684.41146153415, 6090164.075117283], "height_m": 3.0}, {"min_proj": [392657.63247408776, 6090156.1519500185], "max_proj": [392669.5419657906, 6090167.831956337], "height_m": 3.0}, {"min_proj": [392636.1673427969, 6090155.069968858], "max_proj": [392657.32834779785, 6090173.033452834], "height_m": 3.0}, {"min_proj": [392747.0269388956, 6090160.665630486], "max_proj": [392755.3909894772, 6090169.053243413], "height_m": 3.0}, {"min_proj": [392595.6879624805, 6090161.432941883], "max_proj": [392606.21197869256, 6090171.764184161], "height_m": 3.0}, {"min_proj": [392705.7361706747, 6090160.610095005], "max_proj": [392720.15472084127, 6090174.647600008], "height_m": 3.0}, {"min_proj": [392605.39478699304, 6090166.888219302], "max_proj": [392612.0820215932, 6090173.494793768], "height_m": 3.0}, {"min_proj": [392691.7479222878, 6090167.687222924], "max_proj": [392701.0688541831, 6090177.10137451], "height_m": 3.0}, {"min_proj": [392593.543366486, 6090170.133539724], "max_proj": [392611.79494858836, 6090183.757139797], "height_m": 3.0}, {"min_proj": [392663.12535819545, 6090173.762065568], "max_proj": [392677.64052773366, 6090187.68042034], "height_m": 3.0}, {"min_proj": [392891.4043594855, 6090147.25415135], "max_proj": [392907.0057447795, 6090162.839896711], "height_m": 3.0}, {"min_proj": [392962.7706873561, 6090159.553729268], "max_proj": [392975.6513234795, 6090172.377258621], "height_m": 3.0}, {"min_proj": [392922.6821104835, 6090166.614637165], "max_proj": [392935.7791897534, 6090179.739324798], "height_m": 3.0}, {"min_proj": [392968.9547565479, 6090172.6840841], "max_proj": [392976.26254920446, 6090180.036054021], "height_m": 3.0}, {"min_proj": [392978.50641423406, 6090173.234777628], "max_proj": [392990.86232633586, 6090185.6438067295], "height_m": 3.0}, {"min_proj": [392890.2499475306, 6090177.127950604], "max_proj": [392902.8986574104, 6090189.789897753], "height_m": 3.0}, {"min_proj": [392943.5078321951, 6090176.725767672], "max_proj": [392961.38917340053, 6090194.468701196], "height_m": 3.0}, {"min_proj": [392901.723693692, 6090183.357495749], "max_proj": [392913.6383639787, 6090195.230781312], "height_m": 3.0}, {"min_proj": [392992.9673920522, 6090181.894255729], "max_proj": [393009.74727369077, 6090201.800576056], "height_m": 3.0}, {"min_proj": [392885.30267473514, 6090185.242147018], "max_proj": [392898.92992958846, 6090198.732330173], "height_m": 3.0}, {"min_proj": [393020.0171026307, 6090169.308866174], "max_proj": [393031.12500301463, 6090180.481481902], "height_m": 3.0}, {"min_proj": [393037.1131045944, 6090167.06638971], "max_proj": [393053.94894513383, 6090186.386475878], "height_m": 3.0}, {"min_proj": [393100.1532889757, 6090176.965583474], "max_proj": [393109.04520241596, 6090185.841259977], "height_m": 3.0}, {"min_proj": [393051.30780252407, 6090180.811698832], "max_proj": [393059.38552116364, 6090188.931834313], "height_m": 3.0}, {"min_proj": [393089.1321392168, 6090178.178086131], "max_proj": [393102.6171428264, 6090191.613161001], "height_m": 3.0}, {"min_proj": [393047.21366123453, 6090186.053419389], "max_proj": [393053.9046566377, 6090192.746713665], "height_m": 3.0}, {"min_proj": [393010.9876474595, 6090187.183850149], "max_proj": [393019.4909138937, 6090195.717933099], "height_m": 3.0}, {"min_proj": [393037.5165089474, 6090186.828102229], "max_proj": [393047.1464633092, 6090196.550727173], "height_m": 3.0}, {"min_proj": [393099.2819205839, 6090183.785365216], "max_proj": [393115.8486868079, 6090200.454975046], "height_m": 3.0}, {"min_proj": [393112.37098890013, 6090188.728900751], "max_proj": [393124.85314786073, 6090201.374421548], "height_m": 3.0}, {"min_proj": [392755.8093380766, 6090153.6330667725], "max_proj": [392776.5411302569, 6090176.004625097], "height_m": 3.0}, {"min_proj": [392784.48132175696, 6090164.33498351], "max_proj": [392795.67209098797, 6090175.8252692055], "height_m": 3.0}, {"min_proj": [392873.5363817341, 6090167.919972883], "max_proj": [392886.3512333722, 6090180.622425157], "height_m": 3.0}, {"min_proj": [392821.6703090751, 6090166.449514565], "max_proj": [392841.5373694113, 6090182.119146609], "height_m": 3.0}, {"min_proj": [392761.03994289576, 6090174.891277478], "max_proj": [392768.7817669436, 6090182.53744905], "height_m": 3.0}, {"min_proj": [392771.04121520784, 6090180.189866241], "max_proj": [392781.6683010834, 6090190.562553664], "height_m": 3.0}, {"min_proj": [392805.61072501686, 6090185.784464413], "max_proj": [392818.9554853665, 6090199.324606512], "height_m": 3.0}, {"min_proj": [392845.48669057793, 6090187.126119968], "max_proj": [392876.4503112057, 6090215.87804948], "height_m": 3.0}, {"min_proj": [392791.26022412203, 6090198.949569723], "max_proj": [392803.9744605798, 6090211.78672332], "height_m": 3.0}, {"min_proj": [392831.02406037785, 6090197.819178059], "max_proj": [392857.9587450549, 6090223.131255076], "height_m": 3.0}, {"min_proj": [393059.8601770522, 6090191.408900784], "max_proj": [393069.62274595315, 6090201.209087806], "height_m": 3.0}, {"min_proj": [393069.96951468324, 6090200.787033449], "max_proj": [393075.9810038089, 6090206.834173483], "height_m": 3.0}, {"min_proj": [393029.88914445124, 6090197.372480038], "max_proj": [393043.3931416839, 6090212.306048336], "height_m": 3.0}, {"min_proj": [393112.34207645257, 6090199.623246887], "max_proj": [393124.4879888537, 6090211.83068617], "height_m": 3.0}, {"min_proj": [393004.35517835105, 6090198.300996091], "max_proj": [393019.49439947575, 6090213.46999768], "height_m": 3.0}, {"min_proj": [393067.5797557294, 6090206.525607185], "max_proj": [393082.51026489254, 6090219.072725135], "height_m": 3.0}, {"min_proj": [393119.40395580727, 6090210.162626196], "max_proj": [393126.182110564, 6090216.990716047], "height_m": 3.0}, {"min_proj": [393042.33542388404, 6090212.265365067], "max_proj": [393059.0260195281, 6090231.00616205], "height_m": 3.0}, {"min_proj": [393068.56809111673, 6090219.154343856], "max_proj": [393079.28148776863, 6090229.923632553], "height_m": 3.0}, {"min_proj": [393026.27929403086, 6090219.930559669], "max_proj": [393039.0968580422, 6090232.7631699005], "height_m": 3.0}, {"min_proj": [392959.02515300293, 6090188.874977726], "max_proj": [392965.7143269911, 6090195.58327505], "height_m": 3.0}, {"min_proj": [392900.1874062242, 6090193.791970706], "max_proj": [392915.65390211134, 6090209.410049641], "height_m": 3.0}, {"min_proj": [392906.82357387844, 6090202.403545076], "max_proj": [392922.07726482174, 6090217.69732559], "height_m": 3.0}, {"min_proj": [392972.6594906573, 6090206.962129907], "max_proj": [392985.5834750314, 6090218.737658711], "height_m": 3.0}, {"min_proj": [392918.6462050525, 6090206.817877818], "max_proj": [392931.23906196415, 6090219.394324479], "height_m": 3.0}, {"min_proj": [392985.3415272972, 6090218.920362826], "max_proj": [392997.2449190091, 6090230.862625828], "height_m": 3.0}, {"min_proj": [392925.8743976223, 6090218.37164503], "max_proj": [392943.2768877876, 6090235.868460893], "height_m": 3.0}, {"min_proj": [392990.695471694, 6090223.941814549], "max_proj": [393001.11913487705, 6090234.449094726], "height_m": 3.0}, {"min_proj": [392991.60533172573, 6090228.736575073], "max_proj": [393009.5760635311, 6090246.764053436], "height_m": 3.0}, {"min_proj": [393004.93900385627, 6090235.723495806], "max_proj": [393013.76814126206, 6090244.612960921], "height_m": 3.0}, {"min_proj": [392735.8015944535, 6090201.78294941], "max_proj": [392753.2561590512, 6090219.2643368505], "height_m": 3.0}, {"min_proj": [392574.30771645776, 6090206.392475388], "max_proj": [392585.6265588227, 6090217.472336564], "height_m": 3.0}, {"min_proj": [392633.08012456144, 6090208.1011127345], "max_proj": [392648.05324366986, 6090222.644986658], "height_m": 3.0}, {"min_proj": [392693.18915296276, 6090217.042484481], "max_proj": [392708.107507864, 6090231.677092632], "height_m": 3.0}, {"min_proj": [392591.41956753924, 6090217.737120791], "max_proj": [392606.08986284037, 6090234.969204629], "height_m": 3.0}, {"min_proj": [392642.07415339234, 6090219.124192592], "max_proj": [392660.24638597417, 6090234.925155975], "height_m": 3.0}, {"min_proj": [392610.8105812173, 6090221.274011374], "max_proj": [392623.7750055867, 6090234.054616936], "height_m": 3.0}, {"min_proj": [392739.9634627908, 6090221.292822103], "max_proj": [392756.29797522444, 6090237.5550755225], "height_m": 3.0}, {"min_proj": [392698.6244246269, 6090230.420694297], "max_proj": [392705.8490312616, 6090237.504424515], "height_m": 3.0}, {"min_proj": [392707.9626456868, 6090231.381931472], "max_proj": [392721.90542707616, 6090245.708651431], "height_m": 3.0}, {"min_proj": [393080.1604870893, 6090219.678200155], "max_proj": [393100.7539573723, 6090239.44425602], "height_m": 3.0}, {"min_proj": [393031.03141170443, 6090230.327768689], "max_proj": [393039.970530709, 6090239.275741785], "height_m": 3.0}, {"min_proj": [393100.92981935944, 6090236.287553913], "max_proj": [393114.5321111326, 6090249.963226657], "height_m": 3.0}, {"min_proj": [393046.5121186252, 6090239.900364176], "max_proj": [393059.69491856254, 6090251.2607627325], "height_m": 3.0}, {"min_proj": [393003.1689115962, 6090242.006018134], "max_proj": [393020.9123027672, 6090257.082382023], "height_m": 3.0}, {"min_proj": [393109.6414971691, 6090245.283703538], "max_proj": [393126.0619770433, 6090265.837671472], "height_m": 3.0}, {"min_proj": [393081.79500348074, 6090253.133714654], "max_proj": [393087.6401774165, 6090258.951341747], "height_m": 3.0}, {"min_proj": [393014.2344122995, 6090250.864426946], "max_proj": [393031.18833954836, 6090266.267242173], "height_m": 3.0}, {"min_proj": [393060.84096030093, 6090251.104447683], "max_proj": [393075.9733229859, 6090266.450111638], "height_m": 3.0}, {"min_proj": [393027.2272959656, 6090261.357390289], "max_proj": [393046.782392084, 6090280.836241345], "height_m": 3.0}, {"min_proj": [392652.3414399578, 6090229.388150189], "max_proj": [392671.1361553313, 6090247.924404797], "height_m": 3.0}, {"min_proj": [392619.52999515715, 6090233.500331135], "max_proj": [392632.4877147738, 6090246.280932145], "height_m": 3.0}, {"min_proj": [392600.50639346184, 6090233.908515035], "max_proj": [392614.5466779437, 6090247.849318324], "height_m": 3.0}, {"min_proj": [392669.09174156596, 6090242.27681245], "max_proj": [392682.9377035394, 6090256.082556018], "height_m": 3.0}, {"min_proj": [392612.75269779534, 6090246.672175419], "max_proj": [392623.7869674492, 6090257.582124959], "height_m": 3.0}, {"min_proj": [392742.3548378401, 6090246.250333419], "max_proj": [392758.02303906763, 6090262.239487087], "height_m": 3.0}, {"min_proj": [392621.54098298284, 6090251.943804906], "max_proj": [392638.5885777984, 6090265.847748931], "height_m": 3.0}, {"min_proj": [392735.7748925928, 6090256.585827124], "max_proj": [392748.32734416355, 6090269.593515465], "height_m": 3.0}, {"min_proj": [392678.13202545565, 6090256.201488491], "max_proj": [392695.3785158355, 6090273.015040337], "height_m": 3.0}, {"min_proj": [392725.3913007322, 6090257.477886555], "max_proj": [392740.87390526466, 6090273.091569619], "height_m": 3.0}, {"min_proj": [392938.40464959823, 6090234.90381352], "max_proj": [392951.400595831, 6090247.8320204], "height_m": 3.0}, {"min_proj": [392880.3540930153, 6090217.023382528], "max_proj": [392939.03759781236, 6090274.419673701], "height_m": 15.0}, {"min_proj": [392950.83279364, 6090243.7710426245], "max_proj": [392959.50020468934, 6090252.512580685], "height_m": 3.0}, {"min_proj": [392954.9386845566, 6090247.732628756], "max_proj": [392971.655297458, 6090266.832303662], "height_m": 3.0}, {"min_proj": [392984.75922244677, 6090252.88007061], "max_proj": [392997.0616537775, 6090265.19691811], "height_m": 3.0}, {"min_proj": [392964.2076797058, 6090261.554018795], "max_proj": [392979.8643957361, 6090277.184680696], "height_m": 3.0}, {"min_proj": [392976.5993801401, 6090279.456254023], "max_proj": [392983.96495717374, 6090286.864809354], "height_m": 3.0}, {"min_proj": [392982.2845101007, 6090278.855610655], "max_proj": [393000.04535791394, 6090296.486304201], "height_m": 3.0}, {"min_proj": [392996.0648439581, 6090288.155547245], "max_proj": [393009.4629263548, 6090303.852569625], "height_m": 3.0}, {"min_proj": [393001.8286248439, 6090298.212792513], "max_proj": [393016.4173073099, 6090312.842118712], "height_m": 3.0}, {"min_proj": [392765.84170831455, 6090215.224335625], "max_proj": [392774.3274703073, 6090223.558457841], "height_m": 3.0}, {"min_proj": [392816.3447590398, 6090212.841809021], "max_proj": [392832.72795723245, 6090228.891210724], "height_m": 3.0}, {"min_proj": [392771.68733625114, 6090222.338558825], "max_proj": [392784.8129757762, 6090235.613704823], "height_m": 3.0}, {"min_proj": [392858.7932946032, 6090226.931301564], "max_proj": [392867.5344735175, 6090235.753960783], "height_m": 3.0}, {"min_proj": [392756.57887508115, 6090231.1176648345], "max_proj": [392770.5208433006, 6090244.993771989], "height_m": 3.0}, {"min_proj": [392811.5493116657, 6090237.758076217], "max_proj": [392820.01073866006, 6090246.608409943], "height_m": 3.0}, {"min_proj": [392795.6734036769, 6090244.410572927], "max_proj": [392806.16359557764, 6090254.827461998], "height_m": 3.0}, {"min_proj": [392780.73788819753, 6090258.60443541], "max_proj": [392793.8085197768, 6090271.711583829], "height_m": 3.0}, {"min_proj": [392770.4270771445, 6090269.576638889], "max_proj": [392782.3635452762, 6090281.599215808], "height_m": 3.0}, {"min_proj": [392828.63689244597, 6090229.956317338], "max_proj": [392866.3253631494, 6090324.175750446], "height_m": 27.0}, {"min_proj": [392629.9091747893, 6090266.566780123], "max_proj": [392639.04913844774, 6090275.451747149], "height_m": 3.0}, {"min_proj": [392636.8685063208, 6090267.647690571], "max_proj": [392651.2610425331, 6090283.836257681], "height_m": 3.0}, {"min_proj": [392695.4915656666, 6090270.647602416], "max_proj": [392708.34996435983, 6090283.291715613], "height_m": 3.0}, {"min_proj": [392691.999634753, 6090278.289925588], "max_proj": [392711.10432467115, 6090296.496092388], "height_m": 3.0}, {"min_proj": [392585.9064735257, 6090277.006868521], "max_proj": [392606.04187251336, 6090298.172756669], "height_m": 3.0}, {"min_proj": [392647.8785983355, 6090283.739549443], "max_proj": [392660.52989024116, 6090296.130782647], "height_m": 3.0}, {"min_proj": [392702.459027022, 6090287.250800134], "max_proj": [392716.59794613137, 6090301.614463973], "height_m": 3.0}, {"min_proj": [392742.9570582351, 6090293.6739498], "max_proj": [392760.0265413987, 6090309.434640715], "height_m": 3.0}, {"min_proj": [392657.69135160354, 6090293.55415471], "max_proj": [392671.7019369489, 6090311.349174004], "height_m": 3.0}, {"min_proj": [392738.2429489222, 6090300.195456659], "max_proj": [392744.91228942433, 6090306.895902218], "height_m": 3.0}, {"min_proj": [392758.9984632372, 6090279.056095234], "max_proj": [392771.1215807725, 6090291.153389145], "height_m": 3.0}, {"min_proj": [392754.26315589086, 6090285.885854404], "max_proj": [392761.70688593364, 6090293.367895058], "height_m": 3.0}, {"min_proj": [392822.06239054236, 6090291.681397196], "max_proj": [392831.21240493504, 6090300.852748775], "height_m": 3.0}, {"min_proj": [392787.3652386267, 6090280.533404962], "max_proj": [392819.0604624758, 6090316.505739146], "height_m": 3.0}, {"min_proj": [392816.3237330272, 6090296.449772035], "max_proj": [392826.103047522, 6090306.28533681], "height_m": 3.0}, {"min_proj": [392762.3727223457, 6090298.903750252], "max_proj": [392772.8752520554, 6090309.400957827], "height_m": 3.0}, {"min_proj": [392809.7079379443, 6090305.258358856], "max_proj": [392837.6591665266, 6090315.740602262], "height_m": 3.0}, {"min_proj": [392827.75236327917, 6090319.500686491], "max_proj": [392841.89856661734, 6090328.4049662985], "height_m": 3.0}, {"min_proj": [392771.1332184241, 6090324.416379437], "max_proj": [392795.77961260057, 6090356.4649695465], "height_m": 3.0}, {"min_proj": [392796.78402177576, 6090331.393316329], "max_proj": [392821.15482061554, 6090351.793738364], "height_m": 3.0}, {"min_proj": [392728.1011902422, 6090307.657636984], "max_proj": [392741.90765101305, 6090321.501248161], "height_m": 3.0}, {"min_proj": [392743.0782930403, 6090310.496509354], "max_proj": [392753.1594438945, 6090320.583825247], "height_m": 3.0}, {"min_proj": [392626.0017618312, 6090331.564076665], "max_proj": [392629.90466598154, 6090338.056845642], "height_m": 3.0}, {"min_proj": [392575.21754690044, 6090328.984780225], "max_proj": [392585.528541041, 6090346.345485831], "height_m": 3.0}, {"min_proj": [392594.44379690755, 6090331.049866841], "max_proj": [392604.14152998914, 6090347.793100414], "height_m": 3.0}, {"min_proj": [392614.4849860182, 6090332.122049666], "max_proj": [392622.78415176354, 6090351.511604151], "height_m": 3.0}, {"min_proj": [392684.169092333, 6090324.17222644], "max_proj": [392775.5708573782, 6090361.30774456], "height_m": 27.0}, {"min_proj": [392657.1168113678, 6090337.242150622], "max_proj": [392666.6135283745, 6090350.736793813], "height_m": 3.0}, {"min_proj": [392636.81500138924, 6090343.376561005], "max_proj": [392655.08824269555, 6090359.1263221605], "height_m": 3.0}, {"min_proj": [392564.77826115256, 6090355.957763996], "max_proj": [392585.8481967469, 6090371.159082766], "height_m": 3.0}, {"min_proj": [392630.16046275117, 6090363.39796463], "max_proj": [392636.98501314217, 6090369.064239827], "height_m": 3.0}, {"min_proj": [392625.4052476805, 6090361.024146976], "max_proj": [392674.76321111526, 6090379.363848807], "height_m": 3.0}, {"min_proj": [392586.6090821451, 6090369.498802677], "max_proj": [392606.75665572705, 6090375.507720057], "height_m": 3.0}, {"min_proj": [392606.7253293236, 6090370.478305004], "max_proj": [392622.53767267335, 6090381.727334497], "height_m": 3.0}, {"min_proj": [392741.17162106663, 6090392.970059536], "max_proj": [392749.0190897526, 6090399.3768939795], "height_m": 3.0}, {"min_proj": [392659.3012184398, 6090384.705050486], "max_proj": [392684.95048243005, 6090409.457929528], "height_m": 3.0}, {"min_proj": [392590.9164511373, 6090387.116023814], "max_proj": [392661.9922293292, 6090418.683803037], "height_m": 15.0}, {"min_proj": [392567.4950963978, 6090399.535830116], "max_proj": [392581.7216607193, 6090425.692660541], "height_m": 3.0}, {"min_proj": [392703.6446333033, 6090393.186374673], "max_proj": [392736.1404177189, 6090434.968983344], "height_m": 6.0}, {"min_proj": [392578.3775770017, 6090409.494239533], "max_proj": [392588.99175440083, 6090429.290045837], "height_m": 3.0}, {"min_proj": [392909.5903522708, 6090280.24282443], "max_proj": [392950.60189888295, 6090335.441178104], "height_m": 15.0}, {"min_proj": [392986.6690381445, 6090318.705547059], "max_proj": [393018.24704431684, 6090352.229120888], "height_m": 3.0}, {"min_proj": [392909.723775422, 6090343.112229599], "max_proj": [392921.8943808698, 6090355.103945924], "height_m": 3.0}, {"min_proj": [393000.6548705639, 6090355.707326397], "max_proj": [393009.07681333355, 6090364.115241083], "height_m": 3.0}, {"min_proj": [392918.43982598506, 6090325.8679407835], "max_proj": [393013.3206932263, 6090418.342911926], "height_m": 15.0}, {"min_proj": [392873.5394747178, 6090370.193271885], "max_proj": [392906.1587233535, 6090442.047438375], "height_m": 15.0}, {"min_proj": [392927.83242630213, 6090424.677791293], "max_proj": [393007.3642466465, 6090460.766742606], "height_m": 6.0}, {"min_proj": [392930.28346359014, 6090449.159227769], "max_proj": [392936.1549026979, 6090454.499646472], "height_m": 6.0}, {"min_proj": [392942.4743608278, 6090455.23411793], "max_proj": [392983.5909717515, 6090477.635892204], "height_m": 9.0}, {"min_proj": [392947.20629334776, 6090459.926177437], "max_proj": [393024.4763263542, 6090538.662303363], "height_m": 15.0}, {"min_proj": [392534.85291073227, 6090098.352900019], "max_proj": [392553.47601843096, 6090116.678093418], "height_m": 3.0}, {"min_proj": [392503.4724190201, 6090101.217980663], "max_proj": [392516.19006712234, 6090114.201837924], "height_m": 3.0}, {"min_proj": [392487.8421121912, 6090105.693292533], "max_proj": [392500.4948855219, 6090117.903025215], "height_m": 3.0}, {"min_proj": [392494.2980823702, 6090112.513132456], "max_proj": [392508.0142531211, 6090126.022005396], "height_m": 3.0}, {"min_proj": [392543.4201177152, 6090111.7297906885], "max_proj": [392559.69886715827, 6090127.883576464], "height_m": 3.0}, {"min_proj": [392559.4220216431, 6090122.966304485], "max_proj": [392572.5716632602, 6090135.882148099], "height_m": 3.0}, {"min_proj": [392506.73151225405, 6090124.551504533], "max_proj": [392521.6423415417, 6090139.085792709], "height_m": 3.0}, {"min_proj": [392534.9170885584, 6090130.569612772], "max_proj": [392541.6179755028, 6090137.245251789], "height_m": 3.0}, {"min_proj": [392513.73687514674, 6090132.21285994], "max_proj": [392534.0342997969, 6090149.659378971], "height_m": 3.0}, {"min_proj": [392537.99917372665, 6090136.492746508], "max_proj": [392550.21768111805, 6090148.9433634095], "height_m": 3.0}, {"min_proj": [392653.04604542186, 6090175.84554904], "max_proj": [392665.4531829417, 6090188.056005245], "height_m": 3.0}, {"min_proj": [392715.6926142789, 6090173.796487359], "max_proj": [392734.9734162502, 6090192.573684836], "height_m": 3.0}, {"min_proj": [392561.0171431431, 6090183.686097252], "max_proj": [392574.1148376587, 6090196.454465015], "height_m": 3.0}, {"min_proj": [392611.5227334082, 6090182.898049462], "max_proj": [392627.72901256965, 6090198.665832691], "height_m": 3.0}, {"min_proj": [392665.9823476656, 6090187.399715386], "max_proj": [392681.4641204009, 6090202.560415875], "height_m": 3.0}, {"min_proj": [392730.0250904082, 6090187.713839478], "max_proj": [392749.01238187985, 6090206.09795478], "height_m": 3.0}, {"min_proj": [392571.7468844928, 6090192.942735095], "max_proj": [392589.9587581394, 6090210.44022209], "height_m": 3.0}, {"min_proj": [392622.1939239377, 6090200.952636833], "max_proj": [392631.46709066746, 6090210.201486491], "height_m": 3.0}, {"min_proj": [392586.7567176693, 6090197.477263901], "max_proj": [392603.97899358044, 6090214.54997874], "height_m": 3.0}, {"min_proj": [392679.8807768207, 6090200.8773840135], "max_proj": [392696.6060831215, 6090217.1425965885], "height_m": 3.0}, {"min_proj": [392522.353976035, 6090145.403068679], "max_proj": [392534.8204152793, 6090157.353795518], "height_m": 3.0}, {"min_proj": [392530.33729315485, 6090152.627092818], "max_proj": [392541.92736983136, 6090163.9842200875], "height_m": 3.0}, {"min_proj": [392537.74257618154, 6090157.075086004], "max_proj": [392556.8201591131, 6090173.730860392], "height_m": 3.0}, {"min_proj": [392545.00346084405, 6090164.960140032], "max_proj": [392570.15043776645, 6090182.974156528], "height_m": 3.0}, {"min_proj": [392466.07689863123, 6090190.061672243], "max_proj": [392476.0271021826, 6090200.007338716], "height_m": 3.0}, {"min_proj": [392377.6303217729, 6090202.369214913], "max_proj": [392411.646308458, 6090243.101134521], "height_m": 9.0}, {"min_proj": [392473.3463416375, 6090183.628222503], "max_proj": [392553.2919589383, 6090267.330916712], "height_m": 3.0}, {"min_proj": [392468.67594916327, 6090235.017870501], "max_proj": [392508.1879532712, 6090278.783478317], "height_m": 3.0}, {"min_proj": [392396.91406116367, 6090250.917401651], "max_proj": [392408.7418106247, 6090263.694006159], "height_m": 6.0}, {"min_proj": [392406.9333046648, 6090256.496195599], "max_proj": [392439.1863812914, 6090278.841091049], "height_m": 6.0}, {"min_proj": [392366.30818876583, 6090261.013620973], "max_proj": [392401.3814929222, 6090292.048387663], "height_m": 3.0}, {"min_proj": [392378.8427744369, 6090282.9806018], "max_proj": [392411.2920290826, 6090304.1759497635], "height_m": 3.0}, {"min_proj": [392423.83846831764, 6090286.603228663], "max_proj": [392456.37013286096, 6090307.419517613], "height_m": 3.0}, {"min_proj": [392429.08845168096, 6090305.395247225], "max_proj": [392467.22507209075, 6090339.172556332], "height_m": 3.0}, {"min_proj": [392390.37549673347, 6090312.489386511], "max_proj": [392425.5897492984, 6090334.207513092], "height_m": 3.0}, {"min_proj": [392550.42423463083, 6090325.454448396], "max_proj": [392553.8189277982, 6090331.21400976], "height_m": 3.0}, {"min_proj": [392533.065002685, 6090324.776106328], "max_proj": [392542.18633255654, 6090336.840021822], "height_m": 3.0}, {"min_proj": [392556.41609436634, 6090326.339745073], "max_proj": [392565.6758599529, 6090338.472865405], "height_m": 3.0}, {"min_proj": [392508.77220687125, 6090319.972899094], "max_proj": [392527.8640137414, 6090357.08648541], "height_m": 3.0}, {"min_proj": [392430.7878540262, 6090340.008810469], "max_proj": [392506.6053795544, 6090382.806955906], "height_m": 6.0}, {"min_proj": [392322.54436204274, 6090138.043955484], "max_proj": [392396.568963421, 6090189.925803891], "height_m": 6.0}, {"min_proj": [392264.15807970334, 6090176.551972386], "max_proj": [392411.0444466017, 6090257.70995932], "height_m": 3.0}, {"min_proj": [392347.7342507726, 6090219.903473593], "max_proj": [392375.33088578517, 6090251.804634221], "height_m": 3.0}, {"min_proj": [392192.93181579316, 6090267.016000005], "max_proj": [392207.3120671274, 6090291.515199562], "height_m": 3.0}, {"min_proj": [392354.60445206333, 6090271.274520644], "max_proj": [392374.1697906291, 6090297.80861003], "height_m": 3.0}, {"min_proj": [392313.8377271395, 6090268.3951445855], "max_proj": [392389.5689900225, 6090411.43852661], "height_m": 3.0}, {"min_proj": [392205.20971454645, 6090371.021771964], "max_proj": [392215.80961400067, 6090384.446692741], "height_m": 3.0}, {"min_proj": [392291.6487956472, 6090422.079920243], "max_proj": [392317.92269100004, 6090462.290498417], "height_m": 6.0}, {"min_proj": [392216.51967276324, 6090473.132214126], "max_proj": [392249.20969395165, 6090506.01626799], "height_m": 3.0}, {"min_proj": [392251.8668988702, 6090490.126108789], "max_proj": [392319.5925351419, 6090530.3929909635], "height_m": 6.0}, {"min_proj": [392152.1968515428, 6090154.940876255], "max_proj": [392163.01869253145, 6090167.331180333], "height_m": 3.0}, {"min_proj": [392158.97081337887, 6090279.224491429], "max_proj": [392179.68217479193, 6090302.68316895], "height_m": 3.0}, {"min_proj": [392039.1934122108, 6090228.822001556], "max_proj": [392171.67607485113, 6090431.078874958], "height_m": 3.0}, {"min_proj": [392125.86249348085, 6090276.427945016], "max_proj": [392190.3582914545, 6090404.523895731], "height_m": 3.0}, {"min_proj": [392172.81258492917, 6090326.151697506], "max_proj": [392196.9774806063, 6090371.281735642], "height_m": 3.0}, {"min_proj": [392005.12922983244, 6090359.82048164], "max_proj": [392055.38489910343, 6090418.199816968], "height_m": 12.0}, {"min_proj": [392038.30142500775, 6090403.873811115], "max_proj": [392093.1877353516, 6090424.504046514], "height_m": 3.0}, {"min_proj": [392152.9210245063, 6090500.0665784115], "max_proj": [392186.0711420827, 6090533.061104176], "height_m": 3.0}, {"min_proj": [392156.51863318094, 6090527.745261159], "max_proj": [392203.3225214207, 6090558.922650455], "height_m": 3.0}, {"min_proj": [392141.1242268194, 6090531.350862853], "max_proj": [392160.11119024816, 6090556.706509086], "height_m": 3.0}, {"min_proj": [392393.6968237784, 6090362.2239511], "max_proj": [392421.6919024986, 6090393.8978843205], "height_m": 6.0}, {"min_proj": [392555.4003870827, 6090383.1330636935], "max_proj": [392561.94448549853, 6090391.850037821], "height_m": 3.0}, {"min_proj": [392549.48195674014, 6090385.537769764], "max_proj": [392555.81660773174, 6090392.383871374], "height_m": 3.0}, {"min_proj": [392543.5627373993, 6090387.206115007], "max_proj": [392549.3188677078, 6090398.249125509], "height_m": 3.0}, {"min_proj": [392478.93206567166, 6090374.151474949], "max_proj": [392516.275887704, 6090411.5059282025], "height_m": 6.0}, {"min_proj": [392537.6766069981, 6090388.917105905], "max_proj": [392543.4327479765, 6090399.959963006], "height_m": 3.0}, {"min_proj": [392556.56319639354, 6090392.077727684], "max_proj": [392562.9221307398, 6090397.070214698], "height_m": 3.0}, {"min_proj": [392551.01595129, 6090393.782875169], "max_proj": [392556.10555578, 6090397.643249216], "height_m": 3.0}, {"min_proj": [392458.39404761535, 6090379.809698615], "max_proj": [392477.2521740408, 6090411.688364692], "height_m": 3.0}, {"min_proj": [392532.1720556161, 6090390.5074746935], "max_proj": [392537.92820658215, 6090401.550331944], "height_m": 3.0}, {"min_proj": [392526.3633156752, 6090392.238736472], "max_proj": [392532.119477122, 6090403.281747462], "height_m": 3.0}, {"min_proj": [392442.534880307, 6090393.048097371], "max_proj": [392451.6004383293, 6090403.186858469], "height_m": 3.0}, {"min_proj": [392449.89445033274, 6090390.913261009], "max_proj": [392468.1411889955, 6090418.10706535], "height_m": 3.0}, {"min_proj": [392473.29109709535, 6090399.117588429], "max_proj": [392516.275887704, 6090423.420292364], "height_m": 3.0}, {"min_proj": [392370.18695225543, 6090403.87595026], "max_proj": [392391.22130115173, 6090425.29181317], "height_m": 3.0}, {"min_proj": [392531.51348083984, 6090414.195980515], "max_proj": [392564.73316405865, 6090433.844064906], "height_m": 6.0}, {"min_proj": [392325.756833344, 6090405.3518900545], "max_proj": [392456.4653430433, 6090475.508673373], "height_m": 3.0}, {"min_proj": [392459.8433049745, 6090430.708339119], "max_proj": [392498.4297290754, 6090452.703006088], "height_m": 6.0}, {"min_proj": [392516.25145805476, 6090437.35928917], "max_proj": [392534.2895945071, 6090448.35846073], "height_m": 3.0}, {"min_proj": [392493.8342547485, 6090438.170223524], "max_proj": [392594.53781087813, 6090477.734086281], "height_m": 15.0}, {"min_proj": [392683.9536273719, 6090418.377495402], "max_proj": [392691.6770825106, 6090429.50271787], "height_m": 3.0}, {"min_proj": [392568.8743997627, 6090424.241146485], "max_proj": [392581.7034372684, 6090433.42830997], "height_m": 3.0}, {"min_proj": [392738.3863580083, 6090496.150223029], "max_proj": [392752.0134057407, 6090505.450255766], "height_m": 3.0}, {"min_proj": [392675.16097939527, 6090489.536656572], "max_proj": [392707.7074085634, 6090566.939332597], "height_m": 12.0}, {"min_proj": [392563.69345510245, 6090515.020669096], "max_proj": [392597.42908219434, 6090596.169130506], "height_m": 12.0}, {"min_proj": [392705.00638909463, 6090601.97042944], "max_proj": [392734.77792275575, 6090669.860359711], "height_m": 12.0}, {"min_proj": [392595.4910989128, 6090661.762324901], "max_proj": [392600.9773814424, 6090667.975354277], "height_m": 3.0}, {"min_proj": [392597.0862221689, 6090631.46207889], "max_proj": [392625.9758785758, 6090700.833260934], "height_m": 12.0}, {"min_proj": [392714.9276363811, 6090676.125986245], "max_proj": [392737.89946873114, 6090696.322896335], "height_m": 3.0}, {"min_proj": [392623.2028526743, 6090687.949735827], "max_proj": [392719.5394505874, 6090723.937614793], "height_m": 15.0}, {"min_proj": [392480.2558848435, 6090472.4041424235], "max_proj": [392498.7177098971, 6090493.228759661], "height_m": 3.0}, {"min_proj": [392513.9906923335, 6090527.868267809], "max_proj": [392547.7270751406, 6090609.016496003], "height_m": 12.0}, {"min_proj": [392420.6997075137, 6090551.657155207], "max_proj": [392452.33230928227, 6090621.132034738], "height_m": 15.0}, {"min_proj": [392547.6141879359, 6090617.082538047], "max_proj": [392555.99237177765, 6090626.867199569], "height_m": 3.0}, {"min_proj": [392443.9729346746, 6090633.65786644], "max_proj": [392474.84129165113, 6090700.423613768], "height_m": 15.0}, {"min_proj": [392548.6125903748, 6090644.142513913], "max_proj": [392576.7323052494, 6090713.30592331], "height_m": 12.0}, {"min_proj": [392354.3980573332, 6090625.642740699], "max_proj": [392415.931387523, 6090752.187752638], "height_m": 3.0}, {"min_proj": [392467.602114227, 6090698.274855249], "max_proj": [392549.0685175115, 6090730.757777306], "height_m": 15.0}, {"min_proj": [392526.5237237649, 6090736.253384217], "max_proj": [392535.67842628004, 6090747.60576826], "height_m": 3.0}, {"min_proj": [392541.3068835961, 6090749.2693924755], "max_proj": [392549.3273112397, 6090755.827943621], "height_m": 3.0}, {"min_proj": [393125.5205859287, 6090257.660299104], "max_proj": [393131.98588835925, 6090264.158090828], "height_m": 3.0}, {"min_proj": [393128.6518395793, 6090262.63972708], "max_proj": [393142.72080791596, 6090276.62664836], "height_m": 3.0}, {"min_proj": [393137.3781062891, 6090273.801187542], "max_proj": [393146.43894037075, 6090282.947095304], "height_m": 3.0}, {"min_proj": [393096.74844525685, 6090269.78754122], "max_proj": [393105.2045502174, 6090278.203632939], "height_m": 3.0}, {"min_proj": [393078.4678469888, 6090266.142795482], "max_proj": [393091.5067808132, 6090282.069374111], "height_m": 3.0}, {"min_proj": [393040.8216939602, 6090277.922771267], "max_proj": [393057.66977033386, 6090293.727846285], "height_m": 3.0}, {"min_proj": [393112.9909742492, 6090283.890669069], "max_proj": [393118.909400521, 6090289.770142719], "height_m": 3.0}, {"min_proj": [393087.44771561475, 6090279.0173031455], "max_proj": [393106.48004383204, 6090296.565275094], "height_m": 3.0}, {"min_proj": [393061.71038282197, 6090287.535486112], "max_proj": [393067.8378928036, 6090293.654619332], "height_m": 3.0}, {"min_proj": [393116.8180247552, 6090287.683901687], "max_proj": [393123.5155252259, 6090294.325714608], "height_m": 3.0}, {"min_proj": [393104.578750039, 6090287.445540801], "max_proj": [393112.56840564567, 6090295.518014243], "height_m": 3.0}, {"min_proj": [393028.72825244704, 6090291.848587491], "max_proj": [393043.4180367624, 6090304.40044478], "height_m": 3.0}, {"min_proj": [393061.0745926594, 6090294.728832256], "max_proj": [393074.67425271665, 6090308.3892868], "height_m": 3.0}, {"min_proj": [393140.72850308614, 6090277.253481358], "max_proj": [393155.4639440328, 6090289.758160322], "height_m": 3.0}, {"min_proj": [393141.131013777, 6090289.491532607], "max_proj": [393150.49286666344, 6090298.787171827], "height_m": 3.0}, {"min_proj": [393136.33740258554, 6090293.078548058], "max_proj": [393146.04531049606, 6090302.6677882755], "height_m": 3.0}, {"min_proj": [393141.8896495115, 6090304.242613205], "max_proj": [393151.0646004862, 6090313.494435464], "height_m": 3.0}, {"min_proj": [393123.3830430226, 6090313.964113824], "max_proj": [393134.76633936097, 6090325.365201105], "height_m": 3.0}, {"min_proj": [393110.9406628458, 6090294.081714834], "max_proj": [393123.24785581056, 6090311.139498381], "height_m": 3.0}, {"min_proj": [393079.37829926924, 6090310.404209162], "max_proj": [393091.8590884954, 6090322.893540404], "height_m": 3.0}, {"min_proj": [393077.62128202897, 6090323.729658807], "max_proj": [393094.5290670113, 6090340.57268552], "height_m": 3.0}, {"min_proj": [393024.1307778596, 6090327.8688627975], "max_proj": [393033.1063558546, 6090336.871313122], "height_m": 3.0}, {"min_proj": [393031.6408662982, 6090326.350309349], "max_proj": [393043.90371455136, 6090338.665370584], "height_m": 3.0}, {"min_proj": [393089.4855840452, 6090326.985479117], "max_proj": [393108.168838724, 6090345.970557028], "height_m": 3.0}, {"min_proj": [393096.6316450973, 6090332.717460978], "max_proj": [393113.0165420669, 6090347.89206811], "height_m": 3.0}, {"min_proj": [393103.9671495491, 6090338.887432469], "max_proj": [393122.71125456796, 6090357.834771379], "height_m": 3.0}, {"min_proj": [393047.90712482814, 6090340.020809272], "max_proj": [393064.9130323606, 6090357.01317485], "height_m": 3.0}, {"min_proj": [393110.8515106768, 6090347.345553022], "max_proj": [393129.1281295317, 6090365.713363277], "height_m": 3.0}, {"min_proj": [393136.2780748277, 6090314.1391865155], "max_proj": [393147.83700573834, 6090325.7842360325], "height_m": 3.0}, {"min_proj": [393136.4400208509, 6090326.491582334], "max_proj": [393149.2010067693, 6090339.267296042], "height_m": 3.0}, {"min_proj": [393145.511428817, 6090330.566425102], "max_proj": [393189.50430746126, 6090374.259690681], "height_m": 3.0}, {"min_proj": [393066.2813909202, 6090362.4128386425], "max_proj": [393075.66481894255, 6090371.79870111], "height_m": 3.0}, {"min_proj": [393076.1766669618, 6090372.796908288], "max_proj": [393087.0031768875, 6090383.640633951], "height_m": 3.0}, {"min_proj": [393110.5245966298, 6090375.582022788], "max_proj": [393121.15803241933, 6090386.145973809], "height_m": 3.0}, {"min_proj": [393086.43042247865, 6090376.961357573], "max_proj": [393099.9797672014, 6090392.576154088], "height_m": 3.0}, {"min_proj": [393022.38083928137, 6090372.243180962], "max_proj": [393057.5968075266, 6090407.983245159], "height_m": 3.0}, {"min_proj": [393106.794477008, 6090390.065547736], "max_proj": [393141.16859027965, 6090430.152050004], "height_m": 27.0}, {"min_proj": [393001.8822294832, 6090409.021013521], "max_proj": [393030.24808326486, 6090433.880503431], "height_m": 3.0}, {"min_proj": [393030.4386437436, 6090412.890239871], "max_proj": [393070.597275557, 6090453.539224154], "height_m": 15.0}, {"min_proj": [393071.95562602236, 6090456.972902273], "max_proj": [393095.7748222752, 6090480.794279431], "height_m": 3.0}, {"min_proj": [393003.23523005703, 6090471.522288647], "max_proj": [393081.3460885038, 6090550.064652276], "height_m": 15.0}, {"min_proj": [392864.08940790914, 6090333.405585648], "max_proj": [392892.5036462822, 6090373.997594961], "height_m": 3.0}, {"min_proj": [392812.7821232795, 6090348.089976279], "max_proj": [392852.1350628429, 6090446.733886869], "height_m": 15.0}, {"min_proj": [392735.7040454049, 6090402.455287505], "max_proj": [392806.97819534736, 6090433.2548762215], "height_m": 27.0}, {"min_proj": [392849.50736882637, 6090473.4894344965], "max_proj": [392855.89515746356, 6090480.029443942], "height_m": 3.0}, {"min_proj": [392759.6523877476, 6090468.915474727], "max_proj": [392835.0103518196, 6090500.778277899], "height_m": 15.0}, {"min_proj": [392834.19342242106, 6090492.709069067], "max_proj": [392870.34794023464, 6090521.536267886], "height_m": 3.0}, {"min_proj": [392857.9234235794, 6090513.620457421], "max_proj": [392894.50865365914, 6090610.293467233], "height_m": 15.0}, {"min_proj": [392742.25276583486, 6090511.933194855], "max_proj": [392786.3146153695, 6090637.395998382], "height_m": 15.0}, {"min_proj": [392829.54204963864, 6090566.381633706], "max_proj": [392862.6687070112, 6090583.0741848955], "height_m": 6.0}, {"min_proj": [392805.7544500766, 6090602.351307721], "max_proj": [392871.0512785407, 6090630.911430169], "height_m": 15.0}, {"min_proj": [392891.07900880434, 6090464.777636537], "max_proj": [392920.4159736627, 6090535.221752543], "height_m": 15.0}, {"min_proj": [392990.18063109834, 6090527.0989073375], "max_proj": [392997.3406117137, 6090534.266047817], "height_m": 3.0}, {"min_proj": [392976.16420452535, 6090535.272671034], "max_proj": [392988.4310691152, 6090547.557831573], "height_m": 3.0}, {"min_proj": [392907.8996972409, 6090532.106110319], "max_proj": [392930.35152949806, 6090553.056391071], "height_m": 18.0}, {"min_proj": [392987.8119508925, 6090540.792804635], "max_proj": [393012.62570324226, 6090565.617703585], "height_m": 3.0}, {"min_proj": [392921.3971623065, 6090544.0699768495], "max_proj": [392979.2579933773, 6090601.53915521], "height_m": 15.0}, {"min_proj": [392923.7368562167, 6090595.01140154], "max_proj": [392950.0955152023, 6090618.59855186], "height_m": 3.0}, {"min_proj": [392998.02807726886, 6090606.900854178], "max_proj": [393019.03237380687, 6090627.860620777], "height_m": 6.0}, {"min_proj": [392892.70254516596, 6090602.745077143], "max_proj": [392940.4873256567, 6090650.767372106], "height_m": 9.0}, {"min_proj": [392973.9604530506, 6090617.769167012], "max_proj": [393007.8572653802, 6090648.767228389], "height_m": 3.0}, {"min_proj": [392880.30739417695, 6090642.38142336], "max_proj": [392887.6175744098, 6090649.56400761], "height_m": 3.0}, {"min_proj": [392769.324334959, 6090635.124660985], "max_proj": [392789.44079644006, 6090664.662292427], "height_m": 3.0}, {"min_proj": [392791.08457106806, 6090666.179796857], "max_proj": [392799.607669677, 6090676.672015061], "height_m": 3.0}, {"min_proj": [392850.7467814031, 6090650.144037585], "max_proj": [392897.02243659063, 6090696.160475185], "height_m": 3.0}, {"min_proj": [392766.10441268433, 6090693.056819898], "max_proj": [392802.39063701965, 6090720.138135434], "height_m": 6.0}, {"min_proj": [392781.06145223766, 6090699.933941701], "max_proj": [392848.1341304642, 6090766.469930905], "height_m": 27.0}, {"min_proj": [392854.9500386829, 6090730.560486951], "max_proj": [392877.6895511157, 6090753.25225774], "height_m": 3.0}, {"min_proj": [392836.7744566913, 6090774.495151821], "max_proj": [392887.33139584976, 6090825.634134128], "height_m": 9.0}, {"min_proj": [392753.6826205088, 6090798.666981649], "max_proj": [392762.7601586277, 6090807.83313228], "height_m": 3.0}, {"min_proj": [392772.8796366154, 6090826.981464839], "max_proj": [392835.5656868334, 6090891.280996474], "height_m": 9.0}, {"min_proj": [392885.42518426763, 6090647.357869693], "max_proj": [392891.9647657948, 6090653.757336253], "height_m": 3.0}, {"min_proj": [392889.6824583146, 6090651.314336294], "max_proj": [392899.8796834976, 6090661.254760963], "height_m": 3.0}, {"min_proj": [392904.7542923833, 6090706.039001809], "max_proj": [392993.55439707404, 6090794.084035222], "height_m": 6.0}, {"min_proj": [392928.3274575253, 6090927.866067326], "max_proj": [392941.1303569423, 6090940.679389064], "height_m": 3.0}, {"min_proj": [392943.3463178109, 6090944.128575953], "max_proj": [392955.1189713859, 6090955.930097854], "height_m": 3.0}, {"min_proj": [392956.7354480427, 6090942.955125229], "max_proj": [393014.5211006877, 6090999.828292049], "height_m": 6.0}, {"min_proj": [392886.67902323575, 6090952.626681296], "max_proj": [392943.8088703874, 6091017.779286537], "height_m": 6.0}, {"min_proj": [392975.0316811438, 6091009.008347218], "max_proj": [393020.53595855884, 6091055.794771075], "height_m": 3.0}, {"min_proj": [392969.1390731118, 6091035.644156768], "max_proj": [392986.83406575513, 6091052.939806762], "height_m": 3.0}, {"min_proj": [392914.25974397577, 6091050.846880202], "max_proj": [392937.28965095116, 6091074.093544779], "height_m": 3.0}, {"min_proj": [392962.8638792662, 6090798.719330377], "max_proj": [393094.6245482641, 6090927.302497047], "height_m": 12.0}, {"min_proj": [393097.834326738, 6090924.766872491], "max_proj": [393117.2682863637, 6090943.68588861], "height_m": 3.0}, {"min_proj": [393023.9738566383, 6090932.829326064], "max_proj": [393035.2200082599, 6090943.819656719], "height_m": 3.0}, {"min_proj": [393045.23974947527, 6090935.074042732], "max_proj": [393100.11519023543, 6090987.24361583], "height_m": 3.0}, {"min_proj": [393013.6192657908, 6090958.369783574], "max_proj": [393028.0147573395, 6090973.080812177], "height_m": 3.0}, {"min_proj": [393000.9785751378, 6090999.9766542185], "max_proj": [393051.18349267304, 6091052.327912456], "height_m": 3.0}, {"min_proj": [393061.67561259447, 6091061.95020711], "max_proj": [393089.2739142621, 6091091.590554374], "height_m": 3.0}, {"min_proj": [393048.21480187576, 6091073.642413351], "max_proj": [393076.14509595605, 6091103.432474667], "height_m": 3.0}, {"min_proj": [393026.4867706237, 6091088.567785928], "max_proj": [393054.9036850018, 6091117.230617431], "height_m": 3.0}, {"min_proj": [393081.09698507085, 6091100.73074445], "max_proj": [393108.17058667727, 6091127.685991949], "height_m": 3.0}, {"min_proj": [392821.14077859925, 6090871.57007669], "max_proj": [392887.30711843254, 6090937.591475534], "height_m": 15.0}, {"min_proj": [392745.20969187474, 6090892.219333131], "max_proj": [392817.79101269704, 6090965.842451484], "height_m": 9.0}, {"min_proj": [392851.67650575395, 6090909.334774928], "max_proj": [392909.9050528202, 6090967.389065787], "height_m": 15.0}, {"min_proj": [392844.09996986913, 6091012.262674998], "max_proj": [392870.68356803776, 6091031.703073991], "height_m": 3.0}, {"min_proj": [392745.1526804047, 6091020.593395618], "max_proj": [392791.32237765513, 6091066.844249014], "height_m": 3.0}, {"min_proj": [392769.4064705136, 6091109.2178824395], "max_proj": [392780.4854371572, 6091120.40657608], "height_m": 3.0}, {"min_proj": [392857.1233834652, 6091110.552381112], "max_proj": [392871.904884091, 6091125.1488439515], "height_m": 3.0}, {"min_proj": [392755.18224431016, 6091128.006233951], "max_proj": [392770.7349369066, 6091143.602591038], "height_m": 3.0}, {"min_proj": [392770.5591634139, 6091144.003629467], "max_proj": [392800.3760517776, 6091174.198637679], "height_m": 3.0}, {"min_proj": [392848.78302298527, 6091144.984524062], "max_proj": [392877.65086328855, 6091174.375355622], "height_m": 3.0}, {"min_proj": [392585.1802730014, 6091024.762039936], "max_proj": [392595.7561349473, 6091035.411822431], "height_m": 3.0}, {"min_proj": [392571.7363187326, 6091046.0121521605], "max_proj": [392635.6403484462, 6091114.3019914], "height_m": 3.0}, {"min_proj": [392623.02517883683, 6091097.679966232], "max_proj": [392652.47871916404, 6091127.305141353], "height_m": 3.0}, {"min_proj": [392744.5873388144, 6091114.736233202], "max_proj": [392756.21128963446, 6091128.506062061], "height_m": 3.0}, {"min_proj": [392624.52342706814, 6091105.747350364], "max_proj": [392689.9392671953, 6091155.7173107285], "height_m": 3.0}, {"min_proj": [392564.41739785875, 6091126.11085936], "max_proj": [392574.07204363606, 6091135.701169132], "height_m": 3.0}, {"min_proj": [392718.08824400394, 6091128.957427551], "max_proj": [392729.31738956296, 6091140.325666486], "height_m": 3.0}, {"min_proj": [392668.969708352, 6091130.152625853], "max_proj": [392703.73609531485, 6091162.471846647], "height_m": 3.0}, {"min_proj": [392646.1499782441, 6091154.802090056], "max_proj": [392668.14901924826, 6091177.517968655], "height_m": 3.0}, {"min_proj": [392613.63950968604, 6091162.350503599], "max_proj": [392641.35516820604, 6091192.4869396975], "height_m": 3.0}, {"min_proj": [392888.8944388318, 6091077.745297779], "max_proj": [392908.7528794083, 6091095.8927196385], "height_m": 3.0}, {"min_proj": [392933.812867421, 6091078.042298569], "max_proj": [392956.6339039463, 6091101.389349372], "height_m": 3.0}, {"min_proj": [392907.79071082454, 6091098.6235236805], "max_proj": [392930.36429577216, 6091122.048842749], "height_m": 3.0}, {"min_proj": [392925.78385622334, 6091106.057498632], "max_proj": [392966.3130671344, 6091141.75588615], "height_m": 3.0}, {"min_proj": [392948.6760684674, 6091139.244253754], "max_proj": [392987.1187305853, 6091180.265464441], "height_m": 3.0}, {"min_proj": [392969.6535315675, 6091178.460299717], "max_proj": [393011.06837745494, 6091213.603596563], "height_m": 3.0}, {"min_proj": [392992.72566958854, 6091213.58439805], "max_proj": [393026.3151839188, 6091236.882311593], "height_m": 3.0}, {"min_proj": [392933.8806494116, 6091225.741261827], "max_proj": [392947.85162092187, 6091242.438823733], "height_m": 3.0}, {"min_proj": [392884.76455657306, 6091213.746048819], "max_proj": [392924.41733696824, 6091255.836716263], "height_m": 3.0}, {"min_proj": [392919.35454574076, 6091255.704368823], "max_proj": [392924.6574354575, 6091269.14028335], "height_m": 3.0}, {"min_proj": [392824.1750642366, 6091164.404548762], "max_proj": [392835.6385702693, 6091175.930366111], "height_m": 3.0}, {"min_proj": [392802.79433965916, 6091177.140640372], "max_proj": [392814.0580758952, 6091188.691615499], "height_m": 3.0}, {"min_proj": [392817.9508045554, 6091192.067644881], "max_proj": [392830.05169409735, 6091203.544876747], "height_m": 3.0}, {"min_proj": [392833.794230673, 6091205.705634759], "max_proj": [392845.27563055704, 6091216.494343256], "height_m": 3.0}, {"min_proj": [392832.9479997271, 6091252.736170361], "max_proj": [392838.9620548328, 6091258.773564946], "height_m": 3.0}, {"min_proj": [392827.182827188, 6091275.340780745], "max_proj": [392834.360369393, 6091282.449978783], "height_m": 3.0}, {"min_proj": [392836.69035463, 6091284.505128313], "max_proj": [392845.601981198, 6091293.306479728], "height_m": 3.0}, {"min_proj": [392823.04131760204, 6091318.837964052], "max_proj": [392853.38133183727, 6091344.48441036], "height_m": 3.0}, {"min_proj": [392858.7744983793, 6091322.092951958], "max_proj": [392879.51486815856, 6091344.609181911], "height_m": 3.0}, {"min_proj": [392794.78555657645, 6091328.680555662], "max_proj": [392818.5672233685, 6091343.481518472], "height_m": 3.0}, {"min_proj": [392982.6079568861, 6091265.986492173], "max_proj": [393009.16985234764, 6091283.214380185], "height_m": 3.0}, {"min_proj": [392924.17552651116, 6091265.7224618085], "max_proj": [392983.3175438035, 6091288.3391015], "height_m": 3.0}, {"min_proj": [392906.3596156129, 6091276.008141647], "max_proj": [392921.5534205728, 6091290.951675401], "height_m": 3.0}, {"min_proj": [392883.14004606684, 6091290.111127221], "max_proj": [392912.1436727968, 6091314.757746684], "height_m": 3.0}, {"min_proj": [392890.87349986355, 6091309.746080925], "max_proj": [392916.9877876909, 6091346.284026929], "height_m": 3.0}, {"min_proj": [392889.925961031, 6091343.354433169], "max_proj": [392898.52383993973, 6091351.96117989], "height_m": 3.0}, {"min_proj": [392929.96438012365, 6091369.526562073], "max_proj": [392943.64486047364, 6091383.69132054], "height_m": 3.0}, {"min_proj": [392890.42940430774, 6091365.8986251205], "max_proj": [392932.80112204846, 6091409.730641209], "height_m": 3.0}, {"min_proj": [393118.99768760987, 6090494.87250553], "max_proj": [393143.58901139477, 6090519.405797883], "height_m": 3.0}, {"min_proj": [393142.95643141045, 6090563.962793843], "max_proj": [393151.11181761173, 6090572.100694539], "height_m": 3.0}, {"min_proj": [393133.9034870524, 6090604.471863287], "max_proj": [393195.28378978523, 6090665.702735277], "height_m": 15.0}, {"min_proj": [393110.97537718125, 6090640.077420778], "max_proj": [393163.58053591824, 6090693.789549182], "height_m": 27.0}, {"min_proj": [393089.96154556423, 6090506.680805268], "max_proj": [393100.9071163578, 6090517.590774646], "height_m": 3.0}, {"min_proj": [393048.46509404585, 6090510.109777697], "max_proj": [393128.3180616607, 6090589.798556378], "height_m": 15.0}, {"min_proj": [393033.2198148664, 6090580.502681981], "max_proj": [393057.7854819262, 6090605.024360266], "height_m": 3.0}, {"min_proj": [393015.6817974542, 6090597.978788516], "max_proj": [393031.22079818236, 6090615.964675816], "height_m": 3.0}, {"min_proj": [393047.2316219049, 6090579.835650815], "max_proj": [393125.7147809013, 6090658.163147859], "height_m": 15.0}, {"min_proj": [393005.37976539455, 6090632.110794365], "max_proj": [393023.90081318433, 6090649.311999683], "height_m": 3.0}, {"min_proj": [393018.25069258537, 6090645.625110369], "max_proj": [393047.07672853343, 6090682.276688264], "height_m": 3.0}, {"min_proj": [393054.15488050884, 6090672.380455021], "max_proj": [393159.4829931811, 6090775.108485601], "height_m": 27.0}, {"min_proj": [393041.57022394123, 6090678.408939306], "max_proj": [393137.50710579264, 6090796.649464003], "height_m": 3.0}, {"min_proj": [393116.15736646915, 6090823.171795702], "max_proj": [393126.7424720406, 6090833.800918456], "height_m": 3.0}, {"min_proj": [393104.84009506257, 6091147.611369108], "max_proj": [393166.7969494646, 6091210.650059003], "height_m": 3.0}, {"min_proj": [393050.60709065513, 6091135.284767855], "max_proj": [393076.76805169135, 6091165.957410665], "height_m": 3.0}, {"min_proj": [393076.43525792245, 6091164.033347211], "max_proj": [393151.0477934226, 6091234.630475994], "height_m": 3.0}, {"min_proj": [393043.99071860564, 6091199.132953389], "max_proj": [393053.1917632889, 6091211.6106338445], "height_m": 3.0}, {"min_proj": [393004.1455371673, 6091245.5922345], "max_proj": [393067.59343003994, 6091282.446355072], "height_m": 3.0}, {"min_proj": [393064.0071193648, 6091275.192277645], "max_proj": [393079.3347554709, 6091290.512183066], "height_m": 3.0}, {"min_proj": [393020.9301472779, 6091291.5017065], "max_proj": [393053.59198168595, 6091314.097115547], "height_m": 3.0}, {"min_proj": [393031.0470903982, 6091320.9888496045], "max_proj": [393104.4865930018, 6091365.307486595], "height_m": 3.0}, {"min_proj": [393014.6554324877, 6091349.773972215], "max_proj": [393020.6221433077, 6091356.1979147885], "height_m": 3.0}, {"min_proj": [392084.15667934273, 6090528.8909630235], "max_proj": [392130.4428559032, 6090565.3900470855], "height_m": 3.0}, {"min_proj": [392028.63365557353, 6090540.181333753], "max_proj": [392080.78827881615, 6090571.171373332], "height_m": 3.0}, {"min_proj": [392181.4545722923, 6090560.27351638], "max_proj": [392200.42433648213, 6090585.175020017], "height_m": 3.0}, {"min_proj": [392163.4278547929, 6090566.991226383], "max_proj": [392187.56824333465, 6090599.953246359], "height_m": 3.0}, {"min_proj": [392149.99829541205, 6090573.302827972], "max_proj": [392173.7249063331, 6090615.542966224], "height_m": 3.0}, {"min_proj": [392141.9757849089, 6090614.542629685], "max_proj": [392160.3188224336, 6090627.53885703], "height_m": 3.0}, {"min_proj": [392133.7258345854, 6090625.806171589], "max_proj": [392145.85086329305, 6090636.092842275], "height_m": 3.0}, {"min_proj": [392120.6941977609, 6090632.008755082], "max_proj": [392136.4830294356, 6090644.033378996], "height_m": 3.0}, {"min_proj": [392123.7581331064, 6090639.851883793], "max_proj": [392141.43909706955, 6090659.92299737], "height_m": 3.0}, {"min_proj": [392042.30469840806, 6090815.837926449], "max_proj": [392054.02630635933, 6090827.45802817], "height_m": 3.0}, {"min_proj": [392198.2776927827, 6090553.666879742], "max_proj": [392214.06910599757, 6090571.605059118], "height_m": 3.0}, {"min_proj": [392238.7168354791, 6090553.792712267], "max_proj": [392343.46959161607, 6090607.150146326], "height_m": 3.0}, {"min_proj": [392245.38434199285, 6090574.48172123], "max_proj": [392352.4672050923, 6090625.5242442405], "height_m": 3.0}, {"min_proj": [392263.3914224133, 6090598.308359117], "max_proj": [392353.56802434043, 6090642.528880018], "height_m": 3.0}, {"min_proj": [392240.3411231352, 6090618.474825083], "max_proj": [392250.07055104536, 6090628.187592252], "height_m": 3.0}, {"min_proj": [392227.42533977097, 6090644.6880335], "max_proj": [392241.6852693986, 6090662.858815437], "height_m": 3.0}, {"min_proj": [392272.4963460054, 6090620.185748479], "max_proj": [392380.3402852923, 6090760.840101292], "height_m": 3.0}, {"min_proj": [392240.02188561164, 6090625.5242442405], "max_proj": [392316.07862530544, 6090790.043460745], "height_m": 3.0}, {"min_proj": [392296.6010517009, 6090750.574322734], "max_proj": [392395.87603740254, 6090903.605707124], "height_m": 3.0}, {"min_proj": [392318.7891959825, 6090763.597001955], "max_proj": [392411.6722611281, 6090913.861558749], "height_m": 3.0}, {"min_proj": [392410.53981974383, 6090749.8422883535], "max_proj": [392417.3535938577, 6090757.652269831], "height_m": 3.0}, {"min_proj": [392479.3863169523, 6090747.918993704], "max_proj": [392535.1261600133, 6090838.758269796], "height_m": 15.0}, {"min_proj": [392332.5167233429, 6090772.055288028], "max_proj": [392428.4128337452, 6090925.41638383], "height_m": 3.0}, {"min_proj": [392351.2007488749, 6090797.404550192], "max_proj": [392436.9985007685, 6090936.389861048], "height_m": 3.0}, {"min_proj": [392414.95151920454, 6090849.07147862], "max_proj": [392460.55109532375, 6090911.642671581], "height_m": 3.0}, {"min_proj": [392499.8562419058, 6090884.8754236605], "max_proj": [392504.1171597003, 6090889.627665685], "height_m": 3.0}, {"min_proj": [392370.7990803126, 6090826.628149443], "max_proj": [392446.3578340844, 6090974.261683814], "height_m": 3.0}, {"min_proj": [392411.34507907124, 6090909.139835822], "max_proj": [392420.59852082643, 6090916.953943184], "height_m": 3.0}, {"min_proj": [392459.312117532, 6090904.475906728], "max_proj": [392481.53289421357, 6090928.963821865], "height_m": 3.0}, {"min_proj": [392424.32246737496, 6090908.495058793], "max_proj": [392441.1882210419, 6090925.143949332], "height_m": 3.0}, {"min_proj": [392719.7714362439, 6090722.462810423], "max_proj": [392751.4738174521, 6090791.778651563], "height_m": 27.0}, {"min_proj": [392574.0575462744, 6090739.005013845], "max_proj": [392604.3362251385, 6090808.062203466], "height_m": 15.0}, {"min_proj": [392653.7159545448, 6090744.121660179], "max_proj": [392690.6101338016, 6090833.01520662], "height_m": 27.0}, {"min_proj": [392695.95602146327, 6090804.017440461], "max_proj": [392744.3220570305, 6090853.111484743], "height_m": 27.0}, {"min_proj": [392541.4693242834, 6090830.957004628], "max_proj": [392611.1412685999, 6090860.661607133], "height_m": 15.0}, {"min_proj": [392634.23766008497, 6090832.260246377], "max_proj": [392665.71073988714, 6090902.449979611], "height_m": 15.0}, {"min_proj": [392589.6802515123, 6090875.468238386], "max_proj": [392623.63577403047, 6090945.736432474], "height_m": 15.0}, {"min_proj": [392568.3297598633, 6090929.04976926], "max_proj": [392573.07218413753, 6090933.733579695], "height_m": 3.0}, {"min_proj": [392694.1089927284, 6090934.384360492], "max_proj": [392730.7946077062, 6090971.235081241], "height_m": 3.0}, {"min_proj": [392641.0759890424, 6090969.703130013], "max_proj": [392698.60966639116, 6091029.26684011], "height_m": 3.0}, {"min_proj": [392239.07053996087, 6090885.653113507], "max_proj": [392262.4346707403, 6090906.686338238], "height_m": 3.0}, {"min_proj": [392287.3501599133, 6090902.847563061], "max_proj": [392387.3761012104, 6090969.368197462], "height_m": 3.0}, {"min_proj": [392257.081352596, 6090928.704622323], "max_proj": [392272.6135761584, 6090944.135642399], "height_m": 3.0}, {"min_proj": [392261.85992291686, 6090893.010792167], "max_proj": [392408.0337552213, 6090999.552059996], "height_m": 3.0}, {"min_proj": [392231.82852494513, 6090957.714910332], "max_proj": [392242.3740260397, 6090968.349002698], "height_m": 3.0}, {"min_proj": [392301.9933240315, 6090963.135340669], "max_proj": [392310.10094505013, 6090971.001732137], "height_m": 3.0}, {"min_proj": [392227.83599876444, 6090967.049800422], "max_proj": [392234.8778132565, 6090973.885157776], "height_m": 3.0}, {"min_proj": [392307.73351225076, 6090984.805052015], "max_proj": [392316.78258460877, 6090993.78656421], "height_m": 3.0}, {"min_proj": [392197.4014811253, 6090994.1464069085], "max_proj": [392207.589089826, 6091004.441755906], "height_m": 3.0}, {"min_proj": [392247.4425057918, 6091022.951493144], "max_proj": [392259.7307199348, 6091035.81070841], "height_m": 3.0}, {"min_proj": [392407.34603885637, 6090916.106383367], "max_proj": [392418.7014378712, 6090946.829326035], "height_m": 3.0}, {"min_proj": [392500.9974431301, 6090926.875117213], "max_proj": [392516.936288886, 6090942.866262281], "height_m": 3.0}, {"min_proj": [392451.35337826394, 6090937.303215435], "max_proj": [392468.2187568359, 6090953.95193655], "height_m": 3.0}, {"min_proj": [392505.64861628274, 6090945.634709037], "max_proj": [392555.1110660621, 6091001.722227111], "height_m": 3.0}, {"min_proj": [392490.72623210424, 6090972.598852602], "max_proj": [392501.6274002502, 6090983.510650104], "height_m": 3.0}, {"min_proj": [392390.4079116138, 6090967.434129647], "max_proj": [392418.60586399847, 6090988.946325134], "height_m": 3.0}, {"min_proj": [392415.74626236706, 6090965.954138964], "max_proj": [392449.7689571724, 6091020.006956887], "height_m": 3.0}, {"min_proj": [392453.8676209674, 6090987.621199532], "max_proj": [392473.6465561339, 6091009.009083112], "height_m": 3.0}, {"min_proj": [392534.9570017073, 6091079.893317866], "max_proj": [392575.58932477067, 6091120.591541843], "height_m": 3.0}, {"min_proj": [392533.667546097, 6091146.704056426], "max_proj": [392569.65507006674, 6091182.657832416], "height_m": 3.0}, {"min_proj": [392320.33173646335, 6091292.7486711], "max_proj": [392357.06467450224, 6091328.794104865], "height_m": 3.0}, {"min_proj": [392348.1566244421, 6091283.946217279], "max_proj": [392405.02470296284, 6091342.0100844195], "height_m": 3.0}, {"min_proj": [392272.09222945815, 6091314.078123981], "max_proj": [392277.0234216167, 6091318.998209289], "height_m": 3.0}, {"min_proj": [392246.4526122934, 6091340.40174251], "max_proj": [392254.6412796246, 6091348.646518003], "height_m": 3.0}, {"min_proj": [392303.8147364308, 6091319.601303079], "max_proj": [392362.6265132596, 6091386.377718637], "height_m": 3.0}, {"min_proj": [392153.13637161296, 6091340.092948275], "max_proj": [392263.9487625999, 6091460.738206513], "height_m": 6.0}, {"min_proj": [392444.2061670666, 6091186.516011551], "max_proj": [392455.1926643037, 6091197.802133853], "height_m": 3.0}, {"min_proj": [392423.4453166977, 6091198.457447225], "max_proj": [392448.13748690893, 6091223.0102074975], "height_m": 3.0}, {"min_proj": [392390.6162790704, 6091241.439822664], "max_proj": [392549.1643131455, 6091401.40031328], "height_m": 3.0}, {"min_proj": [392377.0602070717, 6091251.4108012095], "max_proj": [392538.25437346357, 6091415.450535808], "height_m": 3.0}, {"min_proj": [392378.4869994413, 6091344.169194497], "max_proj": [392390.12527650426, 6091355.8157566255], "height_m": 3.0}, {"min_proj": [392395.2827968075, 6091343.212655136], "max_proj": [392424.2249378729, 6091374.786821756], "height_m": 3.0}, {"min_proj": [392432.2038639106, 6091333.678636905], "max_proj": [392523.4069594081, 6091426.530175384], "height_m": 3.0}, {"min_proj": [392164.92528129043, 6091222.100116232], "max_proj": [392173.3634757502, 6091230.623209705], "height_m": 3.0}, {"min_proj": [392167.94850309315, 6091228.612757098], "max_proj": [392171.5017723284, 6091232.187160489], "height_m": 3.0}, {"min_proj": [392090.0001681916, 6091294.10408932], "max_proj": [392163.4654549147, 6091359.7690622145], "height_m": 3.0}, {"min_proj": [392569.7255319207, 6091182.576936292], "max_proj": [392609.80251084873, 6091222.629714325], "height_m": 3.0}, {"min_proj": [392669.8230687927, 6091244.648287505], "max_proj": [392681.0583749911, 6091253.750587274], "height_m": 3.0}, {"min_proj": [392701.21669261565, 6091212.316864491], "max_proj": [392785.99621689017, 6091286.827527714], "height_m": 3.0}, {"min_proj": [392648.01573483605, 6091251.654052447], "max_proj": [392664.1144038092, 6091268.2128650565], "height_m": 3.0}, {"min_proj": [392635.2403335253, 6091270.774727671], "max_proj": [392641.31305207714, 6091278.165822], "height_m": 3.0}, {"min_proj": [392690.282776012, 6091264.3915525265], "max_proj": [392711.73169710074, 6091296.193850563], "height_m": 3.0}, {"min_proj": [392713.44630175247, 6091317.793215228], "max_proj": [392776.2515246871, 6091360.578817405], "height_m": 3.0}, {"min_proj": [392674.1294165001, 6091362.298202641], "max_proj": [392714.7543341965, 6091427.877164971], "height_m": 3.0}, {"min_proj": [392740.5657532763, 6091396.136815393], "max_proj": [392750.86245821964, 6091414.32673113], "height_m": 3.0}, {"min_proj": [392758.70100745384, 6091338.616941745], "max_proj": [392829.3490344313, 6091402.909909629], "height_m": 3.0}, {"min_proj": [392821.167315235, 6091398.908896494], "max_proj": [392838.0322327615, 6091416.267400935], "height_m": 3.0}, {"min_proj": [392746.8077492738, 6091395.66701965], "max_proj": [392805.1311403198, 6091440.384945784], "height_m": 3.0}, {"min_proj": [392835.04851990053, 6091434.084611444], "max_proj": [392842.0017045565, 6091438.798957227], "height_m": 3.0}, {"min_proj": [391589.9605480621, 6090282.651467844], "max_proj": [391651.4519283585, 6090347.195945049], "height_m": 3.0}, {"min_proj": [391546.4686775518, 6090440.610380465], "max_proj": [391693.8947794392, 6090561.70703272], "height_m": 3.0}]}