{"id": "chunk_8_14", "ix": 8, "iy": 14, "tile_proj_bounds": [387747.2182111981, 6093238.107330536, 388947.2182111981, 6094438.107330536], "roads": [{"pts_proj": [[388382.57645719487, 6093244.910026943], [388365.7318095144, 6093038.322809233]], "width_m": 7.0, "highway": "residential"}, {"pts_proj": [[388365.7318095144, 6093038.322809233], [388381.7272888513, 6093233.197003849], [388382.57645719487, 6093244.910026943]], "width_m": 7.0, "highway": "residential"}, {"pts_proj": [[388257.050454294, 6093051.665918768], [388272.0393178584, 6093223.464005023], [388273.3829924468, 6093239.840546136], [388275.01712177676, 6093251.945892247]], "width_m": 7.0, "highway": "residential"}, {"pts_proj": [[388275.01712177676, 6093251.945892247], [388272.0393178584, 6093223.464005023], [388257.050454294, 6093051.665918768]], "width_m": 7.0, "highway": "residential"}, {"pts_proj": [[388083.31062129483, 6093250.588611524], [388065.67975855916, 6093086.371733752], [388064.8149685005, 6093078.422099166]], "width_m": 7.0, "highway": "residential"}, {"pts_proj": [[388064.8149685005, 6093078.422099166], [388083.31062129483, 6093250.588611524]], "width_m": 7.0, "highway": "residential"}, {"pts_proj": [[388182.02025215887, 6093276.912185495], [388180.1355181321, 6093262.475186638], [388176.70680820715, 6093236.220075001], [388173.82392876234, 6093212.845919999], [388163.4468823264, 6093114.555542668], [388158.25782574294, 6093065.265646766]], "width_m": 10.0, "highway": "tertiary"}, {"pts_proj": [[388158.25782574294, 6093065.265646766], [388163.4468823264, 6093114.555542668], [388173.82392876234, 6093212.845919999], [388176.70680820715, 6093236.220075001], [388179.3668783461, 6093256.5716124475], [388182.02025215887, 6093276.912185495]], "width_m": 10.0, "highway": "tertiary"}, {"pts_proj": [[388805.63329213555, 6093283.412414044], [388878.9991771702, 6093219.268496952]], "width_m": 7.0, "highway": "residential"}, {"pts_proj": [[388878.9991771702, 6093219.268496952], [388805.63329213555, 6093283.412414044]], "width_m": 7.0, "highway": "residential"}, {"pts_proj": [[388680.52025898005, 6093229.865819426], [388732.6195008056, 6093230.485582245], [388753.21557633457, 6093232.5788780935], [388768.6037188233, 6093242.861928764], [388783.84359900316, 6093259.038056429], [388793.4328166183, 6093269.966228911], [388805.63329213555, 6093283.412414044]], "width_m": 7.0, "highway": "residential"}, {"pts_proj": [[387991.317687611, 6093296.96492127], [387987.15997469024, 6093244.175832416], [387969.00973072, 6093087.498137979]], "width_m": 7.0, "highway": "residential"}, {"pts_proj": [[387969.00973072, 6093087.498137979], [387987.15997469024, 6093244.175832416], [387991.317687611, 6093296.96492127]], "width_m": 7.0, "highway": "residential"}, {"pts_proj": [[387873.09555266483, 6093099.885484795], [387893.5883407848, 6093305.990696756]], "width_m": 7.0, "highway": "residential"}, {"pts_proj": [[387893.5883407848, 6093305.990696756], [387873.09555266483, 6093099.885484795]], "width_m": 7.0, "highway": "residential"}, {"pts_proj": [[387777.2441592278, 6093112.206531897], [387789.0756949129, 6093212.742153794], [387798.49778932065, 6093315.531403134]], "width_m": 10.0, "highway": "tertiary"}, {"pts_proj": [[388878.9991771702, 6093219.268496952], [388918.22171768727, 6093262.548692261], [388982.1790299528, 6093334.128065788], [389005.33446770813, 6093360.440009819], [389013.7359230244, 6093369.984190537]], "width_m": 7.0, "highway": "residential"}, {"pts_proj": [[387798.49778932065, 6093315.531403134], [387789.0756949129, 6093212.742153794], [387777.2441592278, 6093112.206531897]], "width_m": 10.0, "highway": "tertiary"}, {"pts_proj": [[387991.317687611, 6093296.96492127], [387893.5883407848, 6093305.990696756]], "width_m": 7.0, "highway": "residential"}, {"pts_proj": [[387893.5883407848, 6093305.990696756], [387991.317687611, 6093296.96492127]], "width_m": 7.0, "highway": "residential"}, {"pts_proj": [[387893.5883407848, 6093305.990696756], [387798.49778932065, 6093315.531403134]], "width_m": 7.0, "highway": "residential"}, {"pts_proj": [[387798.49778932065, 6093315.531403134], [387893.5883407848, 6093305.990696756]], "width_m": 7.0, "highway": "residential"}, {"pts_proj": [[387798.49778932065, 6093315.531403134], [387748.45569862024, 6093320.582215982]], "width_m": 7.0, "highway": "residential"}, {"pts_proj": [[387748.45569862024, 6093320.582215982], [387792.71030849405, 6093316.11064243], [387798.49778932065, 6093315.531403134]], "width_m": 7.0, "highway": "residential"}, {"pts_proj": [[387748.45569862024, 6093320.582215982], [387655.1265776145, 6093328.077868403]], "width_m": 7.0, "highway": "residential"}, {"pts_proj": [[388805.63329213555, 6093283.412414044], [388793.4328166183, 6093269.966228911], [388783.84359900316, 6093259.038056429], [388768.6037188233, 6093242.861928764], [388753.21557633457, 6093232.5788780935], [388732.6195008056, 6093230.485582245], [388680.52025898005, 6093229.865819426]], "width_m": 7.0, "highway": "residential"}, {"pts_proj": [[388182.02025215887, 6093276.912185495], [388265.42730772455, 6093263.886023401], [388273.23707826366, 6093262.221560483]], "width_m": 7.0, "highway": "residential"}, {"pts_proj": [[388273.23707826366, 6093262.221560483], [388182.02025215887, 6093276.912185495]], "width_m": 7.0, "highway": "residential"}, {"pts_proj": [[388680.52025898005, 6093229.865819426], [388680.37833367195, 6093258.670377482], [388675.99153705686, 6093272.317164907], [388621.95037743496, 6093323.358930675]], "width_m": 8.0, "highway": "unclassified"}, {"pts_proj": [[388621.95037743496, 6093323.358930675], [388675.99153705686, 6093272.317164907], [388680.37833367195, 6093258.670377482], [388680.52025898005, 6093229.865819426]], "width_m": 8.0, "highway": "unclassified"}, {"pts_proj": [[387991.317687611, 6093296.96492127], [388086.7890045096, 6093286.750835421], [388112.1961551269, 6093284.289976924], [388182.02025215887, 6093276.912185495]], "width_m": 7.0, "highway": "residential"}, {"pts_proj": [[388182.02025215887, 6093276.912185495], [388112.1961551269, 6093284.289976924], [388086.7890045096, 6093286.750835421], [387991.317687611, 6093296.96492127]], "width_m": 7.0, "highway": "residential"}, {"pts_proj": [[388805.63329213555, 6093283.412414044], [388731.1018910508, 6093351.594457349]], "width_m": 7.0, "highway": "residential"}, {"pts_proj": [[388731.1018910508, 6093351.594457349], [388805.63329213555, 6093283.412414044]], "width_m": 7.0, "highway": "residential"}, {"pts_proj": [[388194.50199442956, 6093391.548995337], [388189.6143345397, 6093346.615685673], [388187.20483118994, 6093324.49886591], [388182.02025215887, 6093276.912185495]], "width_m": 10.0, "highway": "tertiary"}, {"pts_proj": [[389013.7359230244, 6093369.984190537], [388986.5677253058, 6093339.118132359], [388918.22171768727, 6093262.548692261], [388878.9991771702, 6093219.268496952]], "width_m": 7.0, "highway": "residential"}, {"pts_proj": [[387655.1265776145, 6093328.077868403], [387748.45569862024, 6093320.582215982]], "width_m": 7.0, "highway": "residential"}, {"pts_proj": [[387893.5883407848, 6093305.990696756], [387907.0537155444, 6093416.394055165]], "width_m": 7.0, "highway": "residential"}, {"pts_proj": [[387907.0537155444, 6093416.394055165], [387893.5883407848, 6093305.990696756]], "width_m": 7.0, "highway": "residential"}, {"pts_proj": [[387907.0537155444, 6093416.394055165], [388062.96726015053, 6093402.30617783]], "width_m": 7.0, "highway": "residential"}, {"pts_proj": [[388062.96726015053, 6093402.30617783], [387907.0537155444, 6093416.394055165]], "width_m": 7.0, "highway": "residential"}, {"pts_proj": [[387823.17229935585, 6093514.874077221], [387798.49778932065, 6093315.531403134]], "width_m": 10.0, "highway": "tertiary"}, {"pts_proj": [[388182.02025215887, 6093276.912185495], [388187.20483118994, 6093324.49886591], [388189.6143345397, 6093346.615685673], [388194.50199442956, 6093391.548995337]], "width_m": 10.0, "highway": "tertiary"}, {"pts_proj": [[388731.1018910508, 6093351.594457349], [388717.4630422285, 6093358.346056637], [388700.14747512684, 6093372.0136240795], [388690.1380463866, 6093384.107977489], [388657.2706384938, 6093403.550786031], [388644.0892443149, 6093414.265719355]], "width_m": 7.0, "highway": "residential"}, {"pts_proj": [[388644.0892443149, 6093414.265719355], [388657.2706384938, 6093403.550786031], [388690.1380463866, 6093384.107977489], [388700.14747512684, 6093372.0136240795], [388717.4630422285, 6093358.346056637], [388731.1018910508, 6093351.594457349]], "width_m": 7.0, "highway": "residential"}, {"pts_proj": [[388062.96726015053, 6093402.30617783], [388194.50199442956, 6093391.548995337]], "width_m": 7.0, "highway": "residential"}, {"pts_proj": [[388194.50199442956, 6093391.548995337], [388062.96726015053, 6093402.30617783]], "width_m": 7.0, "highway": "residential"}, {"pts_proj": [[388644.0892443149, 6093414.265719355], [388638.008519413, 6093423.3901661765]], "width_m": 7.0, "highway": "residential"}, {"pts_proj": [[388638.008519413, 6093423.3901661765], [388644.0892443149, 6093414.265719355]], "width_m": 7.0, "highway": "residential"}, {"pts_proj": [[388731.1018910508, 6093351.594457349], [388854.8364810903, 6093489.063490787]], "width_m": 7.0, "highway": "residential"}, {"pts_proj": [[388854.8364810903, 6093489.063490787], [388731.1018910508, 6093351.594457349]], "width_m": 7.0, "highway": "residential"}, {"pts_proj": [[388194.50199442956, 6093391.548995337], [388198.67360011296, 6093429.8649056535], [388203.7002110516, 6093476.008255279], [388201.9691478443, 6093486.182544612], [388168.88496872433, 6093515.553992812], [388127.05646368914, 6093550.922267816]], "width_m": 10.0, "highway": "tertiary"}, {"pts_proj": [[387798.49778932065, 6093315.531403134], [387823.17229935585, 6093514.874077221]], "width_m": 10.0, "highway": "tertiary"}, {"pts_proj": [[388062.96726015053, 6093402.30617783], [388035.4255113561, 6093431.796098844]], "width_m": 7.0, "highway": "residential"}, {"pts_proj": [[388035.4255113561, 6093431.796098844], [388060.57285604766, 6093409.758388551], [388062.96726015053, 6093402.30617783]], "width_m": 7.0, "highway": "residential"}, {"pts_proj": [[387916.75070235494, 6093501.630887497], [387907.0537155444, 6093416.394055165]], "width_m": 7.0, "highway": "residential"}, {"pts_proj": [[387907.0537155444, 6093416.394055165], [387916.75070235494, 6093501.630887497]], "width_m": 7.0, "highway": "residential"}, {"pts_proj": [[388035.4255113561, 6093431.796098844], [387967.1138377398, 6093491.5751082]], "width_m": 7.0, "highway": "residential"}, {"pts_proj": [[387967.1138377398, 6093491.5751082], [388027.17844067764, 6093439.005053223], [388035.4255113561, 6093431.796098844]], "width_m": 7.0, "highway": "residential"}, {"pts_proj": [[387967.1138377398, 6093491.5751082], [387953.9083188019, 6093497.672529481], [387919.0818513562, 6093501.383260752], [387916.75070235494, 6093501.630887497]], "width_m": 7.0, "highway": "residential"}, {"pts_proj": [[387916.75070235494, 6093501.630887497], [387953.9083188019, 6093497.672529481], [387967.1138377398, 6093491.5751082]], "width_m": 7.0, "highway": "residential"}, {"pts_proj": [[387823.17229935585, 6093514.874077221], [387904.5562889214, 6093503.350116252], [387916.75070235494, 6093501.630887497]], "width_m": 7.0, "highway": "residential"}, {"pts_proj": [[389071.1004617742, 6093575.412683643], [388944.30871703237, 6093436.17689122], [388934.4029810451, 6093425.367601763], [388908.3508664568, 6093397.42455423], [388805.63329213555, 6093283.412414044]], "width_m": 7.0, "highway": "residential"}, {"pts_proj": [[388805.63329213555, 6093283.412414044], [388908.3508664568, 6093397.42455423], [388930.6446427132, 6093421.263717383], [388944.30871703237, 6093436.17689122], [389066.64416480705, 6093570.524416113], [389071.1004617742, 6093575.412683643]], "width_m": 7.0, "highway": "residential"}, {"pts_proj": [[388127.05646368914, 6093550.922267816], [388163.2918306595, 6093520.057868637], [388198.31029688776, 6093491.216986371], [388203.2523264161, 6093481.151768077], [388198.67360011296, 6093429.8649056535], [388194.50199442956, 6093391.548995337]], "width_m": 10.0, "highway": "tertiary"}, {"pts_proj": [[388644.0892443149, 6093414.265719355], [388674.46665358415, 6093452.297544851], [388710.1814891978, 6093489.963076055], [388742.81304871297, 6093525.979886918], [388776.1241202897, 6093565.39786036]], "width_m": 7.0, "highway": "residential"}, {"pts_proj": [[388776.1241202897, 6093565.39786036], [388742.81304871297, 6093525.979886918], [388710.1814891978, 6093489.963076055], [388674.46665358415, 6093452.297544851], [388644.0892443149, 6093414.265719355]], "width_m": 7.0, "highway": "residential"}, {"pts_proj": [[388127.05646368914, 6093550.922267816], [388035.4255113561, 6093431.796098844]], "width_m": 7.0, "highway": "residential"}, {"pts_proj": [[388035.4255113561, 6093431.796098844], [388127.05646368914, 6093550.922267816]], "width_m": 7.0, "highway": "residential"}, {"pts_proj": [[388776.1241202897, 6093565.39786036], [388796.72811901855, 6093545.703862934], [388836.44567463483, 6093504.037525707], [388854.8364810903, 6093489.063490787]], "width_m": 7.0, "highway": "residential"}, {"pts_proj": [[388854.8364810903, 6093489.063490787], [388836.44567463483, 6093504.037525707], [388796.72811901855, 6093545.703862934], [388776.1241202897, 6093565.39786036]], "width_m": 7.0, "highway": "residential"}, {"pts_proj": [[388574.81954305194, 6093573.5100621525], [388571.7524842813, 6093564.00089178], [388582.63081079756, 6093553.142646507], [388596.1914856246, 6093544.310680195]], "width_m": 7.0, "highway": "residential"}, {"pts_proj": [[388596.1914856246, 6093544.310680195], [388582.63081079756, 6093553.142646507], [388571.7524842813, 6093564.00089178], [388574.81954305194, 6093573.5100621525]], "width_m": 7.0, "highway": "residential"}, {"pts_proj": [[388776.1241202897, 6093565.39786036], [388752.02738454, 6093564.872195686], [388700.4383378383, 6093566.8447849685], [388574.81954305194, 6093573.5100621525]], "width_m": 7.0, "highway": "residential"}, {"pts_proj": [[388854.8364810903, 6093489.063490787], [388930.441447748, 6093572.320836751], [388988.2777532409, 6093632.997010556], [388999.56012524077, 6093641.501140946]], "width_m": 7.0, "highway": "residential"}, {"pts_proj": [[388999.56012524077, 6093641.501140946], [388988.2777532409, 6093632.997010556], [388930.441447748, 6093572.320836751], [388854.8364810903, 6093489.063490787]], "width_m": 7.0, "highway": "residential"}, {"pts_proj": [[387916.75070235494, 6093501.630887497], [387823.17229935585, 6093514.874077221]], "width_m": 7.0, "highway": "residential"}, {"pts_proj": [[387748.45569862024, 6093320.582215982], [387790.3953531708, 6093700.482268495]], "width_m": 7.0, "highway": "residential"}, {"pts_proj": [[387790.3953531708, 6093700.482268495], [387749.9374243182, 6093333.704354674], [387748.45569862024, 6093320.582215982]], "width_m": 7.0, "highway": "residential"}, {"pts_proj": [[387967.1138377398, 6093491.5751082], [388059.8162081579, 6093607.934392727]], "width_m": 7.0, "highway": "residential"}, {"pts_proj": [[388059.8162081579, 6093607.934392727], [387967.1138377398, 6093491.5751082]], "width_m": 7.0, "highway": "residential"}, {"pts_proj": [[387823.17229935585, 6093514.874077221], [387842.3716327554, 6093694.59285423]], "width_m": 10.0, "highway": "tertiary"}, {"pts_proj": [[387842.3716327554, 6093694.59285423], [387823.17229935585, 6093514.874077221]], "width_m": 10.0, "highway": "tertiary"}, {"pts_proj": [[387971.7996877254, 6093675.743310691], [387995.3970197038, 6093662.973256506], [388059.8162081579, 6093607.934392727]], "width_m": 10.0, "highway": "tertiary"}, {"pts_proj": [[388059.8162081579, 6093607.934392727], [387995.3970197038, 6093662.973256506], [387982.591297756, 6093671.721409503], [387971.7996877254, 6093675.743310691]], "width_m": 10.0, "highway": "tertiary"}, {"pts_proj": [[387971.7996877254, 6093675.743310691], [387957.8431249259, 6093678.163362745], [387898.4065868262, 6093686.865647421], [387859.30772381136, 6093692.253658343], [387842.3716327554, 6093694.59285423]], "width_m": 10.0, "highway": "tertiary"}, {"pts_proj": [[387842.3716327554, 6093694.59285423], [387859.30772381136, 6093692.253658343], [387898.4065868262, 6093686.865647421], [387957.8431249259, 6093678.163362745], [387971.7996877254, 6093675.743310691]], "width_m": 10.0, "highway": "tertiary"}, {"pts_proj": [[387790.3953531708, 6093700.482268495], [387842.3716327554, 6093694.59285423]], "width_m": 10.0, "highway": "tertiary"}, {"pts_proj": [[387842.3716327554, 6093694.59285423], [387790.3953531708, 6093700.482268495]], "width_m": 10.0, "highway": "tertiary"}, {"pts_proj": [[387790.3953531708, 6093700.482268495], [387705.37700632954, 6093708.648365578], [387697.06844588846, 6093709.791981657]], "width_m": 10.0, "highway": "tertiary"}, {"pts_proj": [[388574.81954305194, 6093573.5100621525], [388700.4383378383, 6093566.8447849685], [388742.457960309, 6093565.80026203], [388766.85433790204, 6093564.726413225], [388776.1241202897, 6093565.39786036]], "width_m": 7.0, "highway": "residential"}, {"pts_proj": [[388059.8162081579, 6093607.934392727], [388127.05646368914, 6093550.922267816]], "width_m": 10.0, "highway": "tertiary"}, {"pts_proj": [[388127.05646368914, 6093550.922267816], [388059.8162081579, 6093607.934392727]], "width_m": 10.0, "highway": "tertiary"}, {"pts_proj": [[388924.44581380405, 6093704.629074118], [388913.6805886871, 6093700.966274277], [388824.53771126946, 6093616.0526572615], [388776.1241202897, 6093565.39786036]], "width_m": 7.0, "highway": "residential"}, {"pts_proj": [[388776.1241202897, 6093565.39786036], [388824.53771126946, 6093616.0526572615], [388906.70503213035, 6093696.485804103], [388913.6805886871, 6093700.966274277], [388924.44581380405, 6093704.629074118]], "width_m": 7.0, "highway": "residential"}, {"pts_proj": [[388419.9871223691, 6093767.674415263], [388410.7782277004, 6093732.701371311], [388397.716960972, 6093706.307746351], [388374.97499945696, 6093659.169802694], [388366.0121559669, 6093643.328361892], [388356.3534238513, 6093622.694827536], [388351.6478492145, 6093606.045857325], [388349.24757589796, 6093591.966786332], [388574.81954305194, 6093573.5100621525]], "width_m": 7.0, "highway": "residential"}, {"pts_proj": [[388574.81954305194, 6093573.5100621525], [388349.24757589796, 6093591.966786332], [388351.6478492145, 6093606.045857325], [388356.3534238513, 6093622.694827536], [388366.0121559669, 6093643.328361892], [388374.97499945696, 6093659.169802694], [388397.716960972, 6093706.307746351], [388410.7782277004, 6093732.701371311], [388419.9871223691, 6093767.674415263]], "width_m": 7.0, "highway": "residential"}, {"pts_proj": [[388021.8969343726, 6093740.375250311], [388180.05671685387, 6093614.14741752]], "width_m": 7.0, "highway": "residential"}, {"pts_proj": [[388180.05671685387, 6093614.14741752], [388021.8969343726, 6093740.375250311]], "width_m": 7.0, "highway": "residential"}, {"pts_proj": [[388160.3043855007, 6093775.201565829], [388156.00407777145, 6093735.330258488]], "width_m": 7.0, "highway": "residential"}, {"pts_proj": [[388924.44581380405, 6093704.629074118], [388999.56012524077, 6093641.501140946]], "width_m": 7.0, "highway": "residential"}, {"pts_proj": [[388999.56012524077, 6093641.501140946], [388924.44581380405, 6093704.629074118]], "width_m": 7.0, "highway": "residential"}, {"pts_proj": [[387697.06844588846, 6093709.791981657], [387790.3953531708, 6093700.482268495]], "width_m": 10.0, "highway": "tertiary"}, {"pts_proj": [[387971.7996877254, 6093675.743310691], [388021.8969343726, 6093740.375250311]], "width_m": 7.0, "highway": "residential"}, {"pts_proj": [[388021.8969343726, 6093740.375250311], [387977.6890347259, 6093686.929377692], [387971.7996877254, 6093675.743310691]], "width_m": 7.0, "highway": "residential"}, {"pts_proj": [[387842.3716327554, 6093694.59285423], [387854.11748296546, 6093806.364050468]], "width_m": 7.0, "highway": "residential"}, {"pts_proj": [[387854.11748296546, 6093806.364050468], [387842.3716327554, 6093694.59285423]], "width_m": 7.0, "highway": "residential"}, {"pts_proj": [[388021.8969343726, 6093740.375250311], [388058.6656235653, 6093783.163965552]], "width_m": 7.0, "highway": "residential"}, {"pts_proj": [[388058.6656235653, 6093783.163965552], [388021.8969343726, 6093740.375250311]], "width_m": 7.0, "highway": "residential"}, {"pts_proj": [[387957.7503514038, 6093795.207541063], [388021.8969343726, 6093740.375250311]], "width_m": 7.0, "highway": "residential"}, {"pts_proj": [[388021.8969343726, 6093740.375250311], [387964.3397918324, 6093789.086422082], [387957.7503514038, 6093795.207541063]], "width_m": 7.0, "highway": "residential"}, {"pts_proj": [[387854.11748296546, 6093806.364050468], [387948.1662115495, 6093795.781438548], [387957.7503514038, 6093795.207541063]], "width_m": 8.0, "highway": "unclassified"}, {"pts_proj": [[387957.7503514038, 6093795.207541063], [387854.11748296546, 6093806.364050468]], "width_m": 8.0, "highway": "unclassified"}, {"pts_proj": [[387790.3953531708, 6093700.482268495], [387812.794784948, 6093930.175084834]], "width_m": 7.0, "highway": "residential"}, {"pts_proj": [[387812.794784948, 6093930.175084834], [387790.3953531708, 6093700.482268495]], "width_m": 7.0, "highway": "residential"}, {"pts_proj": [[387970.12099646556, 6093912.362839048], [387958.06217690033, 6093804.083918478], [387957.7503514038, 6093795.207541063]], "width_m": 7.0, "highway": "residential"}, {"pts_proj": [[387957.7503514038, 6093795.207541063], [387970.12099646556, 6093912.362839048]], "width_m": 7.0, "highway": "residential"}, {"pts_proj": [[387854.11748296546, 6093806.364050468], [387867.4424398226, 6093925.465810688]], "width_m": 7.0, "highway": "residential"}, {"pts_proj": [[387867.4424398226, 6093925.465810688], [387854.11748296546, 6093806.364050468]], "width_m": 7.0, "highway": "residential"}, {"pts_proj": [[387846.84778063366, 6093982.615737126], [387838.70201032073, 6093975.160295625], [387835.1938758043, 6093963.179952038], [387838.5744664562, 6093951.672703523], [387847.54970546154, 6093943.676922057], [387859.39538214577, 6093941.632236424], [387870.5349637001, 6093946.162650128], [387877.58464277047, 6093955.872219958], [387877.6453812885, 6093970.56635265], [387870.46084692515, 6093980.521167065]], "width_m": 7.0, "highway": "residential"}, {"pts_proj": [[387870.46084692515, 6093980.521167065], [387859.7121181753, 6093984.943088097], [387846.84778063366, 6093982.615737126]], "width_m": 7.0, "highway": "residential"}, {"pts_proj": [[389053.9163993991, 6093855.843575847], [389027.90799348353, 6093829.279336693], [388970.77173670905, 6093767.794939714], [388950.0492215942, 6093747.078416726], [388933.824252274, 6093725.693739957], [388925.136309633, 6093710.779605799], [388924.44581380405, 6093704.629074118]], "width_m": 7.0, "highway": "residential"}, {"pts_proj": [[388924.44581380405, 6093704.629074118], [388929.0446318368, 6093719.388610099], [388950.0492215942, 6093747.078416726], [388970.77173670905, 6093767.794939714], [389027.90799348353, 6093829.279336693], [389053.9163993991, 6093855.843575847]], "width_m": 7.0, "highway": "residential"}, {"pts_proj": [[387866.0992442868, 6094206.141998382], [387859.090435909, 6094123.431847791], [387855.66787640355, 6094089.817780816], [387851.38741185947, 6094037.042923558], [387849.749517325, 6094019.716366081]], "width_m": 7.0, "highway": "residential"}, {"pts_proj": [[387917.79486023163, 6094201.295646796], [387890.1395532258, 6094203.769589663], [387875.98601255077, 6094205.415580432]], "width_m": 7.0, "highway": "residential"}, {"pts_proj": [[387875.98601255077, 6094205.415580432], [387890.1395532258, 6094203.769589663], [387917.79486023163, 6094201.295646796]], "width_m": 7.0, "highway": "residential"}, {"pts_proj": [[387866.0992442868, 6094206.141998382], [387875.98601255077, 6094205.415580432]], "width_m": 7.0, "highway": "residential"}, {"pts_proj": [[387875.98601255077, 6094205.415580432], [387866.0992442868, 6094206.141998382]], "width_m": 7.0, "highway": "residential"}, {"pts_proj": [[387866.0992442868, 6094206.141998382], [387851.5278517135, 6094207.72060451], [387835.49952201766, 6094209.413702352]], "width_m": 7.0, "highway": "residential"}, {"pts_proj": [[387835.49952201766, 6094209.413702352], [387851.5278517135, 6094207.72060451], [387866.0992442868, 6094206.141998382]], "width_m": 7.0, "highway": "residential"}, {"pts_proj": [[387875.98601255077, 6094205.415580432], [387877.7014873888, 6094224.56602762], [387906.17886527744, 6094558.3348641], [387907.7310340148, 6094574.806342675]], "width_m": 7.0, "highway": "residential"}, {"pts_proj": [[387897.5365893554, 6094575.740824048], [387896.3045704299, 6094559.2724607345], [387867.64923279476, 6094225.329988722], [387866.0992442868, 6094206.141998382]], "width_m": 7.0, "highway": "residential"}, {"pts_proj": [[387870.46084692515, 6093980.521167065], [387861.9371751685, 6093988.138199601], [387858.3729521, 6093999.9840229945], [387859.84451751236, 6094018.851113523]], "width_m": 7.0, "highway": "residential"}, {"pts_proj": [[387849.749517325, 6094019.716366081], [387848.65010713023, 6094005.226383791], [387847.98907816666, 6093989.066589386], [387846.84778063366, 6093982.615737126]], "width_m": 7.0, "highway": "residential"}, {"pts_proj": [[387892.56500656996, 6094015.582172289], [387859.84451751236, 6094018.851113523]], "width_m": 7.0, "highway": "residential"}, {"pts_proj": [[387859.84451751236, 6094018.851113523], [387883.8791574892, 6094016.467718209], [387892.56500656996, 6094015.582172289]], "width_m": 7.0, "highway": "residential"}, {"pts_proj": [[387849.749517325, 6094019.716366081], [387859.84451751236, 6094018.851113523]], "width_m": 7.0, "highway": "residential"}, {"pts_proj": [[387859.84451751236, 6094018.851113523], [387849.749517325, 6094019.716366081]], "width_m": 7.0, "highway": "residential"}, {"pts_proj": [[387826.7646113528, 6094022.084770728], [387839.12258512154, 6094020.817632609], [387849.749517325, 6094019.716366081]], "width_m": 7.0, "highway": "residential"}, {"pts_proj": [[387849.749517325, 6094019.716366081], [387835.4696391615, 6094021.198632652], [387826.7646113528, 6094022.084770728]], "width_m": 7.0, "highway": "residential"}, {"pts_proj": [[387859.84451751236, 6094018.851113523], [387862.02830019407, 6094043.400494846], [387868.37446537096, 6094116.018410456], [387875.98601255077, 6094205.415580432]], "width_m": 7.0, "highway": "residential"}, {"pts_proj": [[388156.00407777145, 6093735.330258488], [388160.3043855007, 6093775.201565829]], "width_m": 7.0, "highway": "residential"}, {"pts_proj": [[388058.6656235653, 6093783.163965552], [388160.3043855007, 6093775.201565829]], "width_m": 7.0, "highway": "residential"}, {"pts_proj": [[388160.3043855007, 6093775.201565829], [388058.6656235653, 6093783.163965552]], "width_m": 7.0, "highway": "residential"}, {"pts_proj": [[388289.51941318135, 6093882.837709245], [388273.9018391841, 6093794.831228113], [388270.98871610354, 6093778.427053215], [388262.04137989384, 6093766.804844475], [388160.3043855007, 6093775.201565829]], "width_m": 7.0, "highway": "residential"}, {"pts_proj": [[388160.3043855007, 6093775.201565829], [388255.51253992546, 6093764.340428064], [388267.42268890835, 6093771.524519945], [388273.9018391841, 6093794.831228113], [388289.51941318135, 6093882.837709245]], "width_m": 7.0, "highway": "residential"}, {"pts_proj": [[388160.3043855007, 6093775.201565829], [388170.39364390075, 6093878.141660417], [388172.2075533446, 6093894.873838045], [388129.0225889789, 6093904.258206032], [388083.7169249606, 6093908.46348694], [388074.5890324873, 6093903.7152490625], [388058.6656235653, 6093783.163965552]], "width_m": 7.0, "highway": "residential"}, {"pts_proj": [[388058.6656235653, 6093783.163965552], [388072.6462104827, 6093900.0231247265], [388080.5326803447, 6093907.363001109], [388129.0225889789, 6093904.258206032], [388166.637142168, 6093900.523865721], [388170.39364390075, 6093878.141660417], [388160.3043855007, 6093775.201565829]], "width_m": 7.0, "highway": "residential"}], "buildings": [{"min_proj": [388789.05286142713, 6093231.3938905755], "max_proj": [388810.3217937312, 6093252.685449306], "obb": {"c": [388799.68684019573, 6093242.033304774], "s": [15.629988344077871, 14.532763772295032], "yaw": -0.8310890210953343}, "height_m": 3.0}, {"min_proj": [388811.7552686069, 6093234.770967257], "max_proj": [388828.16455873504, 6093250.906533144], "obb": {"c": [388819.95983148646, 6093242.838650181], "s": [13.41901952538453, 9.633298933772117], "yaw": -2.4038593438025355}, "height_m": 3.0}, {"min_proj": [388917.54723502777, 6093228.05544399], "max_proj": [388935.8167737976, 6093246.245481469], "obb": {"c": [388926.68218671874, 6093237.150113963], "s": [13.395422328089243, 12.42413033730369], "yaw": 2.3914997345467954}, "height_m": 3.0}, {"min_proj": [388870.7692170588, 6093243.700305592], "max_proj": [388885.3049095177, 6093258.197615906], "obb": {"c": [388878.03728595626, 6093250.942944614], "s": [10.317500710887852, 10.248509750557584], "yaw": -0.7501439232681246}, "height_m": 3.0}, {"min_proj": [388854.3880451304, 6093256.778680534], "max_proj": [388869.30691756285, 6093271.64013186], "obb": {"c": [388861.8474002071, 6093264.215137915], "s": [10.798715249367357, 10.294690768801594], "yaw": 2.391097881175159}, "height_m": 3.0}, {"min_proj": [388943.3420188917, 6093257.340234183], "max_proj": [388962.1851854817, 6093276.196602524], "obb": {"c": [388952.76319253363, 6093266.769338301], "s": [13.899411152571322, 12.79805185069266], "yaw": -2.3231710623974684}, "height_m": 3.0}, {"min_proj": [388888.3306044431, 6093260.90829509], "max_proj": [388906.74801322113, 6093279.076057297], "obb": {"c": [388897.5398430521, 6093269.996832323], "s": [14.526816696131734, 11.398468497481238], "yaw": 2.4055629258650875}, "height_m": 3.0}, {"min_proj": [388655.0093011121, 6093239.938184403], "max_proj": [388664.8692316351, 6093253.392133209], "obb": {"c": [388659.9392888486, 6093246.665071305], "s": [12.666520385183743, 8.659622810163976], "yaw": -1.669012555444047}, "height_m": 3.0}, {"min_proj": [388612.4152483851, 6093249.591781367], "max_proj": [388628.2905731237, 6093265.379524298], "obb": {"c": [388620.1367416229, 6093257.480778868], "s": [14.963660007278312, 14.394745062766452], "yaw": -0.0985729118970202}, "height_m": 3.0}, {"min_proj": [388633.6621153755, 6093252.510745256], "max_proj": [388651.720099509, 6093269.056740612], "obb": {"c": [388643.1572690381, 6093260.444691712], "s": [17.547002983934423, 15.57904921353191], "yaw": -0.0982219357720822}, "height_m": 3.0}, {"min_proj": [388645.63795224234, 6093273.820934815], "max_proj": [388662.34012562473, 6093289.987690762], "obb": {"c": [388653.9894417292, 6093281.903734638], "s": [14.847735477436695, 8.446390450422054], "yaw": 2.413344936080469}, "height_m": 3.0}, {"min_proj": [388688.09380162274, 6093270.541426426], "max_proj": [388711.36325413233, 6093293.987291933], "obb": {"c": [388699.728180692, 6093282.26521017], "s": [18.283276188273238, 14.813471969510443], "yaw": -2.3110887953548596}, "height_m": 3.0}, {"min_proj": [388617.74737484264, 6093274.40127869], "max_proj": [388636.6418605552, 6093293.489992826], "obb": {"c": [388627.1946631837, 6093283.951180131], "s": [14.987203667842646, 11.943842645035033], "yaw": -2.3007490420781895}, "height_m": 3.0}, {"min_proj": [388638.82674523577, 6093280.298125064], "max_proj": [388646.88629136933, 6093288.472929493], "obb": {"c": [388642.85666562663, 6093284.379587355], "s": [6.626333576841128, 4.885304847517404], "yaw": 0.8408794309577917}, "height_m": 3.0}, {"min_proj": [388724.95329939405, 6093278.8745597005], "max_proj": [388747.04306964535, 6093291.143217833], "obb": {"c": [388735.99819756096, 6093285.008968548], "s": [21.805087506759484, 11.730697397410461], "yaw": 3.1167453840214057}, "height_m": 3.0}, {"min_proj": [388829.72848538397, 6093281.120001895], "max_proj": [388841.2058053032, 6093292.76189766], "obb": {"c": [388835.46723888605, 6093286.940706228], "s": [10.144651933215297, 6.227158044376657], "yaw": -2.322771867839295}, "height_m": 3.0}, {"min_proj": [388752.25926962425, 6093284.072960665], "max_proj": [388767.9109952026, 6093299.487905786], "obb": {"c": [388760.0855464681, 6093291.779665233], "s": [12.60287322370445, 9.407668206301823], "yaw": 2.4031919344896946}, "height_m": 3.0}, {"min_proj": [388841.9492747683, 6093267.781961836], "max_proj": [388856.6585238641, 6093282.456818321], "obb": {"c": [388849.30427526706, 6093275.118619674], "s": [10.428104348232118, 10.386988219710936], "yaw": 2.3915191962632054}, "height_m": 3.0}, {"min_proj": [388899.7206769528, 6093276.857783219], "max_proj": [388916.7498317114, 6093293.701222464], "obb": {"c": [388908.2356212618, 6093285.278863206], "s": [13.485161226656905, 10.50882179774518], "yaw": 2.39154831345293}, "height_m": 3.0}, {"min_proj": [388892.8158758866, 6093287.057943818], "max_proj": [388900.27713399846, 6093294.468394698], "obb": {"c": [388896.54700502893, 6093290.762142907], "s": [5.613598168365501, 4.922561025745041], "yaw": 2.39070278385547}, "height_m": 3.0}, {"min_proj": [388918.32321758935, 6093294.445857438], "max_proj": [388937.26238245657, 6093313.529252711], "obb": {"c": [388927.79261416476, 6093303.993558463], "s": [15.478526844943797, 11.451315898141344], "yaw": -2.3233932870391523}, "height_m": 3.0}, {"min_proj": [388673.30540147744, 6093285.513162079], "max_proj": [388690.49630321003, 6093302.535546614], "obb": {"c": [388681.2455108577, 6093293.301238877], "s": [13.143277457464606, 13.044484962310033], "yaw": -0.7398196869740077}, "height_m": 3.0}, {"min_proj": [388661.27930016327, 6093293.377662542], "max_proj": [388670.690959253, 6093302.99929746], "obb": {"c": [388665.9848508729, 6093298.189593191], "s": [8.566417152323044, 4.920393664233168], "yaw": -2.3111638400876764}, "height_m": 3.0}, {"min_proj": [388590.0783853724, 6093300.342057142], "max_proj": [388600.2838617133, 6093310.523550229], "obb": {"c": [388595.181355566, 6093305.432508578], "s": [9.287350276739625, 5.142249141033358], "yaw": -0.7848258730067623}, "height_m": 3.0}, {"min_proj": [388647.8697789722, 6093307.726936547], "max_proj": [388664.72652242717, 6093324.345803189], "obb": {"c": [388656.29800810164, 6093316.042103247], "s": [13.455197990619588, 10.26037078562224], "yaw": 2.402735648003189}, "height_m": 3.0}, {"min_proj": [388670.3800984386, 6093309.800924947], "max_proj": [388684.6088882984, 6093324.568446201], "obb": {"c": [388677.4943843293, 6093317.180228032], "s": [14.7130788947447, 5.830219691799372], "yaw": 0.8303618323332724}, "height_m": 3.0}, {"min_proj": [388791.9601791845, 6093308.593507278], "max_proj": [388813.0063616623, 6093329.449727034], "obb": {"c": [388802.4829376939, 6093319.022151762], "s": [16.3634424102129, 13.310493583544316], "yaw": 2.391181041050953}, "height_m": 3.0}, {"min_proj": [388695.55008682865, 6093320.407136743], "max_proj": [388710.82081512135, 6093335.741139787], "obb": {"c": [388703.1853454077, 6093328.068818117], "s": [11.552908098899998, 10.13080430441646], "yaw": 0.8309390517359422}, "height_m": 3.0}, {"min_proj": [388625.20021656057, 6093325.550220919], "max_proj": [388637.00460374064, 6093339.641068943], "obb": {"c": [388632.16474982456, 6093332.592027192], "s": [11.444325484066649, 8.410361602765432], "yaw": 0.8303826629602375}, "height_m": 3.0}, {"min_proj": [388588.85202485137, 6093326.96604625], "max_proj": [388607.58301073743, 6093340.932153536], "obb": {"c": [388598.2176387886, 6093331.591985562], "s": [14.172630950041924, 12.31636232654412], "yaw": 2.356786357431437}, "height_m": 3.0}, {"min_proj": [388814.3464614828, 6093330.3584052045], "max_proj": [388831.4172063665, 6093347.329058544], "obb": {"c": [388822.88208211766, 6093338.837700254], "s": [12.714211773854574, 11.395067309933326], "yaw": -0.7503046396123397}, "height_m": 3.0}, {"min_proj": [388848.976515721, 6093302.469273862], "max_proj": [388865.55715024215, 6093318.925565675], "obb": {"c": [388857.26633953117, 6093310.703988153], "s": [12.626647300812875, 10.769339874820256], "yaw": 2.3912363052658914}, "height_m": 3.0}, {"min_proj": [388881.7143450154, 6093307.939026606], "max_proj": [388894.9672152022, 6093320.619151074], "obb": {"c": [388888.3404226143, 6093314.279603219], "s": [14.883329571598903, 3.4734997823031937], "yaw": -0.7505390372170605}, "height_m": 3.0}, {"min_proj": [388889.0644204763, 6093312.733920704], "max_proj": [388896.9884615381, 6093320.568427528], "obb": {"c": [388893.0259967689, 6093316.651882276], "s": [6.257662765213409, 4.9059441515283675], "yaw": 2.3918228197015527}, "height_m": 3.0}, {"min_proj": [388860.2857519001, 6093313.087540625], "max_proj": [388876.9422425827, 6093329.430944704], "obb": {"c": [388868.6137961453, 6093321.259645297], "s": [14.4735976004495, 8.900161069842857], "yaw": -0.7499708620180144}, "height_m": 3.0}, {"min_proj": [388902.9186880583, 6093324.040526652], "max_proj": [388909.8175704302, 6093330.876547376], "obb": {"c": [388906.3683127038, 6093327.458205428], "s": [5.348187923905596, 4.380728400378753], "yaw": 2.3917733311303975}, "height_m": 3.0}, {"min_proj": [388892.3405281018, 6093329.489822508], "max_proj": [388904.8066735902, 6093341.6006497545], "obb": {"c": [388898.5741211315, 6093335.544518714], "s": [12.168187691998353, 5.23334660451372], "yaw": 2.3908477222484463}, "height_m": 3.0}, {"min_proj": [388872.20894817135, 6093328.229502722], "max_proj": [388888.95244662114, 6093345.0789054185], "obb": {"c": [388880.58108329354, 6093336.653199748], "s": [13.437653177343586, 10.358458372161538], "yaw": -2.3229012660018817}, "height_m": 3.0}, {"min_proj": [388907.1539902563, 6093334.406170503], "max_proj": [388914.6959590359, 6093341.971927924], "obb": {"c": [388910.92484991055, 6093338.189256206], "s": [5.6620390552460265, 5.032251493987306], "yaw": 0.8196307625329738}, "height_m": 3.0}, {"min_proj": [388941.36953230103, 6093338.073284728], "max_proj": [388951.324692432, 6093348.058503344], "obb": {"c": [388946.3471890341, 6093343.065712883], "s": [7.662235177754071, 6.46437795395813], "yaw": -2.3229756186493655}, "height_m": 3.0}, {"min_proj": [388885.7858843263, 6093340.964254236], "max_proj": [388902.70482775185, 6093357.538882297], "obb": {"c": [388894.24517276726, 6093349.251853073], "s": [15.189175732624273, 8.51791216424579], "yaw": 2.3912618175002196}, "height_m": 3.0}, {"min_proj": [388933.4077844168, 6093343.238650215], "max_proj": [388946.1348921328, 6093355.888687586], "obb": {"c": [388939.77179629734, 6093349.557221905], "s": [9.410129806930044, 8.568445493808037], "yaw": -0.7501855397461112}, "height_m": 3.0}, {"min_proj": [388918.23016305664, 6093359.54349539], "max_proj": [388930.2137044004, 6093371.761475476], "obb": {"c": [388924.2221817463, 6093365.6513333935], "s": [11.261818777918872, 5.876987379487909], "yaw": -2.322617417336442}, "height_m": 3.0}, {"min_proj": [388635.62841762346, 6093329.399342985], "max_proj": [388656.0527591592, 6093348.398893693], "obb": {"c": [388645.84024425485, 6093338.184568824], "s": [14.795868698443986, 14.14600277240122], "yaw": -2.3110069531346897}, "height_m": 3.0}, {"min_proj": [388766.9925797904, 6093332.33917066], "max_proj": [388781.42099577986, 6093346.686461808], "obb": {"c": [388774.20647401485, 6093339.507864648], "s": [10.713389639229495, 9.668687731530762], "yaw": -0.7506122151129666}, "height_m": 3.0}, {"min_proj": [388653.13339082245, 6093334.277521373], "max_proj": [388665.9556232274, 6093346.696653852], "obb": {"c": [388659.5439165058, 6093340.487931595], "s": [11.861645750242122, 6.0143507951408], "yaw": 2.403305269147401}, "height_m": 3.0}, {"min_proj": [388614.28574823047, 6093340.041529614], "max_proj": [388631.9495013126, 6093359.955911957], "obb": {"c": [388624.461983048, 6093350.006039874], "s": [17.341734248679, 11.18423464238457], "yaw": -0.7382823416083037}, "height_m": 3.0}, {"min_proj": [388644.6950649947, 6093348.180058476], "max_proj": [388651.89891496446, 6093355.263474647], "obb": {"c": [388648.29729075567, 6093351.721190347], "s": [5.861961524796635, 4.262796763174903], "yaw": 2.403307107212161}, "height_m": 3.0}, {"min_proj": [388827.9158548422, 6093343.838369014], "max_proj": [388844.1588474499, 6093360.048473667], "obb": {"c": [388836.0370577443, 6093351.9440460345], "s": [11.564871789022872, 11.421808992812501], "yaw": -2.3235826760251483}, "height_m": 3.0}, {"min_proj": [388752.4691482365, 6093345.876602351], "max_proj": [388768.63485790056, 6093361.86024731], "obb": {"c": [388760.5521837505, 6093353.868193198], "s": [12.815448964645059, 9.958669552877906], "yaw": -0.7499238199294206}, "height_m": 3.0}, {"min_proj": [388626.4383839717, 6093358.80036322], "max_proj": [388638.2446820879, 6093370.352572135], "obb": {"c": [388632.3419775615, 6093364.581254298], "s": [10.00733227988026, 6.547498408750088], "yaw": 2.402831107243992}, "height_m": 3.0}, {"min_proj": [388826.10967219016, 6093360.226165304], "max_proj": [388836.95452810725, 6093370.73698274], "obb": {"c": [388831.5317690047, 6093365.476541784], "s": [10.831038513304945, 4.292512056340183], "yaw": -0.7512586036510449}, "height_m": 3.0}, {"min_proj": [388662.0062061909, 6093359.366205062], "max_proj": [388675.78403031145, 6093373.189603993], "obb": {"c": [388668.8950246046, 6093366.2781170225], "s": [10.340821081287963, 9.21378873367904], "yaw": -2.3113428592985747}, "height_m": 3.0}, {"min_proj": [388838.8505142715, 6093357.8045834815], "max_proj": [388858.14676975727, 6093382.265283067], "obb": {"c": [388845.665045534, 6093370.028936467], "s": [22.33416312478414, 12.652568949494635], "yaw": -0.7503507920728587}, "height_m": 3.0}, {"min_proj": [388903.91029959376, 6093364.135464774], "max_proj": [388919.5848426572, 6093379.834412137], "obb": {"c": [388911.7474288815, 6093371.985271647], "s": [11.782654293619114, 10.440673186658067], "yaw": -2.3230075559424175}, "height_m": 3.0}, {"min_proj": [388851.4108784862, 6093367.773514856], "max_proj": [388867.73706995917, 6093384.041149164], "obb": {"c": [388859.57406777993, 6093375.9070733925], "s": [11.858129683576445, 11.222821703535393], "yaw": 2.390917512940004}, "height_m": 3.0}, {"min_proj": [387803.24855486455, 6093232.453002478], "max_proj": [387826.64435633726, 6093240.174622516], "obb": {"c": [387814.94656873966, 6093236.309632745], "s": [23.002647228561347, 5.9625780081815], "yaw": -0.07769474248986423}, "height_m": 3.0}, {"min_proj": [387908.1585793296, 6093233.746505594], "max_proj": [387923.2850429672, 6093250.187438914], "obb": {"c": [387915.72172521113, 6093241.967094656], "s": [15.09788980404898, 13.59136545657846], "yaw": -1.677826009207114}, "height_m": 3.0}, {"min_proj": [387959.33897073625, 6093226.643658874], "max_proj": [387971.10775407567, 6093241.018416734], "obb": {"c": [387965.22336778115, 6093233.831056698], "s": [13.370146639254953, 10.429561533149911], "yaw": -1.675417131751628}, "height_m": 3.0}, {"min_proj": [388024.35901155986, 6093236.336141979], "max_proj": [388031.2012263655, 6093248.625086998], "obb": {"c": [388027.7801079369, 6093242.480700992], "s": [11.773840851004755, 5.638594323269623], "yaw": -1.6758569896858042}, "height_m": 3.0}, {"min_proj": [388002.22649845877, 6093237.602322483], "max_proj": [388014.2388954442, 6093253.057023536], "obb": {"c": [388008.2347772541, 6093245.335153408], "s": [14.43670210091943, 10.558921640076834], "yaw": 1.465591323542636}, "height_m": 3.0}, {"min_proj": [388035.11026383174, 6093241.741386686], "max_proj": [388066.2183434897, 6093254.034084772], "obb": {"c": [388050.49886042246, 6093247.152776649], "s": [30.494588716932796, 10.63642334196581], "yaw": -0.10466561435782056}, "height_m": 3.0}, {"min_proj": [388121.9133083778, 6093241.72308822], "max_proj": [388129.34265858657, 6093255.06786219], "obb": {"c": [388125.626061529, 6093248.3900258895], "s": [12.78395644527641, 6.1271378691035014], "yaw": -1.6757920358105622}, "height_m": 3.0}, {"min_proj": [387958.2732960205, 6093248.9066889025], "max_proj": [387973.8750781283, 6093263.467668789], "obb": {"c": [387966.0741745348, 6093256.187232721], "s": [14.309813188061685, 13.140897192116837], "yaw": -0.10444607601736966}, "height_m": 3.0}, {"min_proj": [387803.65125651646, 6093240.005640855], "max_proj": [387814.7081829626, 6093244.12197413], "obb": {"c": [387809.1796528002, 6093242.063878014], "s": [10.834983440924166, 3.2876407808245505], "yaw": -0.07747930960678852}, "height_m": 3.0}, {"min_proj": [387811.5058699428, 6093245.247844852], "max_proj": [387825.06040729483, 6093256.046216562], "obb": {"c": [387818.22012429114, 6093250.710756566], "s": [12.948062390544658, 9.952560530312223], "yaw": 3.063998020407104}, "height_m": 3.0}, {"min_proj": [387831.94086598576, 6093261.321741933], "max_proj": [387871.5285913837, 6093281.092692283], "obb": {"c": [387851.7346781774, 6093271.20731435], "s": [38.347007864946086, 16.677327130039586], "yaw": -0.08226613679380479}, "height_m": 3.0}, {"min_proj": [387942.8262207688, 6093269.965825605], "max_proj": [387957.3964326369, 6093282.5181452315], "obb": {"c": [387950.1113505466, 6093276.242046129], "s": [13.48186658577165, 11.221081615554588], "yaw": -0.10361515744295251}, "height_m": 3.0}, {"min_proj": [387916.4235641204, 6093330.89336855], "max_proj": [387933.76958870003, 6093346.130475073], "obb": {"c": [387925.0966206382, 6093338.506269592], "s": [16.018293132582485, 13.665142747309309], "yaw": -0.10362446130371197}, "height_m": 3.0}, {"min_proj": [387950.78931813187, 6093321.376485897], "max_proj": [387961.8114253557, 6093357.992964845], "obb": {"c": [387956.30039620295, 6093339.684728095], "s": [36.051353854209886, 7.327496991083265], "yaw": 1.4670202115518114}, "height_m": 3.0}, {"min_proj": [387771.89156091894, 6093339.191458401], "max_proj": [387787.5050537152, 6093355.437091089], "obb": {"c": [387779.6999646935, 6093347.314467592], "s": [14.85977554969216, 14.15367417171889], "yaw": 1.4670231917131422}, "height_m": 3.0}, {"min_proj": [387866.059875267, 6093342.568006081], "max_proj": [387880.5040524313, 6093362.386485174], "obb": {"c": [387873.5656680054, 6093352.473900072], "s": [18.56543950752697, 13.165687841294202], "yaw": 1.467398170147606}, "height_m": 3.0}, {"min_proj": [387820.9751439898, 6093346.257496855], "max_proj": [387836.31847128045, 6093360.635733575], "obb": {"c": [387828.6468310353, 6093353.452108805], "s": [14.07612561870642, 13.005844767573091], "yaw": 3.0381957777924677}, "height_m": 3.0}, {"min_proj": [387816.9382067433, 6093375.6697785165], "max_proj": [387825.6259490923, 6093384.363242956], "obb": {"c": [387821.2819210112, 6093380.020347928], "s": [7.926358563066598, 7.911650226764862], "yaw": -1.6742718574161928}, "height_m": 3.0}, {"min_proj": [387962.6437533505, 6093271.599467079], "max_proj": [387977.171576816, 6093280.751078597], "obb": {"c": [387969.90767870226, 6093276.175293892], "s": [13.795732426826428, 7.759373662047258], "yaw": -0.10417104292629124}, "height_m": 3.0}, {"min_proj": [388126.7008878219, 6093302.815379641], "max_proj": [388142.00625935424, 6093333.1162040625], "obb": {"c": [388135.2051309738, 6093317.963423924], "s": [29.004283115114596, 14.083363779997015], "yaw": 1.467154306992221}, "height_m": 3.0}, {"min_proj": [388150.9488023931, 6093310.8887401195], "max_proj": [388167.9308932408, 6093330.820541643], "obb": {"c": [388159.05332684587, 6093320.858434826], "s": [18.39798985668747, 15.947425358729802], "yaw": 1.4677570353476581}, "height_m": 6.0}, {"min_proj": [388094.2212445013, 6093311.534087397], "max_proj": [388114.8179551859, 6093330.217557755], "obb": {"c": [388104.5195821208, 6093320.875718681], "s": [18.923845062806596, 16.77309185775447], "yaw": 3.0352891846605434}, "height_m": 3.0}, {"min_proj": [388031.6600765068, 6093316.41045302], "max_proj": [388052.5516572178, 6093334.484944559], "obb": {"c": [388042.1045355538, 6093325.447562162], "s": [19.537953832408196, 16.436877719640886], "yaw": -0.08713292195122932}, "height_m": 3.0}, {"min_proj": [388067.1931679789, 6093310.66571762], "max_proj": [388077.7594058455, 6093349.175778679], "obb": {"c": [388072.47628759773, 6093329.920786596], "s": [38.02482193706385, 6.672163732797422], "yaw": -1.6743293389659688}, "height_m": 3.0}, {"min_proj": [387974.64875919063, 6093333.902724938], "max_proj": [387992.7069368811, 6093348.349533293], "obb": {"c": [387983.6783149508, 6093341.125119442], "s": [16.83155467621764, 12.78242818185492], "yaw": -0.10323039852719633}, "height_m": 3.0}, {"min_proj": [388146.33556407446, 6093341.151128301], "max_proj": [388157.2030166924, 6093348.393112887], "obb": {"c": [388151.76925280597, 6093344.772215071], "s": [10.282364870266147, 6.218724209908388], "yaw": -0.10305112626487746}, "height_m": 3.0}, {"min_proj": [387975.06036921445, 6093360.669672493], "max_proj": [387981.9364490156, 6093370.036597685], "obb": {"c": [387978.49805848283, 6093365.355093682], "s": [8.797310461561997, 5.998430424767237], "yaw": -1.6744863641130103}, "height_m": 3.0}, {"min_proj": [388163.9105943971, 6093349.004225181], "max_proj": [388180.9789532958, 6093381.765037668], "obb": {"c": [388172.4451798691, 6093365.046044335], "s": [32.19039570849599, 13.820005124149318], "yaw": 1.4673719237031486}, "height_m": 3.0}, {"min_proj": [388120.65823051846, 6093359.8845486], "max_proj": [388135.4182975688, 6093375.166362247], "obb": {"c": [388128.03827745304, 6093367.525383447], "s": [13.979744949494592, 13.388849554725882], "yaw": -1.6741812318139428}, "height_m": 3.0}, {"min_proj": [387986.5228159159, 6093358.22673926], "max_proj": [387997.2267862987, 6093393.118805484], "obb": {"c": [387991.87486169976, 6093375.672852653], "s": [34.33221177296092, 7.192590307460307], "yaw": 1.4671922099098682}, "height_m": 3.0}, {"min_proj": [388047.8072678327, 6093367.879004085], "max_proj": [388062.00794653053, 6093384.198789815], "obb": {"c": [388054.90764023556, 6093376.038802001], "s": [15.100493913373441, 12.70800337818519], "yaw": -1.6743392950962597}, "height_m": 3.0}, {"min_proj": [388087.8420795453, 6093366.941448302], "max_proj": [388101.0424985459, 6093389.271581524], "obb": {"c": [388094.44228793244, 6093378.106491482], "s": [21.32193781875426, 11.057270751262694], "yaw": -1.6742685311142707}, "height_m": 3.0}, {"min_proj": [388163.9272831074, 6093407.555470204], "max_proj": [388180.2792899092, 6093421.316028008], "obb": {"c": [388172.10314008244, 6093414.439489983], "s": [15.167807900619433, 12.269025325696642], "yaw": 3.0382665896328866}, "height_m": 3.0}, {"min_proj": [388132.2006121787, 6093409.648489582], "max_proj": [388147.15728928434, 6093421.889628807], "obb": {"c": [388139.6788286136, 6093415.773845522], "s": [13.909227553043713, 10.873580828491193], "yaw": 3.0382278141057415}, "height_m": 3.0}, {"min_proj": [388105.3041502458, 6093411.105716763], "max_proj": [388120.97737171454, 6093423.963096118], "obb": {"c": [388113.1407903052, 6093417.5344055025], "s": [14.576332742820867, 11.420745338194994], "yaw": -0.10298243855930106}, "height_m": 3.0}, {"min_proj": [388088.5190627873, 6093411.3213709025], "max_proj": [388103.71174832055, 6093431.037856569], "obb": {"c": [388095.8068398463, 6093421.179707449], "s": [18.376665429089854, 13.991983365758548], "yaw": 1.4676437945674952}, "height_m": 3.0}, {"min_proj": [388057.7334727685, 6093424.474771366], "max_proj": [388076.8095308419, 6093443.21369807], "obb": {"c": [388067.2716193147, 6093433.844064784], "s": [14.354220403921843, 12.626251815590425], "yaw": 2.485499732065126}, "height_m": 3.0}, {"min_proj": [388098.14704922633, 6093440.671514441], "max_proj": [388111.59600731684, 6093453.671195207], "obb": {"c": [388104.87095083843, 6093447.177691205], "s": [10.88238074617513, 7.933182512855214], "yaw": 2.457858699165861}, "height_m": 3.0}, {"min_proj": [387768.9847688749, 6093379.055222506], "max_proj": [387786.3581777816, 6093387.360938478], "obb": {"c": [387777.6715307825, 6093383.208025874], "s": [16.780780850104502, 6.6091745981837295], "yaw": -0.10340387695920071}, "height_m": 3.0}, {"min_proj": [387941.8353201142, 6093377.542506104], "max_proj": [387958.71615820524, 6093393.786954346], "obb": {"c": [387950.27547128353, 6093385.667654018], "s": [15.444187337188538, 14.73615384881046], "yaw": 3.0382831228953875}, "height_m": 3.0}, {"min_proj": [387870.02367071377, 6093380.642245329], "max_proj": [387884.63136514265, 6093395.909762436], "obb": {"c": [387877.32749950123, 6093388.281527271], "s": [13.989043140999593, 13.234713789719253], "yaw": -1.6741789266374347}, "height_m": 3.0}, {"min_proj": [387769.6682781875, 6093385.628867472], "max_proj": [387788.31703131105, 6093406.226924243], "obb": {"c": [387778.99262869824, 6093395.933420199], "s": [18.978479936314287, 16.779578876706168], "yaw": -1.6741949305643409}, "height_m": 3.0}, {"min_proj": [387825.6395125668, 6093392.250932863], "max_proj": [387841.90031526587, 6093405.899361788], "obb": {"c": [387833.7699410933, 6093399.075076461], "s": [15.087148601019612, 12.157717242340501], "yaw": -0.10333091850937745}, "height_m": 3.0}, {"min_proj": [387860.31680004287, 6093403.367114151], "max_proj": [387870.16668741754, 6093412.433310257], "obb": {"c": [387865.2403673413, 6093407.899984675], "s": [9.054626292652737, 8.172539862376883], "yaw": -0.10379009529720375}, "height_m": 3.0}, {"min_proj": [387849.6331889627, 6093401.926822074], "max_proj": [387858.2594945704, 6093414.472712948], "obb": {"c": [387853.94665151864, 6093408.1974641485], "s": [11.844904841063277, 7.4430567917367965], "yaw": 1.4673016166473951}, "height_m": 3.0}, {"min_proj": [387821.6486734433, 6093419.421200341], "max_proj": [387828.8802781643, 6093428.731008694], "obb": {"c": [387825.26192477526, 6093424.076013176], "s": [8.697003358860023, 6.370302310367109], "yaw": -1.6745422020378726}, "height_m": 3.0}, {"min_proj": [387876.05017098296, 6093420.578661509], "max_proj": [387890.09585983696, 6093433.561311564], "obb": {"c": [387883.0729717714, 6093427.070059918], "s": [12.903563728729784, 11.711142603015952], "yaw": -0.10363337440031507}, "height_m": 3.0}, {"min_proj": [387830.26967187575, 6093434.2138205655], "max_proj": [387846.469753527, 6093449.975934886], "obb": {"c": [387838.36968118505, 6093442.089468996], "s": [14.801215226303347, 14.323497981774153], "yaw": -0.10337147165103491}, "height_m": 3.0}, {"min_proj": [388193.78810349386, 6093225.449530974], "max_proj": [388208.04495512595, 6093247.195448184], "obb": {"c": [388200.6414543618, 6093236.432896204], "s": [20.97651939641271, 13.132581476063399], "yaw": 1.488775481832264}, "height_m": 3.0}, {"min_proj": [388224.44201382494, 6093232.531809201], "max_proj": [388261.171085723, 6093244.592366206], "obb": {"c": [388242.80439065944, 6093238.6509217275], "s": [36.04363478383741, 8.667501659164515], "yaw": -0.10090198141348537}, "height_m": 3.0}, {"min_proj": [388207.30400804937, 6093236.1970201535], "max_proj": [388225.2920175865, 6093246.347821837], "obb": {"c": [388216.2320566648, 6093241.159862299], "s": [17.33616749578782, 8.673669070259924], "yaw": 3.040689481717469}, "height_m": 3.0}, {"min_proj": [388279.81967463123, 6093583.06060919], "max_proj": [388292.1669013939, 6093600.600021849], "obb": {"c": [388285.9964766705, 6093591.830145548], "s": [16.678607446840083, 10.997589084785105], "yaw": 1.48708696191536}, "height_m": 3.0}, {"min_proj": [388238.16369316215, 6093593.523319216], "max_proj": [388252.22198228183, 6093611.133789141], "obb": {"c": [388245.19288160786, 6093602.3340590345], "s": [16.293245678292262, 12.204162274376095], "yaw": -1.6902125390200493}, "height_m": 3.0}, {"min_proj": [388201.7656229235, 6093611.141590519], "max_proj": [388215.24042625003, 6093622.178320919], "obb": {"c": [388208.5033575579, 6093616.659723978], "s": [14.59982892656799, 2.933242625197327], "yaw": 2.503714320093573}, "height_m": 3.0}, {"min_proj": [388283.58828109794, 6093612.8352243835], "max_proj": [388296.72517955105, 6093628.910136586], "obb": {"c": [388290.15672739205, 6093620.872690884], "s": [14.876174600096657, 11.528849245969464], "yaw": -1.6841048932768334}, "height_m": 3.0}, {"min_proj": [388241.7685167382, 6093627.890054993], "max_proj": [388255.82669290376, 6093645.5005183155], "obb": {"c": [388248.79763932095, 6093636.689650576], "s": [16.293071863758595, 12.203884314001803], "yaw": 1.4513700149659527}, "height_m": 3.0}, {"min_proj": [388285.9256682502, 6093641.643470411], "max_proj": [388300.7345975853, 6093659.160241431], "obb": {"c": [388293.3301683015, 6093650.401873385], "s": [16.35608424220584, 13.35201077355959], "yaw": -1.663510132553904}, "height_m": 3.0}, {"min_proj": [388178.70107526553, 6093642.588006863], "max_proj": [388207.58271762147, 6093667.203675962], "obb": {"c": [388193.1419650479, 6093654.895871698], "s": [25.821367932805146, 13.128021014859646], "yaw": -0.5472184549356784}, "height_m": 3.0}, {"min_proj": [388782.14136586635, 6093362.240647513], "max_proj": [388793.03571951, 6093372.798086381], "obb": {"c": [388787.5889282798, 6093367.513286201], "s": [10.913454073031792, 4.271579699976118], "yaw": -0.7507813114276569}, "height_m": 3.0}, {"min_proj": [388630.3616651099, 6093367.011268491], "max_proj": [388642.2950376513, 6093378.921120012], "obb": {"c": [388636.3279616024, 6093372.966749477], "s": [10.901699330442595, 5.97039632628482], "yaw": 2.3567993843311874}, "height_m": 3.0}, {"min_proj": [388648.7952507282, 6093367.255787548], "max_proj": [388664.6803512655, 6093383.105333931], "obb": {"c": [388656.73756025726, 6093375.174646058], "s": [16.075621089968866, 6.378937639177713], "yaw": 0.7844059525148612}, "height_m": 3.0}, {"min_proj": [388767.7790016869, 6093370.513341945], "max_proj": [388780.0780839183, 6093382.749690106], "obb": {"c": [388773.92848757416, 6093376.63719098], "s": [9.06552646306648, 8.312094538025416], "yaw": 2.3909873478597214}, "height_m": 3.0}, {"min_proj": [388641.35284384445, 6093373.218396431], "max_proj": [388658.9759309431, 6093390.7957340805], "obb": {"c": [388650.1642048101, 6093382.001203414], "s": [12.833567770205162, 12.087749104428955], "yaw": 0.7842707371205021}, "height_m": 3.0}, {"min_proj": [388782.69562030147, 6093377.376616585], "max_proj": [388795.57823407237, 6093390.282745947], "obb": {"c": [388789.13696854905, 6093383.829590915], "s": [9.688554749000788, 8.577676456929131], "yaw": -2.3227892871024145}, "height_m": 3.0}, {"min_proj": [388710.5293984367, 6093384.065098219], "max_proj": [388727.83969473443, 6093401.076227772], "obb": {"c": [388719.1846776902, 6093392.564819614], "s": [14.916145119863334, 9.38736158618129], "yaw": -0.7508411150994468}, "height_m": 3.0}, {"min_proj": [388790.3265678404, 6093387.067895922], "max_proj": [388803.6190425467, 6093400.252662464], "obb": {"c": [388796.9723764593, 6093393.661082177], "s": [10.120582564546226, 8.635700909531186], "yaw": 2.391220674072982}, "height_m": 3.0}, {"min_proj": [388732.29432963574, 6093385.671215811], "max_proj": [388749.1969217564, 6093402.7843999155], "obb": {"c": [388740.7453470771, 6093394.223235116], "s": [14.6429142066847, 9.451633012631335], "yaw": 0.8192597916218326}, "height_m": 3.0}, {"min_proj": [388810.45496512705, 6093396.010876428], "max_proj": [388825.66352936346, 6093411.06974905], "obb": {"c": [388818.05956167757, 6093403.539751656], "s": [11.84196005578573, 9.601503021612736], "yaw": 2.3915905576665843}, "height_m": 3.0}, {"min_proj": [388870.05682137754, 6093388.777142351], "max_proj": [388889.6404559987, 6093408.4665642865], "obb": {"c": [388879.84862772137, 6093398.621812248], "s": [15.480875460021938, 12.33427806041012], "yaw": 0.8185715549766966}, "height_m": 3.0}, {"min_proj": [388841.0379105583, 6093412.598111742], "max_proj": [388849.6406074682, 6093421.049172184], "obb": {"c": [388845.3388975693, 6093416.824214608], "s": [7.453193510954174, 4.620243285917437], "yaw": 2.391058368706218}, "height_m": 3.0}, {"min_proj": [388852.9039893436, 6093412.2673036335], "max_proj": [388867.3852218562, 6093426.790381511], "obb": {"c": [388860.14430454356, 6093419.529486185], "s": [11.09958815277239, 9.446571118260762], "yaw": 0.8182453623010677}, "height_m": 3.0}, {"min_proj": [388845.38617568533, 6093420.01066519], "max_proj": [388860.41711163777, 6093435.527042407], "obb": {"c": [388852.9016464328, 6093427.769164202], "s": [16.341682974456106, 5.2856659900309575], "yaw": -2.3237054513339226}, "height_m": 3.0}, {"min_proj": [388693.97576052573, 6093398.438517823], "max_proj": [388710.7125977355, 6093414.637607428], "obb": {"c": [388702.34420564445, 6093406.53803133], "s": [13.234942796920544, 10.245539986634048], "yaw": 2.476587889845938}, "height_m": 3.0}, {"min_proj": [388740.7188235556, 6093405.438042389], "max_proj": [388756.6542657948, 6093421.421331936], "obb": {"c": [388748.686295526, 6093413.430357213], "s": [12.106355314640268, 10.493633114145277], "yaw": -2.323457386560938}, "height_m": 3.0}, {"min_proj": [388687.42120658193, 6093423.097727386], "max_proj": [388702.31692168594, 6093437.977005898], "obb": {"c": [388694.8687992396, 6093430.543504017], "s": [10.756979433838707, 10.333556321975228], "yaw": -2.3227600511033577}, "height_m": 3.0}, {"min_proj": [388752.3128218841, 6093429.119841184], "max_proj": [388762.4907832708, 6093439.211087319], "obb": {"c": [388757.4015170715, 6093434.165977738], "s": [8.049713722401453, 6.2964321294133585], "yaw": 2.386565666010761}, "height_m": 3.0}, {"min_proj": [388741.26690815797, 6093429.007622962], "max_proj": [388755.1541043765, 6093443.030782295], "obb": {"c": [388748.2114152169, 6093436.018288152], "s": [11.89582680728862, 7.870780245365857], "yaw": -2.327267920939629}, "height_m": 3.0}, {"min_proj": [388768.7393866474, 6093428.63534389], "max_proj": [388783.7585891366, 6093443.646379481], "obb": {"c": [388776.24932614545, 6093436.14013577], "s": [10.901101816105122, 10.370066337573554], "yaw": -2.3229764197814573}, "height_m": 3.0}, {"min_proj": [388696.6991160447, 6093427.601924288], "max_proj": [388712.0811290736, 6093445.200902807], "obb": {"c": [388703.05225626857, 6093436.395387236], "s": [16.86922679346131, 8.378579149039567], "yaw": -0.7493970376254071}, "height_m": 3.0}, {"min_proj": [388831.2433833569, 6093435.749449325], "max_proj": [388847.6221353691, 6093451.874343504], "obb": {"c": [388839.4332796123, 6093443.811053294], "s": [13.791877403686156, 9.227608575921057], "yaw": 2.391121820171146}, "height_m": 3.0}, {"min_proj": [388703.45734321245, 6093438.75249349], "max_proj": [388724.73733047524, 6093460.031033416], "obb": {"c": [388714.09723140544, 6093449.392005496], "s": [15.497416583585737, 14.64118650058162], "yaw": -2.323224831807968}, "height_m": 3.0}, {"min_proj": [388742.64755967766, 6093447.284157139], "max_proj": [388754.5871722833, 6093460.549032047], "obb": {"c": [388747.95077780937, 6093453.914591291], "s": [9.555331676108597, 9.23986555246314], "yaw": 0.8201554975214023}, "height_m": 3.0}, {"min_proj": [388928.70812409103, 6093449.847645675], "max_proj": [388946.357354515, 6093467.607980801], "obb": {"c": [388937.53310923127, 6093458.726852236], "s": [14.156390802089303, 10.92540208852611], "yaw": -2.3231277746478045}, "height_m": 3.0}, {"min_proj": [388944.7676655181, 6093467.364720552], "max_proj": [388962.00431919587, 6093484.762689305], "obb": {"c": [388953.3856429223, 6093476.064799672], "s": [14.358844120028133, 10.167905571118865], "yaw": -2.3231549911441713}, "height_m": 3.0}, {"min_proj": [388901.87041169003, 6093471.764145635], "max_proj": [388918.51472868177, 6093488.563030367], "obb": {"c": [388910.1927915791, 6093480.1573949605], "s": [13.859464214028003, 9.824524983609136], "yaw": 0.818444994685179}, "height_m": 3.0}, {"min_proj": [388882.4511161373, 6093488.191504646], "max_proj": [388900.220770717, 6093506.0808764], "obb": {"c": [388891.335858536, 6093497.1419649245], "s": [13.885944525203524, 11.380250538165974], "yaw": -2.311705542771353}, "height_m": 3.0}, {"min_proj": [388942.79111167556, 6093501.902316008], "max_proj": [388955.38430665707, 6093516.203345851], "obb": {"c": [388949.9322717675, 6093509.047485862], "s": [10.617404911845725, 9.625436709274448], "yaw": 0.819024295840626}, "height_m": 3.0}, {"min_proj": [388896.6362288844, 6093506.369062902], "max_proj": [388908.7621513487, 6093518.622921945], "obb": {"c": [388902.69927867554, 6093512.495725498], "s": [10.293101762579758, 6.971100577646821], "yaw": -2.324173671896795}, "height_m": 3.0}, {"min_proj": [388908.0895201398, 6093515.435716575], "max_proj": [388922.0601747232, 6093529.237282207], "obb": {"c": [388915.07525370055, 6093522.3303225245], "s": [11.316890370863952, 8.349955438688118], "yaw": -0.7515236701322566}, "height_m": 3.0}, {"min_proj": [388911.16812656395, 6093519.409855653], "max_proj": [388928.5407728773, 6093536.047745877], "obb": {"c": [388919.85511392605, 6093527.722434714], "s": [19.395872765200508, 4.679023921677901], "yaw": -0.7509943104314106}, "height_m": 3.0}, {"min_proj": [388845.4246728422, 6093523.011630182], "max_proj": [388861.30159043457, 6093538.897334989], "obb": {"c": [388853.3634254294, 6093530.953840773], "s": [11.672547902317858, 10.822993829366071], "yaw": -2.322770664553413}, "height_m": 3.0}, {"min_proj": [388918.91978377686, 6093528.046045752], "max_proj": [388936.27125137113, 6093545.14090139], "obb": {"c": [388927.5954636709, 6093536.593491132], "s": [14.503387701541303, 9.89137596483841], "yaw": 2.390473088416157}, "height_m": 3.0}, {"min_proj": [388856.3107982635, 6093532.374842324], "max_proj": [388871.62267757714, 6093547.544003197], "obb": {"c": [388863.9666016761, 6093539.954113363], "s": [11.877454279020737, 9.714754213648625], "yaw": -0.75032088258283}, "height_m": 3.0}, {"min_proj": [387933.01306240563, 6093452.326627943], "max_proj": [387941.3672978867, 6093456.19367965], "obb": {"c": [387937.19022548455, 6093454.260102233], "s": [8.08225069456751, 3.048184208584223], "yaw": -0.10362567131146304}, "height_m": 3.0}, {"min_proj": [387883.29360318277, 6093451.921545227], "max_proj": [387890.7417228955, 6093458.977423891], "obb": {"c": [387887.01792305295, 6093455.449868198], "s": [6.826008950598828, 6.3863244389038805], "yaw": 3.038211971863115}, "height_m": 3.0}, {"min_proj": [387865.3501467318, 6093453.873443879], "max_proj": [387875.4497958007, 6093477.741723747], "obb": {"c": [387870.3999386387, 6093465.80767853], "s": [23.20653455968709, 7.737419939848989], "yaw": -1.6745669950210387}, "height_m": 3.0}, {"min_proj": [387881.1715188719, 6093462.610062806], "max_proj": [387896.1748073869, 6093475.916183243], "obb": {"c": [387888.67319983226, 6093469.263116768], "s": [13.847020467474207, 11.945921957426624], "yaw": -0.10312104270231338}, "height_m": 3.0}, {"min_proj": [387835.1140023335, 6093475.964583279], "max_proj": [387848.9292911172, 6093490.14870308], "obb": {"c": [387842.02166345774, 6093483.056605241], "s": [12.966972161210176, 12.540897311759222], "yaw": -1.674453591208863}, "height_m": 3.0}, {"min_proj": [387859.82825903426, 6093480.926923991], "max_proj": [387868.8059454375, 6093496.505093734], "obb": {"c": [387864.31713484717, 6093488.715932994], "s": [14.899075289989362, 7.4803239395592485], "yaw": 1.467432138972424}, "height_m": 3.0}, {"min_proj": [387837.01705346844, 6093490.528080285], "max_proj": [387848.02693464316, 6093496.356860785], "obb": {"c": [387842.52197677025, 6093493.442256594], "s": [10.575718589918694, 4.7673091076041345], "yaw": -0.10302321909116956}, "height_m": 3.0}, {"min_proj": [387792.1636697726, 6093499.313646898], "max_proj": [387804.76471495454, 6093512.846907845], "obb": {"c": [387798.4642152813, 6093506.080204519], "s": [12.426222222026407, 11.378716565860017], "yaw": -1.6742441921239533}, "height_m": 3.0}, {"min_proj": [387912.21681722323, 6093515.081352103], "max_proj": [387926.3128318745, 6093529.681039399], "obb": {"c": [387919.2649479925, 6093522.377005695], "s": [13.526590839185797, 12.963225004031171], "yaw": 1.4832516831720641}, "height_m": 3.0}, {"min_proj": [387777.3287315294, 6093520.40062813], "max_proj": [387786.2803298153, 6093543.061308753], "obb": {"c": [387781.8042535291, 6093531.733844293], "s": [22.13543901831718, 7.043196358886887], "yaw": -1.6583665681426736}, "height_m": 3.0}, {"min_proj": [387735.9179664443, 6093492.711679008], "max_proj": [387753.0244210966, 6093509.219419204], "obb": {"c": [387744.47126083635, 6093500.965610502], "s": [15.686239822328625, 15.011500605121423], "yaw": 3.041223363803765}, "height_m": 3.0}, {"min_proj": [387744.3751494446, 6093519.675522277], "max_proj": [387762.240430609, 6093534.116311427], "obb": {"c": [387753.3076060916, 6093526.610347377], "s": [16.603087432939176, 13.442187826337134], "yaw": -0.10030346190959377}, "height_m": 6.0}, {"min_proj": [388076.09474583133, 6093458.445721314], "max_proj": [388089.30630561215, 6093471.161421653], "obb": {"c": [388082.70072666666, 6093464.803287284], "s": [10.876377612338775, 7.567027336848868], "yaw": 2.45828623757366}, "height_m": 3.0}, {"min_proj": [388094.1179921512, 6093464.770359461], "max_proj": [388110.87378354574, 6093482.1051449105], "obb": {"c": [388102.496281893, 6093473.4424591595], "s": [14.286303256813989, 9.966732972111586], "yaw": -2.2557252023392365}, "height_m": 3.0}, {"min_proj": [388169.7171950173, 6093465.579640924], "max_proj": [388183.2173667845, 6093481.473648497], "obb": {"c": [388176.467241751, 6093473.526740186], "s": [15.420358038921695, 12.919724207765375], "yaw": -1.6090600672942885}, "height_m": 3.0}, {"min_proj": [388149.3696708359, 6093485.402511866], "max_proj": [388173.5186303737, 6093509.789057067], "obb": {"c": [388160.66868515324, 6093497.597460226], "s": [23.07584594793003, 12.495302030057319], "yaw": 2.441577936831029}, "height_m": 3.0}, {"min_proj": [388116.1130157363, 6093488.248216782], "max_proj": [388147.06496413954, 6093513.122940796], "obb": {"c": [388131.58851858357, 6093503.2104102345], "s": [25.7345047526205, 17.49272895382529], "yaw": 2.441238967529112}, "height_m": 3.0}, {"min_proj": [388123.15334658494, 6093501.190535627], "max_proj": [388147.59475695994, 6093525.268559137], "obb": {"c": [388135.373599706, 6093513.224671125], "s": [18.561906550017166, 15.903954447280235], "yaw": -0.7002211340247293}, "height_m": 3.0}, {"min_proj": [387950.02757327305, 6093514.2750555435], "max_proj": [387970.5365999826, 6093535.224995443], "obb": {"c": [387960.2815983718, 6093524.751100023], "s": [16.55530637809505, 12.923033951367273], "yaw": -2.261459024022342}, "height_m": 3.0}, {"min_proj": [387955.85782122525, 6093539.281681436], "max_proj": [387967.1796251866, 6093550.714023927], "obb": {"c": [387961.51821321866, 6093544.993373362], "s": [8.596322487025395, 7.58644007217085], "yaw": 0.8807231931867402}, "height_m": 3.0}, {"min_proj": [387967.01662258763, 6093539.139748941], "max_proj": [387983.3653693409, 6093554.469321064], "obb": {"c": [387975.1910493782, 6093546.804392473], "s": [14.896746644402741, 7.623944410451814], "yaw": 2.453511665932705}, "height_m": 3.0}, {"min_proj": [387977.665429448, 6093548.7519866545], "max_proj": [387997.9817439061, 6093569.797331527], "obb": {"c": [387987.82401606964, 6093559.273580641], "s": [17.603770635504976, 11.811130316938739], "yaw": -2.261212308491329}, "height_m": 3.0}, {"min_proj": [387744.979560744, 6093540.808343584], "max_proj": [387760.97981272324, 6093553.156243215], "obb": {"c": [387752.9796791143, 6093546.982318209], "s": [14.984987134850606, 10.904382602944155], "yaw": -0.10016341569942747}, "height_m": 3.0}, {"min_proj": [387795.9097216943, 6093524.633957053], "max_proj": [387807.2737462545, 6093540.095729273], "obb": {"c": [387801.59151818213, 6093532.367797226], "s": [14.641378761279576, 10.128057173278332], "yaw": -1.6579797219261856}, "height_m": 3.0}, {"min_proj": [387838.7725621152, 6093527.792824208], "max_proj": [387850.25207101664, 6093540.530801707], "obb": {"c": [387844.5123519559, 6093534.161817831], "s": [11.86580762724384, 10.48093736892589], "yaw": 1.4831235193968748}, "height_m": 3.0}, {"min_proj": [387864.573043801, 6093545.437782748], "max_proj": [387870.3715982599, 6093558.652738251], "obb": {"c": [387867.472338581, 6093552.045164573], "s": [12.860314839192812, 4.694949921368222], "yaw": -1.65811398185181}, "height_m": 3.0}, {"min_proj": [387841.9723615425, 6093551.041973485], "max_proj": [387858.00775627064, 6093557.876678272], "obb": {"c": [387849.99000019487, 6093554.459385207], "s": [15.616332934567188, 5.497653844590941], "yaw": -0.08711640351914744}, "height_m": 3.0}, {"min_proj": [387798.7104496744, 6093547.971640702], "max_proj": [387810.1923373323, 6093562.5387716405], "obb": {"c": [387804.4513691846, 6093555.255348917], "s": [13.732926659806152, 10.32609170791945], "yaw": -1.6579200253507789}, "height_m": 3.0}, {"min_proj": [387779.5168675055, 6093543.881001009], "max_proj": [387788.0549667297, 6093566.819408105], "obb": {"c": [387783.7859337715, 6093555.344635678], "s": [22.45901164576111, 6.6000713267037385], "yaw": 1.4832677618079502}, "height_m": 3.0}, {"min_proj": [387837.7391465577, 6093569.454469707], "max_proj": [387845.0367339775, 6093578.916437183], "obb": {"c": [387841.3879153632, 6093574.185606605], "s": [8.939288498300392, 6.541873197215167], "yaw": -1.658240929215761}, "height_m": 3.0}, {"min_proj": [387875.55513549177, 6093567.5763926525], "max_proj": [387891.2727613979, 6093584.311384367], "obb": {"c": [387883.41394562577, 6093575.943871439], "s": [15.525615650972021, 14.400514242211107], "yaw": -1.659384238497824}, "height_m": 3.0}, {"min_proj": [387799.7562106415, 6093575.223823922], "max_proj": [387812.4750091219, 6093593.22889487], "obb": {"c": [387806.1156402647, 6093584.22636112], "s": [17.24701630167184, 11.553431204235261], "yaw": 1.5015509954111985}, "height_m": 3.0}, {"min_proj": [387926.31931445043, 6093577.6140289055], "max_proj": [387943.0680013499, 6093593.4485735735], "obb": {"c": [387934.69372955064, 6093585.525854566], "s": [16.105489775366827, 15.16059931394641], "yaw": -3.098169281097454}, "height_m": 3.0}, {"min_proj": [387749.5887573345, 6093580.133841754], "max_proj": [387759.01780138776, 6093593.610777851], "obb": {"c": [387754.30327937094, 6093586.872385819], "s": [12.84790704009718, 8.411898145222732], "yaw": -1.652222889027057}, "height_m": 3.0}, {"min_proj": [387748.55497938284, 6093594.171672142], "max_proj": [387768.6592990464, 6093601.077768072], "obb": {"c": [387758.6072112219, 6093597.624666993], "s": [19.73812971619448, 5.328530844417506], "yaw": -0.08092418109477514}, "height_m": 3.0}, {"min_proj": [388013.7851432645, 6093589.178415298], "max_proj": [388034.0068754819, 6093609.315992864], "obb": {"c": [388022.7441841713, 6093600.193279268], "s": [17.48765732765866, 14.200772934941318], "yaw": 2.45384300974075}, "height_m": 3.0}, {"min_proj": [388154.45689234324, 6093589.204474622], "max_proj": [388174.06978484394, 6093610.72199936], "obb": {"c": [388164.2631442675, 6093599.959168809], "s": [21.28796685120828, 7.970522241703215], "yaw": 0.888182156069085}, "height_m": 3.0}, {"min_proj": [388033.06169456546, 6093597.1526589515], "max_proj": [388044.1740843815, 6093608.787914291], "obb": {"c": [388038.61799565546, 6093602.964499697], "s": [10.103523501853136, 6.069960352089575], "yaw": 0.8809345113474214}, "height_m": 3.0}, {"min_proj": [387992.33798445796, 6093607.070467162], "max_proj": [388011.6968457228, 6093626.674799013], "obb": {"c": [388002.01765956724, 6093616.872153432], "s": [14.917760605678318, 12.790399260164344], "yaw": -2.260553802879429}, "height_m": 3.0}, {"min_proj": [388017.7082127776, 6093615.468318063], "max_proj": [388025.05570867157, 6093623.164050941], "obb": {"c": [388021.3817641668, 6093619.316773646], "s": [6.737518674678697, 3.961235231676528], "yaw": -2.2620307529941894}, "height_m": 3.0}, {"min_proj": [388126.179923683, 6093612.076274885], "max_proj": [388145.1202108327, 6093630.962165705], "obb": {"c": [388135.6499091984, 6093621.519524702], "s": [13.530945102788648, 13.309602817292824], "yaw": 2.4293203557153875}, "height_m": 3.0}, {"min_proj": [387984.019294334, 6093619.000416216], "max_proj": [387999.2927749734, 6093635.19149914], "obb": {"c": [387991.6556927157, 6093627.091615643], "s": [14.69076851932216, 7.681169483847531], "yaw": 0.8809585949091061}, "height_m": 3.0}, {"min_proj": [388105.3331906343, 6093628.350213106], "max_proj": [388125.19049993594, 6093648.026525412], "obb": {"c": [388115.2620915412, 6093638.19350888], "s": [14.708133961789981, 13.352005781216272], "yaw": 2.430468535449705}, "height_m": 3.0}, {"min_proj": [388094.40509951714, 6093633.933394948], "max_proj": [388105.1920855491, 6093645.097857186], "obb": {"c": [388099.7985808361, 6093639.521228029], "s": [9.677242338785769, 5.895544896639973], "yaw": -2.2831067092370043}, "height_m": 3.0}, {"min_proj": [387959.1364418244, 6093633.7067158185], "max_proj": [387980.4534644399, 6093655.3124677], "obb": {"c": [387969.7948910922, 6093644.509730132], "s": [16.529617152025185, 13.994772548726482], "yaw": -2.2612521838008734}, "height_m": 3.0}, {"min_proj": [387750.2587675154, 6093604.954847461], "max_proj": [387760.9965778977, 6093618.243278649], "obb": {"c": [387755.627681756, 6093611.598991879], "s": [12.542938347580352, 9.752008981444645], "yaw": -1.6520455962877878}, "height_m": 3.0}, {"min_proj": [387735.41619398154, 6093622.014621635], "max_proj": [387765.64971778926, 6093630.496534863], "obb": {"c": [387750.53296368686, 6093626.255490945], "s": [29.83912677009309, 6.097665486031959], "yaw": 3.0609059211405176}, "height_m": 3.0}, {"min_proj": [387749.2371814591, 6093630.687340263], "max_proj": [387765.5811957987, 6093646.27993642], "obb": {"c": [387757.27570888493, 6093638.622693373], "s": [15.638397425970862, 14.914114190915768], "yaw": 3.060110410147452}, "height_m": 3.0}, {"min_proj": [387846.15463914454, 6093581.983450964], "max_proj": [387857.35698875325, 6093597.363554992], "obb": {"c": [387851.7558563126, 6093589.668673056], "s": [14.574729645984915, 9.967479844784974], "yaw": 1.4833377721175747}, "height_m": 3.0}, {"min_proj": [387842.1330474983, 6093604.833588535], "max_proj": [387877.89993700956, 6093617.963879229], "obb": {"c": [387860.0163647575, 6093611.398675167], "s": [34.94107022656536, 8.618676849996179], "yaw": 3.009957682312514}, "height_m": 3.0}, {"min_proj": [387882.64356965636, 6093608.7277865885], "max_proj": [387899.0816518783, 6093626.874919866], "obb": {"c": [387890.8626809082, 6093617.801332307], "s": [16.09120196080516, 13.970301751819381], "yaw": -1.7368663566559466}, "height_m": 3.0}, {"min_proj": [387803.46599750157, 6093609.9796592565], "max_proj": [387816.23839666916, 6093628.234849275], "obb": {"c": [387809.8521761373, 6093619.107326586], "s": [17.43388734104999, 11.467509056568792], "yaw": -1.6476614652989634}, "height_m": 3.0}, {"min_proj": [387929.0758581629, 6093641.964138], "max_proj": [387946.42273204145, 6093660.660705992], "obb": {"c": [387937.74935106037, 6093651.312496787], "s": [17.231211618573198, 15.72628443199954], "yaw": 1.4721390392970668}, "height_m": 3.0}, {"min_proj": [387874.1025724103, 6093635.379887125], "max_proj": [387886.35856974917, 6093669.859946477], "obb": {"c": [387880.2303762888, 6093652.355016602], "s": [34.30241121597197, 7.801970577148315], "yaw": 1.4385672873543478}, "height_m": 3.0}, {"min_proj": [387856.9854676414, 6093651.589488812], "max_proj": [387875.9216549695, 6093669.747048618], "obb": {"c": [387866.4530144886, 6093660.667668517], "s": [17.001554060814602, 9.310097356022826], "yaw": -2.425574122828661}, "height_m": 3.0}, {"min_proj": [387806.15038144373, 6093649.601085537], "max_proj": [387821.43243594206, 6093674.1489442345], "obb": {"c": [387813.17929825484, 6093661.873852537], "s": [23.3704849946609, 14.518945558356691], "yaw": -1.6583662532953722}, "height_m": 3.0}, {"min_proj": [387944.22826210357, 6093691.456156888], "max_proj": [387953.77678081434, 6093706.51659314], "obb": {"c": [387949.0025502992, 6093698.986301468], "s": [14.38817229801509, 8.312757237800168], "yaw": -1.6590473976664335}, "height_m": 3.0}, {"min_proj": [387922.13810824975, 6093693.960017021], "max_proj": [387930.266041575, 6093709.295810777], "obb": {"c": [387926.2020620407, 6093701.62799057], "s": [14.799156503031389, 6.8689278873758655], "yaw": -1.6577305128876658}, "height_m": 3.0}, {"min_proj": [387744.1697550702, 6093649.237876809], "max_proj": [387759.8745017386, 6093657.950872632], "obb": {"c": [387752.0220991066, 6093653.594440879], "s": [15.146780072025981, 7.513096153557094], "yaw": -0.08096142501866121}, "height_m": 3.0}, {"min_proj": [387750.44102657563, 6093667.364110007], "max_proj": [387769.1978597801, 6093681.904583183], "obb": {"c": [387759.6998828092, 6093674.907442208], "s": [17.939588843331187, 13.666830721373392], "yaw": 3.0598106073824125}, "height_m": 3.0}, {"min_proj": [388939.25032178586, 6093549.715132961], "max_proj": [388955.5297625288, 6093565.896901534], "obb": {"c": [388947.39033428155, 6093557.805469896], "s": [12.217989550834385, 10.768872822399018], "yaw": 2.3915599520962627}, "height_m": 3.0}, {"min_proj": [388877.24933279934, 6093556.479502885], "max_proj": [388892.24491338443, 6093571.481796448], "obb": {"c": [388884.7471474609, 6093563.980601032], "s": [11.146291345409718, 10.106689601958207], "yaw": -2.323163503847524}, "height_m": 3.0}, {"min_proj": [388895.23187262204, 6093565.3130128095], "max_proj": [388909.6119390524, 6093579.516874671], "obb": {"c": [388902.42239742074, 6093572.408541661], "s": [11.631431907255012, 8.610233365320084], "yaw": -0.7505061847322453}, "height_m": 3.0}, {"min_proj": [388870.6202812194, 6093576.488874404], "max_proj": [388881.449959366, 6093587.5748228105], "obb": {"c": [388876.0352418044, 6093582.036719971], "s": [10.637234080356647, 4.884882133636278], "yaw": -2.3219542724413103}, "height_m": 3.0}, {"min_proj": [388908.28758239205, 6093580.581652498], "max_proj": [388922.86212298303, 6093594.967970942], "obb": {"c": [388915.57486383035, 6093587.769314773], "s": [11.883792649976428, 8.626930176698611], "yaw": -0.750655867416202}, "height_m": 3.0}, {"min_proj": [388878.13179829414, 6093584.66079019], "max_proj": [388886.4364141447, 6093593.020170361], "obb": {"c": [388882.28378985345, 6093588.841352393], "s": [6.788247113730905, 5.017709466464696], "yaw": -2.3241815071275673}, "height_m": 3.0}, {"min_proj": [388876.7003812945, 6093592.440474332], "max_proj": [388886.89380484633, 6093602.754721609], "obb": {"c": [388881.79672779056, 6093597.598621478], "s": [8.629771986836246, 5.889085490450126], "yaw": 0.8194529661531269}, "height_m": 3.0}, {"min_proj": [388840.41527248867, 6093589.651131753], "max_proj": [388858.4764957418, 6093607.784796676], "obb": {"c": [388849.44599352236, 6093598.723272209], "s": [13.9472194220409, 11.685074896144734], "yaw": -2.322927900876496}, "height_m": 3.0}, {"min_proj": [388919.5390140704, 6093593.932963662], "max_proj": [388936.38754948747, 6093610.58232228], "obb": {"c": [388927.96316014545, 6093602.257861306], "s": [13.530263208783426, 10.193585162813335], "yaw": 2.3915598313173714}, "height_m": 3.0}, {"min_proj": [388883.42466349097, 6093601.3484795485], "max_proj": [388893.381807329, 6093611.220183045], "obb": {"c": [388888.40346518165, 6093606.278269258], "s": [7.644401062248676, 6.400866855136827], "yaw": -0.7497461228529518}, "height_m": 3.0}, {"min_proj": [388855.53768988297, 6093599.065891737], "max_proj": [388873.792838665, 6093617.074736657], "obb": {"c": [388864.6653888981, 6093608.070115412], "s": [15.139038743024702, 10.5337141605731], "yaw": 2.39090532338914}, "height_m": 3.0}, {"min_proj": [388939.0995729169, 6093605.410128977], "max_proj": [388950.1634965061, 6093616.402378549], "obb": {"c": [388944.6313953415, 6093610.906601512], "s": [8.30186835778174, 7.32071210067832], "yaw": -0.7505364768736598}, "height_m": 3.0}, {"min_proj": [388864.2533463176, 6093615.19645721], "max_proj": [388881.532298324, 6093632.3536956925], "obb": {"c": [388872.892995896, 6093623.769196], "s": [13.093723561210854, 11.293973082529131], "yaw": -0.750682925750194}, "height_m": 3.0}, {"min_proj": [388919.1154680244, 6093625.824288621], "max_proj": [388930.0180469199, 6093636.539459557], "obb": {"c": [388924.5666840836, 6093631.181993049], "s": [9.447812745752147, 5.854873492911125], "yaw": 2.390961960934554}, "height_m": 3.0}, {"min_proj": [388877.7390455526, 6093628.583742009], "max_proj": [388894.438680413, 6093645.152879052], "obb": {"c": [388886.08912719367, 6093636.867828469], "s": [12.757227121753736, 10.806696513681175], "yaw": 2.3912818716170814}, "height_m": 3.0}, {"min_proj": [388930.59059697785, 6093644.266024818], "max_proj": [388947.8697131846, 6093661.4232336795], "obb": {"c": [388939.23007816175, 6093652.844781482], "s": [13.093772961442589, 11.293909678939237], "yaw": 2.391555152148403}, "height_m": 3.0}, {"min_proj": [388894.79326898855, 6093649.551295163], "max_proj": [388904.0975763063, 6093658.680221768], "obb": {"c": [388899.4457177347, 6093654.115304114], "s": [8.207664235387243, 4.842581927328542], "yaw": 2.3909320939976557}, "height_m": 3.0}, {"min_proj": [388925.11794663867, 6093654.519704139], "max_proj": [388936.02992261056, 6093665.715698453], "obb": {"c": [388930.57399609726, 6093660.1171416], "s": [11.056441702877333, 4.59608049643465], "yaw": -2.32339703324573}, "height_m": 3.0}, {"min_proj": [388913.55011242995, 6093659.986309645], "max_proj": [388931.304005794, 6093677.653433064], "obb": {"c": [388922.42700251937, 6093668.819990731], "s": [13.057972860010363, 12.028957241932433], "yaw": 2.391198237492516}, "height_m": 3.0}, {"min_proj": [388907.1083934819, 6093673.156170784], "max_proj": [388919.77983889234, 6093686.226616508], "obb": {"c": [388913.44411684596, 6093679.697012814], "s": [13.532615050859125, 4.692257113169454], "yaw": -2.3228633396993597}, "height_m": 3.0}, {"min_proj": [388101.174831819, 6093640.781781335], "max_proj": [388111.64631792245, 6093651.1004329175], "obb": {"c": [388106.4099796677, 6093645.942106397], "s": [8.049885804146193, 6.697193497310324], "yaw": 2.4302709006163825}, "height_m": 3.0}, {"min_proj": [388074.4597341268, 6093654.077566237], "max_proj": [388095.1794728107, 6093674.554409372], "obb": {"c": [388084.81994860905, 6093664.315402082], "s": [15.56853881202005, 13.674764951940618], "yaw": 2.4296644485451977}, "height_m": 3.0}, {"min_proj": [388138.6110038408, 6093663.720272986], "max_proj": [388157.98667224747, 6093683.770805028], "obb": {"c": [388148.29896426713, 6093673.745378033], "s": [15.408901634938358, 13.483363314464071], "yaw": -2.093557333402732}, "height_m": 3.0}, {"min_proj": [388050.21892464656, 6093672.351023921], "max_proj": [388071.9204740176, 6093692.121011276], "obb": {"c": [388061.0697172147, 6093683.156868785], "s": [15.596194934372539, 15.145728870558747], "yaw": 2.43041314020652}, "height_m": 3.0}, {"min_proj": [388157.3402392182, 6093685.893122476], "max_proj": [388176.2036654567, 6093703.314404102], "obb": {"c": [388166.772390093, 6093694.6034000125], "s": [15.225126729356772, 11.36675594303996], "yaw": 2.619887200111829}, "height_m": 3.0}, {"min_proj": [388096.842412707, 6093696.55002563], "max_proj": [388114.1268602463, 6093713.889740791], "obb": {"c": [388105.48493962165, 6093705.219288102], "s": [12.718175696197665, 11.853090971235176], "yaw": -2.2840632773347607}, "height_m": 3.0}, {"min_proj": [387959.9557535153, 6093708.223200492], "max_proj": [387976.92666437826, 6093725.148169458], "obb": {"c": [387968.44094326574, 6093716.686148948], "s": [12.095774509643007, 12.0488236291309], "yaw": 2.4678550269233948}, "height_m": 3.0}, {"min_proj": [388102.0474824168, 6093713.767957058], "max_proj": [388112.1637595983, 6093723.889165639], "obb": {"c": [388107.1056571944, 6093718.833976225], "s": [7.36596033138551, 7.003566405756223], "yaw": -2.2845428680913717}, "height_m": 3.0}, {"min_proj": [388087.81587265444, 6093709.104585395], "max_proj": [388108.6053471277, 6093731.579787413], "obb": {"c": [388098.2105761098, 6093720.340706416], "s": [23.802012813889586, 6.896604181000453], "yaw": -2.2841140127976254}, "height_m": 3.0}, {"min_proj": [388018.84317139984, 6093717.070574987], "max_proj": [388028.8854455645, 6093726.953743536], "obb": {"c": [388023.8637641144, 6093722.007520272], "s": [7.820874371260035, 6.317012038163627], "yaw": -0.7234089678942178}, "height_m": 3.0}, {"min_proj": [388246.853638288, 6093659.4588642], "max_proj": [388260.9114268727, 6093677.069477095], "obb": {"c": [388253.88256781234, 6093668.2640488595], "s": [16.278049378678393, 12.21016193607356], "yaw": 1.4516979394168985}, "height_m": 3.0}, {"min_proj": [388222.157941981, 6093666.343459686], "max_proj": [388232.58636432333, 6093679.401767927], "obb": {"c": [388227.37223006366, 6093672.872501201], "s": [12.082493044912228, 9.052964826092516], "yaw": -1.6902620689581993}, "height_m": 3.0}, {"min_proj": [388288.3872447435, 6093668.17868993], "max_proj": [388303.2572590478, 6093686.350937458], "obb": {"c": [388295.8234088601, 6093677.265025483], "s": [17.011690599208315, 13.358231375519601], "yaw": 1.4783052384684912}, "height_m": 3.0}, {"min_proj": [388200.6693333512, 6093679.215449428], "max_proj": [388211.09138249315, 6093692.273795158], "obb": {"c": [388205.8803692825, 6093685.744727544], "s": [12.076899017343194, 9.052833072078958], "yaw": -1.6897480343170599}, "height_m": 3.0}, {"min_proj": [388224.6547354982, 6093683.759982393], "max_proj": [388235.08311367664, 6093696.818287], "obb": {"c": [388229.86891679943, 6093690.289225278], "s": [12.082163388246483, 9.052793748898647], "yaw": -1.6902725446237692}, "height_m": 3.0}, {"min_proj": [388249.16557046946, 6093690.2507838085], "max_proj": [388263.223260944, 6093707.861233161], "obb": {"c": [388256.1943847446, 6093699.05597868], "s": [16.282935983588175, 12.203735708115582], "yaw": -1.6902834013138646}, "height_m": 3.0}, {"min_proj": [388290.8379599752, 6093694.536372847], "max_proj": [388306.0145921827, 6093716.018603629], "obb": {"c": [388298.42501117545, 6093705.277313272], "s": [20.33581561058926, 13.358092568971594], "yaw": -1.6632853597167483}, "height_m": 3.0}, {"min_proj": [388251.19386896305, 6093723.276391367], "max_proj": [388265.2514557441, 6093740.88699746], "obb": {"c": [388258.2226309274, 6093732.081606056], "s": [16.278002555061324, 12.210132750843314], "yaw": 1.4517085456682208}, "height_m": 3.0}, {"min_proj": [388294.30850542546, 6093723.569750713], "max_proj": [388308.3659448137, 6093741.180097006], "obb": {"c": [388301.3371986332, 6093732.374922654], "s": [16.282849799464017, 12.203659797799745], "yaw": -1.690271732998961}, "height_m": 3.0}, {"min_proj": [388220.52827536955, 6093735.537063152], "max_proj": [388240.53780130233, 6093750.612749857], "obb": {"c": [388230.68038099835, 6093743.353355491], "s": [19.099785341531557, 13.942792310718778], "yaw": 3.04924975845349}, "height_m": 3.0}, {"min_proj": [387892.8862416123, 6093697.542912629], "max_proj": [387900.18664850533, 6093708.634577051], "obb": {"c": [387896.5364720567, 6093703.088758691], "s": [10.58802374332762, 6.406903046851329], "yaw": -1.6575711853090265}, "height_m": 3.0}, {"min_proj": [387812.9447836634, 6093708.871510334], "max_proj": [387829.6634013097, 6093726.527430774], "obb": {"c": [387821.1640293947, 6093717.921669894], "s": [16.5895005343546, 15.332252001615322], "yaw": -1.6766198447005385}, "height_m": 3.0}, {"min_proj": [387854.63265596965, 6093712.3655317], "max_proj": [387870.83241839276, 6093731.099632856], "obb": {"c": [387862.4747735923, 6093721.733295096], "s": [17.476274450908843, 15.248646455400257], "yaw": -1.6581569554716784}, "height_m": 3.0}, {"min_proj": [387797.31936828373, 6093711.670961981], "max_proj": [387805.4301759257, 6093732.51857245], "obb": {"c": [387801.37181754713, 6093722.098072728], "s": [20.333624462205524, 5.997956358572536], "yaw": -1.6768518101361365}, "height_m": 3.0}, {"min_proj": [387886.52050393366, 6093719.082355476], "max_proj": [387898.77742151404, 6093733.325237693], "obb": {"c": [387892.6489285835, 6093726.203863324], "s": [13.331022393243119, 11.134145117204005], "yaw": -1.6583271060896507}, "height_m": 3.0}, {"min_proj": [387908.2623385525, 6093721.794920513], "max_proj": [387919.7590337419, 6093735.22065255], "obb": {"c": [387914.01067083713, 6093728.507863067], "s": [12.570508724335129, 10.441406179068446], "yaw": -1.658012561905684}, "height_m": 3.0}, {"min_proj": [387929.95096199587, 6093723.140036563], "max_proj": [387940.5844717573, 6093734.714859578], "obb": {"c": [387935.26752899424, 6093728.930545687], "s": [10.772158831657316, 9.73009564642439], "yaw": -1.6582618255852066}, "height_m": 3.0}, {"min_proj": [387854.8400637412, 6093733.864995815], "max_proj": [387872.8560598344, 6093752.433694244], "obb": {"c": [387863.8481086939, 6093742.750605716], "s": [18.002106749021035, 16.50873143301105], "yaw": 1.4834663615324903}, "height_m": 3.0}, {"min_proj": [387882.1645924471, 6093736.505897246], "max_proj": [387890.30170367035, 6093750.190047372], "obb": {"c": [387886.23311067396, 6093743.34804579], "s": [13.128991702162041, 7.016449103592879], "yaw": -1.6583101132286404}, "height_m": 3.0}, {"min_proj": [387813.60680049413, 6093738.916986787], "max_proj": [387827.8575425981, 6093751.272525528], "obb": {"c": [387820.73220504133, 6093745.09470179], "s": [13.161817934007487, 11.03257164674825], "yaw": -0.10552358696388552}, "height_m": 3.0}, {"min_proj": [387737.7771719685, 6093715.491277299], "max_proj": [387747.6622771683, 6093740.96889074], "obb": {"c": [387742.7165057514, 6093728.230086181], "s": [24.844790218936563, 7.3086744912016925], "yaw": -1.6766000088130157}, "height_m": 3.0}, {"min_proj": [387754.9994866017, 6093725.257400012], "max_proj": [387778.52746407315, 6093745.209941387], "obb": {"c": [387766.7645595596, 6093735.598018245], "s": [21.56415888110817, 19.83313231813131], "yaw": -0.10540385783981379}, "height_m": 3.0}, {"min_proj": [388077.8845371239, 6093720.355352866], "max_proj": [388091.78561355075, 6093733.990057464], "obb": {"c": [388084.8349335738, 6093727.173022187], "s": [10.87891879021192, 8.671079987800791], "yaw": -0.7115662626190477}, "height_m": 3.0}, {"min_proj": [387971.21611715894, 6093723.3310759], "max_proj": [387980.50437164743, 6093732.358119563], "obb": {"c": [387975.8607411163, 6093727.843860278], "s": [7.330903026699314, 5.70677321178867], "yaw": 2.4669564109068807}, "height_m": 3.0}, {"min_proj": [388168.3668756498, 6093717.814401288], "max_proj": [388189.5210113486, 6093738.217970856], "obb": {"c": [388178.94398299616, 6093728.0216125995], "s": [19.51304818161186, 18.696070430766138], "yaw": 3.049228553511417}, "height_m": 3.0}, {"min_proj": [387993.6913703084, 6093732.961395019], "max_proj": [388006.95115873293, 6093747.043015332], "obb": {"c": [388000.32144875766, 6093740.007138939], "s": [12.439575159075249, 7.022735127125436], "yaw": -2.2465510778333364}, "height_m": 3.0}, {"min_proj": [387964.1653715015, 6093733.447552055], "max_proj": [387988.3396957334, 6093754.689209889], "obb": {"c": [387976.2526359566, 6093742.240750663], "s": [19.96736380856316, 14.974416439375057], "yaw": 0.8948442429031696}, "height_m": 3.0}, {"min_proj": [388122.5431896188, 6093742.312436013], "max_proj": [388139.15558271774, 6093760.44377773], "obb": {"c": [388130.84941089986, 6093751.378085564], "s": [16.867226724449218, 15.18220087113683], "yaw": -1.6592195468140714}, "height_m": 3.0}, {"min_proj": [388048.35961595865, 6093738.804553895], "max_proj": [388072.54377254215, 6093764.766097934], "obb": {"c": [388060.45187151857, 6093751.77911066], "s": [23.915828034320462, 11.778477010280854], "yaw": 0.8919527511196454}, "height_m": 3.0}, {"min_proj": [387952.50002953, 6093746.47725648], "max_proj": [387974.3415661175, 6093765.771136883], "obb": {"c": [387963.4206813539, 6093757.614244094], "s": [17.25019502287408, 14.163328753414426], "yaw": -2.2467230191858563}, "height_m": 3.0}, {"min_proj": [388075.87394437566, 6093749.556668367], "max_proj": [388086.1266567733, 6093772.213136748], "obb": {"c": [388081.00029398594, 6093760.884884206], "s": [22.052592869877362, 8.507392591609602], "yaw": -1.651275517818708}, "height_m": 3.0}, {"min_proj": [388115.4316051464, 6093761.946401061], "max_proj": [388147.80921056116, 6093771.498527633], "obb": {"c": [388131.6202850556, 6093766.72810613], "s": [31.904429884775052, 6.780483248902596], "yaw": 3.0534268483508478}, "height_m": 3.0}, {"min_proj": [387758.37493848655, 6093765.379994897], "max_proj": [387782.82049196033, 6093784.036344935], "obb": {"c": [387770.5979966142, 6093775.00503992], "s": [22.63125420595118, 18.48036704932479], "yaw": 3.036435264945361}, "height_m": 3.0}, {"min_proj": [387801.1234592919, 6093746.832510552], "max_proj": [387807.0846801453, 6093759.309192713], "obb": {"c": [387804.1040460994, 6093753.07093381], "s": [12.050336467242456, 4.713750130684191], "yaw": -1.6767065143874866}, "height_m": 3.0}, {"min_proj": [387821.7170966994, 6093750.924607354], "max_proj": [387837.2102757369, 6093761.794816719], "obb": {"c": [387829.4636667416, 6093756.359670988], "s": [14.587004849986826, 9.391024419341159], "yaw": -0.10529497635856697}, "height_m": 3.0}, {"min_proj": [387862.3608882609, 6093756.359863552], "max_proj": [387881.7695126649, 6093776.458482054], "obb": {"c": [387872.191723492, 6093766.396374646], "s": [19.15927472246989, 18.068961436412504], "yaw": -1.6579986720417401}, "height_m": 3.0}, {"min_proj": [387820.2229481081, 6093765.935163708], "max_proj": [387833.31285165757, 6093778.726551905], "obb": {"c": [387826.7678615052, 6093772.330924661], "s": [11.936124621820454, 11.601233073913177], "yaw": -0.10536532212529598}, "height_m": 3.0}, {"min_proj": [387867.1701633035, 6093789.719399148], "max_proj": [387878.16597388743, 6093795.949943713], "obb": {"c": [387872.66807967774, 6093792.829144636], "s": [10.570676577471968, 5.341363971496863], "yaw": -0.08721743765209902}, "height_m": 3.0}, {"min_proj": [387824.4206870304, 6093782.839254067], "max_proj": [387839.32581286825, 6093803.627338806], "obb": {"c": [387831.87327098614, 6093793.233278863], "s": [19.550250541757723, 12.908199502422129], "yaw": -1.6768479605322206}, "height_m": 9.0}, {"min_proj": [387761.70719218487, 6093788.62945058], "max_proj": [387786.1336617885, 6093806.710885872], "obb": {"c": [387773.92016856844, 6093797.8342003375], "s": [22.66414038701903, 17.981116433671225], "yaw": 3.036392973263889}, "height_m": 3.0}, {"min_proj": [387816.95101785933, 6093798.208028334], "max_proj": [387824.0509419368, 6093806.140303119], "obb": {"c": [387820.50099195994, 6093802.174182687], "s": [7.303943428824026, 6.364285225743673], "yaw": -1.6765845271277813}, "height_m": 3.0}, {"min_proj": [387824.781794491, 6093812.793921397], "max_proj": [387844.23725164594, 6093828.690741879], "obb": {"c": [387834.2403674511, 6093820.869225753], "s": [18.706211694240466, 15.610997773136576], "yaw": 3.0544639824711473}, "height_m": 3.0}, {"min_proj": [387763.6183842103, 6093814.1895957645], "max_proj": [387786.4065148783, 6093831.951968372], "obb": {"c": [387775.01250709646, 6093823.259312839], "s": [21.036565960894453, 17.83808435082625], "yaw": 3.0367197488274624}, "height_m": 3.0}, {"min_proj": [388011.11730798724, 6093774.769920606], "max_proj": [388030.0945231912, 6093793.717974876], "obb": {"c": [388020.6057037738, 6093784.244360629], "s": [13.517489302002778, 13.39756362469252], "yaw": -2.2843563505956963}, "height_m": 3.0}, {"min_proj": [388175.53980450804, 6093780.654525554], "max_proj": [388186.6886902016, 6093794.292561765], "obb": {"c": [388181.11419862957, 6093787.473653396], "s": [12.680309214973432, 9.863983985851444], "yaw": -1.6766790984882496}, "height_m": 3.0}, {"min_proj": [388019.1343330813, 6093779.351586104], "max_proj": [388041.80269126827, 6093800.031993133], "obb": {"c": [388030.4685155275, 6093789.680667512], "s": [24.83538771604186, 5.9156458354206904], "yaw": -0.7118643416750656}, "height_m": 3.0}, {"min_proj": [388121.86273935315, 6093785.995106874], "max_proj": [388138.3487849602, 6093805.834185571], "obb": {"c": [388129.5612364328, 6093795.914677419], "s": [18.31365312266428, 15.776311710127962], "yaw": -1.6738293476020814}, "height_m": 3.0}, {"min_proj": [388025.5013613142, 6093790.088741914], "max_proj": [388040.66088787536, 6093804.1380892], "obb": {"c": [388033.08086088405, 6093797.108171553], "s": [15.58284882312888, 5.142382851483304], "yaw": -0.7114938964864643}, "height_m": 3.0}, {"min_proj": [388075.634803978, 6093794.592909612], "max_proj": [388090.1841633696, 6093805.53464171], "obb": {"c": [388082.9095791631, 6093800.365463233], "s": [13.57093441075081, 10.20614210190736], "yaw": -0.10312027528701136}, "height_m": 3.0}, {"min_proj": [388015.1126907944, 6093802.337656233], "max_proj": [388026.76484216505, 6093813.237543326], "obb": {"c": [388020.9382740339, 6093807.788213346], "s": [11.542287084098493, 4.457484892482732], "yaw": 2.429755486411537}, "height_m": 3.0}, {"min_proj": [387979.44551598537, 6093796.882584842], "max_proj": [388002.2838368353, 6093819.117596906], "obb": {"c": [387990.8645151546, 6093807.994790325], "s": [18.68756019562014, 13.30116948140334], "yaw": -0.7115964188838261}, "height_m": 3.0}, {"min_proj": [388028.88577805745, 6093804.67801974], "max_proj": [388040.89609335235, 6093815.209033337], "obb": {"c": [388034.8910333146, 6093809.943544978], "s": [10.972057739242645, 9.258745711718127], "yaw": 3.0189992450835708}, "height_m": 3.0}, {"min_proj": [388133.06715406943, 6093804.617419369], "max_proj": [388147.99918571557, 6093818.669411861], "obb": {"c": [388140.6257473458, 6093811.796625631], "s": [13.849639518403484, 13.007717896423], "yaw": 3.038282820653906}, "height_m": 3.0}, {"min_proj": [388175.4837122778, 6093743.046000991], "max_proj": [388194.4166535113, 6093760.9255887], "obb": {"c": [388184.95014427573, 6093751.985825561], "s": [17.56250684711614, 16.40437555653808], "yaw": -0.08778123370258359}, "height_m": 3.0}, {"min_proj": [388333.616740559, 6093757.006755949], "max_proj": [388349.2787314205, 6093769.344658922], "obb": {"c": [388341.4478920074, 6093763.181170562], "s": [13.978482345043306, 9.706539101505822], "yaw": 2.936502683845148}, "height_m": 3.0}, {"min_proj": [388373.74681615125, 6093786.446636327], "max_proj": [388382.11773551104, 6093796.555518773], "obb": {"c": [388377.93232257816, 6093791.501049253], "s": [9.974228637963868, 8.206786370755935], "yaw": 1.5542190299442629}, "height_m": 3.0}, {"min_proj": [388237.2111751521, 6093782.929864377], "max_proj": [388249.34940461436, 6093800.223372305], "obb": {"c": [388243.28030077275, 6093791.576683592], "s": [16.26122212557351, 10.444538226171565], "yaw": 1.4626714961253222}, "height_m": 3.0}, {"min_proj": [388228.89451711404, 6093807.531894884], "max_proj": [388251.70283269684, 6093830.433601061], "obb": {"c": [388240.298602572, 6093818.982730871], "s": [20.815294793149132, 20.688610116957413], "yaw": 1.4629814964153645}, "height_m": 3.0}, {"min_proj": [388363.02493214846, 6093812.423012754], "max_proj": [388387.7297369079, 6093833.372114722], "obb": {"c": [388375.3772533106, 6093822.95702023], "s": [24.498196515719936, 20.81685483385089], "yaw": -0.016425510596924292}, "height_m": 6.0}, {"min_proj": [388205.1874049426, 6093814.682336954], "max_proj": [388214.95934871625, 6093831.326630638], "obb": {"c": [388210.0734237243, 6093823.1273503825], "s": [16.118697220574774, 8.080478442729108], "yaw": -1.67887030060809}, "height_m": 3.0}, {"min_proj": [388181.1592770944, 6093820.360983272], "max_proj": [388191.4252288411, 6093834.384940866], "obb": {"c": [388186.29229822214, 6093827.373032705], "s": [13.147040623564564, 8.902545828059644], "yaw": -1.678644124447562}, "height_m": 3.0}, {"min_proj": [388183.5079293619, 6093835.420952099], "max_proj": [388200.0572556078, 6093842.352314558], "obb": {"c": [388191.7825109803, 6093838.892229291], "s": [16.07779527275593, 5.23791650312465], "yaw": 3.033457323229498}, "height_m": 3.0}, {"min_proj": [388236.83642767125, 6093847.476648424], "max_proj": [388248.9493112888, 6093868.268113586], "obb": {"c": [388242.8929423911, 6093857.872264038], "s": [19.846338742035574, 10.026264742114853], "yaw": -1.6791082292543396}, "height_m": 3.0}, {"min_proj": [387972.0000664629, 6093818.3048922215], "max_proj": [387981.5433939172, 6093827.1573346155], "obb": {"c": [387976.7717570607, 6093822.731039199], "s": [8.653171787049033, 7.861220333633444], "yaw": -0.12165490380890474}, "height_m": 3.0}, {"min_proj": [388117.5526829935, 6093820.938794518], "max_proj": [388140.26623677375, 6093828.636963754], "obb": {"c": [388128.9091556832, 6093824.7906052], "s": [22.272671952572725, 5.448134483342954], "yaw": -0.10278583383172371}, "height_m": 3.0}, {"min_proj": [387981.3458822309, 6093820.02287828], "max_proj": [387993.8805062109, 6093831.8992607435], "obb": {"c": [387987.6131394836, 6093825.961225212], "s": [11.740575833819008, 5.579183443748072], "yaw": -0.7116209687572684}, "height_m": 3.0}, {"min_proj": [388075.70011399355, 6093821.113779479], "max_proj": [388113.9704434701, 6093833.371640954], "obb": {"c": [388094.83519983606, 6093827.248322718], "s": [37.60100140651323, 8.450915296772013], "yaw": 3.038672230303811}, "height_m": 3.0}, {"min_proj": [388030.59260618774, 6093827.715127003], "max_proj": [388043.38409614953, 6093837.546388018], "obb": {"c": [388037.19378123694, 6093832.627453113], "s": [12.27132314743371, 8.408828940718585], "yaw": -0.12183471175931407}, "height_m": 3.0}, {"min_proj": [388135.4403342517, 6093828.93269523], "max_proj": [388149.7615744339, 6093841.523258286], "obb": {"c": [388142.6009121105, 6093835.228053466], "s": [13.234981694162723, 11.29758279815465], "yaw": -0.10248769908165123}, "height_m": 3.0}, {"min_proj": [388017.4820239387, 6093830.109182604], "max_proj": [388024.9185552127, 6093841.441066943], "obb": {"c": [388021.20034737483, 6093835.775164346], "s": [10.657320388128488, 6.18099301912015], "yaw": -1.6932542779416844}, "height_m": 3.0}, {"min_proj": [388077.4131286789, 6093834.080974074], "max_proj": [388092.8031898618, 6093840.607379441], "obb": {"c": [388085.10808837786, 6093837.338667494], "s": [14.951928119214436, 5.0239227984659784], "yaw": -0.10326192355441409}, "height_m": 3.0}, {"min_proj": [387986.8092458937, 6093832.095688919], "max_proj": [387998.4133725652, 6093843.401377292], "obb": {"c": [387992.61132633506, 6093837.748517448], "s": [10.449795064672786, 10.110085529431489], "yaw": 3.0194110835917254}, "height_m": 3.0}, {"min_proj": [388109.9965256371, 6093829.932792893], "max_proj": [388116.27116635605, 6093848.753843318], "obb": {"c": [388113.1337975744, 6093839.343215797], "s": [18.466603053559208, 4.398295165107375], "yaw": 1.4677192047326708}, "height_m": 3.0}, {"min_proj": [387733.70571537426, 6093434.331432632], "max_proj": [387752.3689120093, 6093449.938284524], "obb": {"c": [387743.0363613026, 6093441.737879326], "s": [17.345690421560754, 14.833293417299192], "yaw": 3.0472923908856453}, "height_m": 3.0}, {"min_proj": [387728.3466921081, 6093452.636184191], "max_proj": [387753.45200453175, 6093470.210823012], "obb": {"c": [387740.3830124615, 6093461.021138917], "s": [24.663325365150925, 15.996590752586098], "yaw": -0.10006922631457078}, "height_m": 3.0}, {"min_proj": [387730.70965400507, 6093840.193327412], "max_proj": [387757.7716616162, 6093860.278727818], "obb": {"c": [387744.7743779087, 6093850.235666422], "s": [26.448606632625367, 17.407043778479984], "yaw": -0.10514958764653745}, "height_m": 3.0}, {"min_proj": [387731.45262776513, 6093864.556024869], "max_proj": [387752.6305612167, 6093886.394266421], "obb": {"c": [387742.75777806767, 6093875.473461223], "s": [20.648385824701748, 19.785409398322503], "yaw": -0.10511085766667269}, "height_m": 3.0}, {"min_proj": [388719.86117568606, 6093459.404329252], "max_proj": [388734.7017279224, 6093474.070981044], "obb": {"c": [388727.28102136287, 6093466.738414504], "s": [11.821493116955354, 9.08082177719914], "yaw": 2.3915643672416933}, "height_m": 3.0}, {"min_proj": [388795.77485190466, 6093459.874612662], "max_proj": [388816.19620621245, 6093480.555346698], "obb": {"c": [388805.98521213786, 6093470.210462323], "s": [17.718560946714963, 11.390813099752098], "yaw": 0.8188545598333126}, "height_m": 3.0}, {"min_proj": [388722.7473177256, 6093473.43518425], "max_proj": [388730.29150196497, 6093480.907980104], "obb": {"c": [388726.51902352954, 6093477.172205864], "s": [5.848833911727612, 4.788283658495462], "yaw": 2.3911090025141175}, "height_m": 3.0}, {"min_proj": [388730.83938943176, 6093470.964964946], "max_proj": [388745.17511941004, 6093485.1560432995], "obb": {"c": [388738.00735704706, 6093478.060326575], "s": [11.250605495367243, 8.954600228710282], "yaw": 2.3918169614761116}, "height_m": 3.0}, {"min_proj": [388757.54126719653, 6093488.903699455], "max_proj": [388780.50122271874, 6093516.386583385], "obb": {"c": [388768.12576481496, 6093502.650930102], "s": [23.28561805097617, 15.380233014896916], "yaw": 0.8203306473316682}, "height_m": 3.0}, {"min_proj": [388602.73095601413, 6093527.9989409875], "max_proj": [388622.56814829906, 6093547.568175097], "obb": {"c": [388612.649230028, 6093537.78412467], "s": [15.349157859800385, 12.591644658582771], "yaw": 2.4134789602422106}, "height_m": 6.0}, {"min_proj": [388821.60125308594, 6093539.839778351], "max_proj": [388846.6897079805, 6093564.315760929], "obb": {"c": [388834.14604881156, 6093552.076961277], "s": [23.466048396138284, 11.6257565163299], "yaw": 2.3909647770218765}, "height_m": 3.0}, {"min_proj": [388830.03438585706, 6093578.203414217], "max_proj": [388845.80723840836, 6093593.809366039], "obb": {"c": [388837.9211624781, 6093586.005783452], "s": [12.566833069129911, 9.651626590773612], "yaw": 2.391467159878002}, "height_m": 3.0}, {"min_proj": [388182.4596798514, 6093864.198871326], "max_proj": [388194.35113238747, 6093871.044858214], "obb": {"c": [388188.40539807826, 6093867.621947114], "s": [11.346264047563931, 5.651273450853821], "yaw": -0.1084803464184539}, "height_m": 3.0}, {"min_proj": [388213.23335227225, 6093860.3795363745], "max_proj": [388222.6550353566, 6093889.052836479], "obb": {"c": [388217.944129547, 6093874.716144365], "s": [28.144480013744023, 6.4232439993605395], "yaw": 1.4627086450245077}, "height_m": 3.0}, {"min_proj": [388222.580731891, 6093879.263766645], "max_proj": [388237.37081100245, 6093889.150890622], "obb": {"c": [388229.9750886978, 6093884.207005115], "s": [13.964088275664611, 8.432375716016695], "yaw": -0.10794976212767264}, "height_m": 3.0}, {"min_proj": [388187.18351887097, 6093876.985190752], "max_proj": [388199.9514580212, 6093891.4869583575], "obb": {"c": [388193.4105474403, 6093884.036940943], "s": [13.722280073851621, 11.67093709018548], "yaw": 1.4628190201052294}, "height_m": 3.0}, {"min_proj": [388032.7294547119, 6093836.943066738], "max_proj": [388045.62667575054, 6093850.284890429], "obb": {"c": [388039.1780309578, 6093843.613968184], "s": [12.0343515162423, 11.51836386887022], "yaw": -1.6927884268835518}, "height_m": 3.0}, {"min_proj": [388082.5941642549, 6093860.4288909305], "max_proj": [388096.61273035774, 6093871.893143852], "obb": {"c": [388089.6034517599, 6093866.160996599], "s": [13.042772111493537, 10.181699612755802], "yaw": -0.10277659169428408}, "height_m": 3.0}, {"min_proj": [388111.1332974549, 6093864.0063743675], "max_proj": [388117.55324823747, 6093871.999527629], "obb": {"c": [388114.3432467658, 6093868.002874106], "s": [7.447051449607179, 5.682486832019752], "yaw": 1.4674960314607213}, "height_m": 3.0}, {"min_proj": [388119.8402422339, 6093870.9844809165], "max_proj": [388129.8988094335, 6093877.275956496], "obb": {"c": [388124.8694859789, 6093874.130212489], "s": [9.560646432903248, 5.3361867105859675], "yaw": 3.0385287664711527}, "height_m": 3.0}, {"min_proj": [388038.4057496885, 6093868.685126604], "max_proj": [388052.1770455745, 6093881.639920525], "obb": {"c": [388045.2882562279, 6093875.162459016], "s": [12.465564914178149, 11.51789594138011], "yaw": -0.12249958957323882}, "height_m": 3.0}, {"min_proj": [387986.9052006966, 6093876.432833152], "max_proj": [388002.5387588156, 6093891.00656864], "obb": {"c": [387994.7219530375, 6093883.714112512], "s": [14.16354992398014, 12.960133606395523], "yaw": -0.12182820813947218}, "height_m": 3.0}, {"min_proj": [388130.1021846494, 6093875.46775005], "max_proj": [388144.20756832504, 6093894.133134004], "obb": {"c": [388137.1525402704, 6093884.800337517], "s": [17.48269154686109, 12.372898749000663], "yaw": -1.674118848041546}, "height_m": 3.0}, {"min_proj": [388021.3103921926, 6093881.7605092125], "max_proj": [388026.33905211266, 6093888.018974342], "obb": {"c": [388023.8249438035, 6093884.885592078], "s": [5.7808768193650915, 4.360621840004745], "yaw": 1.449300328042323}, "height_m": 3.0}, {"min_proj": [388112.1353668942, 6093873.43359485], "max_proj": [388122.1811779587, 6093899.526895333], "obb": {"c": [388117.15827166947, 6093886.480305061], "s": [25.468896046141094, 7.460609527975481], "yaw": -1.674043394610839}, "height_m": 3.0}, {"min_proj": [388091.1297017108, 6093882.905632494], "max_proj": [388103.48940651387, 6093895.767624748], "obb": {"c": [388097.3095763092, 6093889.336556488], "s": [11.786691202509838, 11.203674459917957], "yaw": -1.6741311918010502}, "height_m": 3.0}, {"min_proj": [387891.51296934224, 6093823.765176988], "max_proj": [387913.2098550074, 6093840.485960685], "obb": {"c": [387902.35991640174, 6093832.131290526], "s": [20.46561496395429, 14.998826696310529], "yaw": 3.0539574954972672}, "height_m": 3.0}, {"min_proj": [387829.6160223604, 6093829.734497191], "max_proj": [387845.480064734, 6093839.912499706], "obb": {"c": [387837.5454902842, 6093834.818039433], "s": [15.149226643202223, 8.898529400697756], "yaw": -0.08753936863805126}, "height_m": 3.0}, {"min_proj": [387778.5386476912, 6093840.602855381], "max_proj": [387791.1542417867, 6093855.61074187], "obb": {"c": [387784.8464389055, 6093848.10681096], "s": [14.096056203194594, 11.465473931987704], "yaw": -1.6553978096980213}, "height_m": 3.0}, {"min_proj": [387825.7567741942, 6093856.40207824], "max_proj": [387841.9911557364, 6093874.159808712], "obb": {"c": [387833.8739181981, 6093865.280996074], "s": [16.52826818837199, 14.84742539417687], "yaw": -1.6582545958220452}, "height_m": 3.0}, {"min_proj": [387769.57658705825, 6093862.829199306], "max_proj": [387798.9977020597, 6093885.480911715], "obb": {"c": [387783.6337481139, 6093873.877572608], "s": [28.755941981646732, 20.313827737968868], "yaw": 3.036525233803033}, "height_m": 3.0}, {"min_proj": [387816.1653627381, 6093883.321222887], "max_proj": [387833.59996317024, 6093904.818546147], "obb": {"c": [387825.47986545763, 6093894.062288336], "s": [20.095917289481175, 16.919291172668565], "yaw": 1.4823090636496368}, "height_m": 3.0}, {"min_proj": [387780.3218129624, 6093892.2728575785], "max_proj": [387796.45573538815, 6093909.538510132], "obb": {"c": [387788.3887526464, 6093900.905713463], "s": [15.839882350868132, 14.551045763553258], "yaw": -1.6759984225416698}, "height_m": 3.0}, {"min_proj": [387877.71025237406, 6093900.332946784], "max_proj": [387896.10290740465, 6093921.053291538], "obb": {"c": [387886.9065989241, 6093910.7167527685], "s": [20.811256875521646, 16.651070570069585], "yaw": 1.4839903642501777}, "height_m": 9.0}, {"min_proj": [387833.3051819599, 6093907.000490264], "max_proj": [387851.78032415215, 6093922.393588004], "obb": {"c": [387842.5454550936, 6093914.68370987], "s": [17.286067070281483, 14.428226321350902], "yaw": -0.08747513724824624}, "height_m": 3.0}, {"min_proj": [387818.1723021886, 6093906.05300321], "max_proj": [387826.1890881245, 6093924.067979929], "obb": {"c": [387822.1807637011, 6093915.060591937], "s": [17.512332693380085, 6.510244143991777], "yaw": 1.4831822277985713}, "height_m": 3.0}, {"min_proj": [388039.78751392086, 6093884.45178769], "max_proj": [388056.0858533931, 6093897.670385015], "obb": {"c": [388047.93661307, 6093891.065619653], "s": [15.011106074623228, 11.48421030817878], "yaw": 3.0194452477583558}, "height_m": 3.0}, {"min_proj": [388121.91696943156, 6093889.089700666], "max_proj": [388131.4557302764, 6093898.490903545], "obb": {"c": [388126.6863532215, 6093893.790321619], "s": [8.704829750748376, 8.551659899652668], "yaw": -0.10310733229527755}, "height_m": 3.0}, {"min_proj": [387985.7475577333, 6093893.886478368], "max_proj": [388000.99401267205, 6093905.772828196], "obb": {"c": [387993.3708119083, 6093899.829653531], "s": [14.108080039094089, 10.253915549839089], "yaw": -0.12144569188084371}, "height_m": 3.0}, {"min_proj": [388044.30371597625, 6093899.083857729], "max_proj": [388062.5233826233, 6093908.05865332], "obb": {"c": [388053.4134795619, 6093903.571288678], "s": [17.511239248122166, 6.899728925259059], "yaw": -0.1217941158590499}, "height_m": 3.0}, {"min_proj": [387983.41631315456, 6093907.581198205], "max_proj": [387996.7401334175, 6093913.974785003], "obb": {"c": [387990.0771969433, 6093910.777665809], "s": [12.829804836491228, 4.875679609460333], "yaw": -0.12145842907980739}, "height_m": 3.0}, {"min_proj": [387867.78625868657, 6094025.414178646], "max_proj": [387883.702022227, 6094038.9565413445], "obb": {"c": [387875.747352963, 6094032.185189906], "s": [14.987452071660575, 12.394330686040528], "yaw": -0.07930421206085224}, "height_m": 3.0}]}